<?xml version="1.0" encoding="UTF-8"?><kml xmlns="http://www.opengis.net/kml/2.2"><Document><name>overpass-turbo.eu export</name><description>Filtered OSM data converted to KML by overpass turbo.
Copyright: The data included in this document is from www.openstreetmap.org. The data is made available under ODbL.
Timestamp: 2025-09-29T00:20:33Z</description><Placemark><ExtendedData><Data name="@id"><value>way/699336666</value></Data><Data name="amenity"><value>shower</value></Data><Data name="building"><value>yes</value></Data><Data name="@geometry"><value>center</value></Data></ExtendedData><Point><coordinates>6.5015902,60.6314254</coordinates></Point></Placemark><Placemark><ExtendedData><Data name="@id"><value>way/827762788</value></Data><Data name="amenity"><value>shower</value></Data><Data name="building"><value>toilets</value></Data><Data name="ref:bygningsnr"><value>300553139</value></Data><Data name="@geometry"><value>center</value></Data></ExtendedData><Point><coordinates>7.2153295,62.7392555</coordinates></Point></Placemark><Placemark><ExtendedData><Data name="@id"><value>node/1348169455</value></Data><Data name="amenity"><value>shower</value></Data></ExtendedData><Point><coordinates>8.6151689,58.3346794</coordinates></Point></Placemark><Placemark><ExtendedData><Data name="@id"><value>node/1418918939</value></Data><Data name="amenity"><value>shower</value></Data></ExtendedData><Point><coordinates>8.4036163,61.6248452</coordinates></Point></Placemark><Placemark><ExtendedData><Data name="@id"><value>node/1457124731</value></Data><Data name="amenity"><value>shower</value></Data></ExtendedData><Point><coordinates>7.4505993,58.0209383</coordinates></Point></Placemark><Placemark><ExtendedData><Data name="@id"><value>node/1871141696</value></Data><Data name="amenity"><value>shower</value></Data></ExtendedData><Point><coordinates>7.336551,60.8740278</coordinates></Point></Placemark><Placemark><ExtendedData><Data name="@id"><value>node/1910750152</value></Data><Data name="amenity"><value>shower</value></Data><Data name="fixme"><value>position</value></Data></ExtendedData><Point><coordinates>10.4898821,59.8425031</coordinates></Point></Placemark><Placemark><ExtendedData><Data name="@id"><value>node/2995953465</value></Data><Data name="amenity"><value>shower</value></Data><Data name="female"><value>yes</value></Data></ExtendedData><Point><coordinates>23.2683789,69.9284832</coordinates></Point></Placemark><Placemark><ExtendedData><Data name="@id"><value>node/2995953466</value></Data><Data name="amenity"><value>shower</value></Data><Data name="male"><value>yes</value></Data></ExtendedData><Point><coordinates>23.2685854,69.9284151</coordinates></Point></Placemark><Placemark><ExtendedData><Data name="@id"><value>node/3122478607</value></Data><Data name="access"><value>yes</value></Data><Data name="amenity"><value>shower</value></Data></ExtendedData><Point><coordinates>10.3813285,63.4325818</coordinates></Point></Placemark><Placemark><ExtendedData><Data name="@id"><value>node/3300516880</value></Data><Data name="amenity"><value>shower</value></Data><Data name="fee"><value>yes</value></Data><Data name="female"><value>yes</value></Data><Data name="male"><value>yes</value></Data></ExtendedData><Point><coordinates>9.8574262,58.9660654</coordinates></Point></Placemark><Placemark><ExtendedData><Data name="@id"><value>node/3300516881</value></Data><Data name="amenity"><value>shower</value></Data><Data name="fee"><value>yes</value></Data><Data name="female"><value>yes</value></Data><Data name="male"><value>yes</value></Data></ExtendedData><Point><coordinates>9.8548567,58.9673457</coordinates></Point></Placemark><Placemark><ExtendedData><Data name="@id"><value>node/3301114712</value></Data><Data name="amenity"><value>shower</value></Data></ExtendedData><Point><coordinates>9.8752914,58.9864401</coordinates></Point></Placemark><Placemark><ExtendedData><Data name="@id"><value>node/3301122975</value></Data><Data name="amenity"><value>shower</value></Data></ExtendedData><Point><coordinates>9.875841,58.9861319</coordinates></Point></Placemark><Placemark><ExtendedData><Data name="@id"><value>node/3356843256</value></Data><Data name="access"><value>key</value></Data><Data name="amenity"><value>shower</value></Data><Data name="fee"><value>yes</value></Data><Data name="hot_water"><value>yes</value></Data><Data name="opening_hours"><value>Mo-Su 06:00-24:00</value></Data><Data name="shower"><value>indoor</value></Data><Data name="supervised"><value>yes</value></Data><Data name="unisex"><value>yes</value></Data><Data name="wheelchair"><value>yes</value></Data></ExtendedData><Point><coordinates>6.4363321,60.6568517</coordinates></Point></Placemark><Placemark><ExtendedData><Data name="@id"><value>node/3384141978</value></Data><Data name="access"><value>customers</value></Data><Data name="amenity"><value>shower</value></Data></ExtendedData><Point><coordinates>14.2165599,68.2246448</coordinates></Point></Placemark><Placemark><ExtendedData><Data name="@id"><value>node/3607894872</value></Data><Data name="access"><value>customers</value></Data><Data name="amenity"><value>shower</value></Data><Data name="female"><value>yes</value></Data><Data name="male"><value>no</value></Data></ExtendedData><Point><coordinates>29.330739,70.1196532</coordinates></Point></Placemark><Placemark><ExtendedData><Data name="@id"><value>node/3657093072</value></Data><Data name="amenity"><value>shower</value></Data></ExtendedData><Point><coordinates>12.8436145,64.743481</coordinates></Point></Placemark><Placemark><ExtendedData><Data name="@id"><value>node/3658272480</value></Data><Data name="amenity"><value>shower</value></Data><Data name="fee"><value>yes</value></Data><Data name="hot_water"><value>yes</value></Data><Data name="location"><value>indoor</value></Data><Data name="opening_hours"><value>24/7</value></Data><Data name="unisex"><value>yes</value></Data></ExtendedData><Point><coordinates>10.2901108,63.0445215</coordinates></Point></Placemark><Placemark><ExtendedData><Data name="@id"><value>node/3659217804</value></Data><Data name="access"><value>customers</value></Data><Data name="amenity"><value>shower</value></Data><Data name="fee"><value>yes</value></Data><Data name="female"><value>yes</value></Data><Data name="male"><value>yes</value></Data></ExtendedData><Point><coordinates>22.2828709,70.0287409</coordinates></Point></Placemark><Placemark><ExtendedData><Data name="@id"><value>node/3659275801</value></Data><Data name="access"><value>customers</value></Data><Data name="amenity"><value>shower</value></Data><Data name="fee"><value>yes</value></Data></ExtendedData><Point><coordinates>15.6897479,67.4316429</coordinates></Point></Placemark><Placemark><ExtendedData><Data name="@id"><value>node/3662420388</value></Data><Data name="amenity"><value>shower</value></Data></ExtendedData><Point><coordinates>11.2724508,59.1293864</coordinates></Point></Placemark><Placemark><ExtendedData><Data name="@id"><value>node/3676732647</value></Data><Data name="amenity"><value>shower</value></Data></ExtendedData><Point><coordinates>10.708807,63.4330218</coordinates></Point></Placemark><Placemark><ExtendedData><Data name="@id"><value>node/3676732739</value></Data><Data name="amenity"><value>shower</value></Data></ExtendedData><Point><coordinates>10.7112882,63.4336199</coordinates></Point></Placemark><Placemark><ExtendedData><Data name="@id"><value>node/3698296576</value></Data><Data name="amenity"><value>shower</value></Data></ExtendedData><Point><coordinates>8.0305042,58.147113</coordinates></Point></Placemark><Placemark><ExtendedData><Data name="@id"><value>node/4011377070</value></Data><Data name="access"><value>customers</value></Data><Data name="amenity"><value>shower</value></Data></ExtendedData><Point><coordinates>11.5782654,64.1096984</coordinates></Point></Placemark><Placemark><ExtendedData><Data name="@id"><value>node/4213831992</value></Data><Data name="wheelchair"><value>no</value></Data><Data name="fee"><value>yes</value></Data><Data name="access"><value>yes</value></Data><Data name="amenity"><value>shower</value></Data></ExtendedData><Point><coordinates>5.0717472,61.3475213</coordinates></Point></Placemark><Placemark><ExtendedData><Data name="@id"><value>node/4230609090</value></Data><Data name="access"><value>yes</value></Data><Data name="amenity"><value>shower</value></Data><Data name="fee"><value>yes</value></Data></ExtendedData><Point><coordinates>11.7385334,65.0883063</coordinates></Point></Placemark><Placemark><ExtendedData><Data name="@id"><value>node/4237269857</value></Data><Data name="amenity"><value>shower</value></Data><Data name="operator"><value>Voss Camping</value></Data></ExtendedData><Point><coordinates>6.4216561,60.6249976</coordinates></Point></Placemark><Placemark><ExtendedData><Data name="@id"><value>node/4258415770</value></Data><Data name="access"><value>customers</value></Data><Data name="amenity"><value>shower</value></Data><Data name="fee"><value>yes</value></Data></ExtendedData><Point><coordinates>15.2360592,68.5314842</coordinates></Point></Placemark><Placemark><ExtendedData><Data name="@id"><value>node/4288705363</value></Data><Data name="amenity"><value>shower</value></Data><Data name="charge"><value>5</value></Data><Data name="fee"><value>yes</value></Data><Data name="operator"><value>Otta Camping og Motell</value></Data></ExtendedData><Point><coordinates>9.5109138,61.7719388</coordinates></Point></Placemark><Placemark><name>Circle K Sortland</name><ExtendedData><Data name="@id"><value>node/4300890755</value></Data><Data name="amenity"><value>shower</value></Data><Data name="name"><value>Circle K Sortland</value></Data></ExtendedData><Point><coordinates>15.4152072,68.7015653</coordinates></Point></Placemark><Placemark><ExtendedData><Data name="@id"><value>node/4315928689</value></Data><Data name="amenity"><value>shower</value></Data></ExtendedData><Point><coordinates>6.7184497,60.3742296</coordinates></Point></Placemark><Placemark><ExtendedData><Data name="@id"><value>node/4321162902</value></Data><Data name="amenity"><value>shower</value></Data></ExtendedData><Point><coordinates>9.8749367,59.018727</coordinates></Point></Placemark><Placemark><ExtendedData><Data name="@id"><value>node/4332837717</value></Data><Data name="amenity"><value>shower</value></Data></ExtendedData><Point><coordinates>10.6754727,59.8948688</coordinates></Point></Placemark><Placemark><name>Circle K Kautokeino</name><ExtendedData><Data name="@id"><value>node/4343042392</value></Data><Data name="amenity"><value>shower</value></Data><Data name="name"><value>Circle K Kautokeino</value></Data><Data name="name:se"><value>Circle K Guovdageaidnu</value></Data></ExtendedData><Point><coordinates>23.0479014,69.021292</coordinates></Point></Placemark><Placemark><ExtendedData><Data name="@id"><value>node/4348278026</value></Data><Data name="amenity"><value>shower</value></Data></ExtendedData><Point><coordinates>5.5190331,60.8969445</coordinates></Point></Placemark><Placemark><ExtendedData><Data name="@id"><value>node/4426147361</value></Data><Data name="amenity"><value>shower</value></Data><Data name="location"><value>outdoor</value></Data></ExtendedData><Point><coordinates>9.222575,58.7100052</coordinates></Point></Placemark><Placemark><ExtendedData><Data name="@id"><value>node/4438066379</value></Data><Data name="location"><value>indoor</value></Data><Data name="hot_water"><value>yes</value></Data><Data name="fee"><value>yes</value></Data><Data name="amenity"><value>shower</value></Data></ExtendedData><Point><coordinates>9.2400558,58.7182428</coordinates></Point></Placemark><Placemark><ExtendedData><Data name="@id"><value>node/4439205018</value></Data><Data name="amenity"><value>shower</value></Data></ExtendedData><Point><coordinates>9.2371361,58.7205609</coordinates></Point></Placemark><Placemark><ExtendedData><Data name="@id"><value>node/4585940682</value></Data><Data name="amenity"><value>shower</value></Data><Data name="toilets"><value>yes</value></Data></ExtendedData><Point><coordinates>5.0498835,61.0248646</coordinates></Point></Placemark><Placemark><description>Outdoor public shower, probably only turned on during summer periods.</description><ExtendedData><Data name="@id"><value>node/4838763709</value></Data><Data name="amenity"><value>shower</value></Data><Data name="description"><value>Outdoor public shower, probably only turned on during summer periods.</value></Data></ExtendedData><Point><coordinates>10.4335989,63.4499477</coordinates></Point></Placemark><Placemark><ExtendedData><Data name="@id"><value>node/4895337892</value></Data><Data name="amenity"><value>shower</value></Data></ExtendedData><Point><coordinates>7.5306237,62.5873016</coordinates></Point></Placemark><Placemark><ExtendedData><Data name="@id"><value>node/4912280838</value></Data><Data name="amenity"><value>shower</value></Data></ExtendedData><Point><coordinates>10.4673757,63.4446972</coordinates></Point></Placemark><Placemark><ExtendedData><Data name="@id"><value>node/4935692562</value></Data><Data name="access"><value>customers</value></Data><Data name="amenity"><value>shower</value></Data><Data name="fee"><value>yes</value></Data><Data name="female"><value>yes</value></Data><Data name="male"><value>yes</value></Data></ExtendedData><Point><coordinates>7.4624553,59.2712837</coordinates></Point></Placemark><Placemark><ExtendedData><Data name="@id"><value>node/4993082577</value></Data><Data name="access"><value>customers</value></Data><Data name="amenity"><value>shower</value></Data><Data name="fee"><value>yes</value></Data><Data name="female"><value>yes</value></Data><Data name="indoor"><value>yes</value></Data><Data name="supervised"><value>yes</value></Data></ExtendedData><Point><coordinates>7.26658,61.6306946</coordinates></Point></Placemark><Placemark><ExtendedData><Data name="@id"><value>node/4993082584</value></Data><Data name="access"><value>customers</value></Data><Data name="amenity"><value>shower</value></Data><Data name="fee"><value>yes</value></Data><Data name="indoor"><value>yes</value></Data><Data name="male"><value>yes</value></Data><Data name="supervised"><value>yes</value></Data></ExtendedData><Point><coordinates>7.2665952,61.6307089</coordinates></Point></Placemark><Placemark><ExtendedData><Data name="@id"><value>node/4993082596</value></Data><Data name="access"><value>customers</value></Data><Data name="amenity"><value>shower</value></Data><Data name="fee"><value>yes</value></Data><Data name="indoor"><value>yes</value></Data><Data name="supervised"><value>yes</value></Data><Data name="unisex"><value>yes</value></Data></ExtendedData><Point><coordinates>7.2667418,61.6307765</coordinates></Point></Placemark><Placemark><ExtendedData><Data name="@id"><value>node/4993082601</value></Data><Data name="access"><value>customers</value></Data><Data name="amenity"><value>shower</value></Data><Data name="fee"><value>yes</value></Data><Data name="indoor"><value>yes</value></Data><Data name="supervised"><value>yes</value></Data><Data name="unisex"><value>yes</value></Data></ExtendedData><Point><coordinates>7.2666433,61.630798</coordinates></Point></Placemark><Placemark><ExtendedData><Data name="@id"><value>node/4993082604</value></Data><Data name="access"><value>customers</value></Data><Data name="amenity"><value>shower</value></Data><Data name="fee"><value>yes</value></Data><Data name="indoor"><value>yes</value></Data><Data name="supervised"><value>yes</value></Data><Data name="unisex"><value>yes</value></Data></ExtendedData><Point><coordinates>7.2666001,61.6308101</coordinates></Point></Placemark><Placemark><ExtendedData><Data name="@id"><value>node/5000670978</value></Data><Data name="access"><value>customers</value></Data><Data name="amenity"><value>shower</value></Data><Data name="female"><value>yes</value></Data><Data name="male"><value>yes</value></Data></ExtendedData><Point><coordinates>7.8008428,58.6888813</coordinates></Point></Placemark><Placemark><ExtendedData><Data name="@id"><value>node/5116697598</value></Data><Data name="amenity"><value>shower</value></Data><Data name="fee"><value>no</value></Data><Data name="opening_hours"><value>24/7</value></Data><Data name="supervised"><value>no</value></Data></ExtendedData><Point><coordinates>9.9536817,64.0544717</coordinates></Point></Placemark><Placemark><ExtendedData><Data name="@id"><value>node/5124771368</value></Data><Data name="amenity"><value>shower</value></Data></ExtendedData><Point><coordinates>17.9081936,69.5072088</coordinates></Point></Placemark><Placemark><ExtendedData><Data name="@id"><value>node/5146097244</value></Data><Data name="amenity"><value>shower</value></Data><Data name="fee"><value>yes</value></Data><Data name="opening_hours"><value>24/7</value></Data><Data name="operator"><value>Øysand Camping</value></Data></ExtendedData><Point><coordinates>10.2139752,63.327949</coordinates></Point></Placemark><Placemark><ExtendedData><Data name="@id"><value>node/5146097245</value></Data><Data name="amenity"><value>shower</value></Data><Data name="fee"><value>yes</value></Data><Data name="opening_hours"><value>24/7</value></Data><Data name="operator"><value>Øysand Camping</value></Data></ExtendedData><Point><coordinates>10.2139436,63.3279513</coordinates></Point></Placemark><Placemark><ExtendedData><Data name="@id"><value>node/5146097246</value></Data><Data name="amenity"><value>shower</value></Data><Data name="fee"><value>yes</value></Data><Data name="opening_hours"><value>24/7</value></Data><Data name="operator"><value>Øysand Camping</value></Data></ExtendedData><Point><coordinates>10.2139659,63.3279979</coordinates></Point></Placemark><Placemark><ExtendedData><Data name="@id"><value>node/5146097247</value></Data><Data name="amenity"><value>shower</value></Data><Data name="fee"><value>yes</value></Data><Data name="opening_hours"><value>24/7</value></Data><Data name="operator"><value>Øysand Camping</value></Data></ExtendedData><Point><coordinates>10.2139929,63.3279954</coordinates></Point></Placemark><Placemark><name>Havnevakt</name><description>can be used for free</description><ExtendedData><Data name="@id"><value>node/5405738525</value></Data><Data name="amenity"><value>shower</value></Data><Data name="description"><value>can be used for free</value></Data><Data name="name"><value>Havnevakt</value></Data><Data name="phone"><value>+47 78 40 74 02;+47 91 37 03 11</value></Data></ExtendedData><Point><coordinates>23.6810457,70.6647674</coordinates></Point></Placemark><Placemark><ExtendedData><Data name="@id"><value>node/5569943306</value></Data><Data name="amenity"><value>shower</value></Data><Data name="fee"><value>yes</value></Data><Data name="opening_hours"><value>24/7</value></Data><Data name="operator"><value>GoMarina</value></Data><Data name="supervised"><value>no</value></Data></ExtendedData><Point><coordinates>10.3742118,63.4314791</coordinates></Point></Placemark><Placemark><ExtendedData><Data name="@id"><value>node/5569943309</value></Data><Data name="supervised"><value>no</value></Data><Data name="amenity"><value>shower</value></Data><Data name="fee"><value>yes</value></Data><Data name="opening_hours"><value>24/7</value></Data><Data name="operator"><value>GoMarina</value></Data></ExtendedData><Point><coordinates>10.4081327,63.4403447</coordinates></Point></Placemark><Placemark><ExtendedData><Data name="@id"><value>node/5630174423</value></Data><Data name="access"><value>customers</value></Data><Data name="amenity"><value>shower</value></Data><Data name="fee"><value>no</value></Data><Data name="unisex"><value>yes</value></Data></ExtendedData><Point><coordinates>5.9960762,58.4783117</coordinates></Point></Placemark><Placemark><ExtendedData><Data name="@id"><value>node/5631121502</value></Data><Data name="access"><value>customers</value></Data><Data name="amenity"><value>shower</value></Data><Data name="fee"><value>yes</value></Data><Data name="female"><value>yes</value></Data><Data name="male"><value>yes</value></Data></ExtendedData><Point><coordinates>5.725438,58.5397893</coordinates></Point></Placemark><Placemark><ExtendedData><Data name="@id"><value>node/5654658191</value></Data><Data name="amenity"><value>shower</value></Data></ExtendedData><Point><coordinates>10.6661562,59.9111548</coordinates></Point></Placemark><Placemark><ExtendedData><Data name="@id"><value>node/5677532830</value></Data><Data name="amenity"><value>shower</value></Data></ExtendedData><Point><coordinates>10.6334558,59.8907508</coordinates></Point></Placemark><Placemark><ExtendedData><Data name="@id"><value>node/5731354666</value></Data><Data name="access"><value>customers</value></Data><Data name="amenity"><value>shower</value></Data></ExtendedData><Point><coordinates>9.8452163,58.9837653</coordinates></Point></Placemark><Placemark><ExtendedData><Data name="@id"><value>node/5784019616</value></Data><Data name="amenity"><value>shower</value></Data></ExtendedData><Point><coordinates>7.6710051,62.4992537</coordinates></Point></Placemark><Placemark><ExtendedData><Data name="@id"><value>node/5785179014</value></Data><Data name="amenity"><value>shower</value></Data></ExtendedData><Point><coordinates>6.7575668,61.4231869</coordinates></Point></Placemark><Placemark><ExtendedData><Data name="@id"><value>node/5810949065</value></Data><Data name="amenity"><value>shower</value></Data><Data name="temperature"><value>cold</value></Data></ExtendedData><Point><coordinates>5.5173951,58.7409503</coordinates></Point></Placemark><Placemark><ExtendedData><Data name="@id"><value>node/5912350118</value></Data><Data name="access"><value>yes</value></Data><Data name="amenity"><value>shower</value></Data><Data name="fee"><value>no</value></Data><Data name="unisex"><value>yes</value></Data></ExtendedData><Point><coordinates>6.5301416,58.2287737</coordinates></Point></Placemark><Placemark><ExtendedData><Data name="@id"><value>node/5983416077</value></Data><Data name="access"><value>customers</value></Data><Data name="amenity"><value>shower</value></Data><Data name="fee"><value>yes</value></Data><Data name="female"><value>yes</value></Data><Data name="male"><value>yes</value></Data><Data name="opening_hours"><value>24/7</value></Data></ExtendedData><Point><coordinates>7.5523596,59.734122</coordinates></Point></Placemark><Placemark><ExtendedData><Data name="@id"><value>node/6080449221</value></Data><Data name="amenity"><value>shower</value></Data><Data name="image"><value>https://d1cuyjsrcm0gby.cloudfront.net/8wD1vxA_HAaygy5xh7W7qQ/thumb-2048.jpg</value></Data><Data name="mapillary"><value>https://www.mapillary.com/map/im/8wD1vxA_HAaygy5xh7W7qQ</value></Data></ExtendedData><Point><coordinates>10.2844074,61.3667413</coordinates></Point></Placemark><Placemark><ExtendedData><Data name="@id"><value>node/6131319904</value></Data><Data name="access"><value>customers</value></Data><Data name="amenity"><value>shower</value></Data></ExtendedData><Point><coordinates>11.0604456,64.6343062</coordinates></Point></Placemark><Placemark><ExtendedData><Data name="@id"><value>node/6166507600</value></Data><Data name="amenity"><value>shower</value></Data><Data name="fee"><value>yes</value></Data><Data name="female"><value>yes</value></Data><Data name="male"><value>yes</value></Data></ExtendedData><Point><coordinates>5.4353631,60.3523813</coordinates></Point></Placemark><Placemark><ExtendedData><Data name="@id"><value>node/6166566670</value></Data><Data name="amenity"><value>shower</value></Data><Data name="fee"><value>yes</value></Data><Data name="female"><value>yes</value></Data><Data name="male"><value>yes</value></Data></ExtendedData><Point><coordinates>7.1204455,61.212932</coordinates></Point></Placemark><Placemark><name>På taket kafe</name><ExtendedData><Data name="@id"><value>node/6243852016</value></Data><Data name="amenity"><value>shower</value></Data><Data name="name"><value>På taket kafe</value></Data><Data name="opening_hours"><value>Mo-Th 09:30-22:00; Fr 09:30-24:00; Sa 00:00-01:00, 09:30-24:00; Su 00:00-01:00, 09:30-22:00</value></Data></ExtendedData><Point><coordinates>20.939001,69.792598</coordinates></Point></Placemark><Placemark><ExtendedData><Data name="@id"><value>node/6282430853</value></Data><Data name="amenity"><value>shower</value></Data><Data name="fee"><value>yes</value></Data><Data name="female"><value>yes</value></Data><Data name="male"><value>yes</value></Data></ExtendedData><Point><coordinates>8.3917764,61.7176619</coordinates></Point></Placemark><Placemark><ExtendedData><Data name="@id"><value>node/6282709841</value></Data><Data name="amenity"><value>shower</value></Data><Data name="fee"><value>yes</value></Data><Data name="female"><value>yes</value></Data><Data name="male"><value>no</value></Data></ExtendedData><Point><coordinates>7.2039668,62.0997736</coordinates></Point></Placemark><Placemark><ExtendedData><Data name="@id"><value>node/6282709842</value></Data><Data name="amenity"><value>shower</value></Data><Data name="fee"><value>yes</value></Data><Data name="female"><value>no</value></Data><Data name="male"><value>yes</value></Data></ExtendedData><Point><coordinates>7.2038944,62.0997579</coordinates></Point></Placemark><Placemark><ExtendedData><Data name="@id"><value>node/6284449999</value></Data><Data name="amenity"><value>shower</value></Data><Data name="female"><value>yes</value></Data><Data name="male"><value>yes</value></Data></ExtendedData><Point><coordinates>6.1975318,62.469118</coordinates></Point></Placemark><Placemark><ExtendedData><Data name="@id"><value>node/6284472605</value></Data><Data name="access"><value>customers</value></Data><Data name="amenity"><value>shower</value></Data><Data name="description:de"><value>Zutritt nur mit Code vom Ticket für Wohnmobilstellplatz</value></Data><Data name="description:en"><value>access only with code from caravan parking ticket</value></Data><Data name="fee"><value>yes</value></Data><Data name="female"><value>yes</value></Data><Data name="male"><value>yes</value></Data></ExtendedData><Point><coordinates>6.1611511,62.4769363</coordinates></Point></Placemark><Placemark><ExtendedData><Data name="@id"><value>node/6354840043</value></Data><Data name="access"><value>customers</value></Data><Data name="amenity"><value>shower</value></Data><Data name="female"><value>yes</value></Data><Data name="level"><value>-1</value></Data><Data name="male"><value>yes</value></Data><Data name="wheelchair"><value>no</value></Data><Data name="wheelchair:description:en"><value>stairs</value></Data></ExtendedData><Point><coordinates>7.3478888,62.9526141</coordinates></Point></Placemark><Placemark><ExtendedData><Data name="@id"><value>node/6419589072</value></Data><Data name="access"><value>customers</value></Data><Data name="amenity"><value>shower</value></Data><Data name="fee"><value>yes</value></Data><Data name="supervised"><value>yes</value></Data></ExtendedData><Point><coordinates>5.8976946,59.4967193</coordinates></Point></Placemark><Placemark><ExtendedData><Data name="@id"><value>node/6448327591</value></Data><Data name="access"><value>yes</value></Data><Data name="amenity"><value>shower</value></Data><Data name="fee"><value>yes</value></Data><Data name="source"><value>Digitalglobe Premium aerial</value></Data></ExtendedData><Point><coordinates>14.2253906,67.1621683</coordinates></Point></Placemark><Placemark><ExtendedData><Data name="@id"><value>node/6451963293</value></Data><Data name="amenity"><value>shower</value></Data><Data name="fee"><value>yes</value></Data><Data name="female"><value>yes</value></Data><Data name="male"><value>yes</value></Data></ExtendedData><Point><coordinates>8.5330577,63.142623</coordinates></Point></Placemark><Placemark><ExtendedData><Data name="@id"><value>node/6451963297</value></Data><Data name="amenity"><value>shower</value></Data><Data name="fee"><value>yes</value></Data><Data name="female"><value>yes</value></Data><Data name="male"><value>yes</value></Data></ExtendedData><Point><coordinates>8.5310695,63.1423561</coordinates></Point></Placemark><Placemark><ExtendedData><Data name="@id"><value>node/6564471230</value></Data><Data name="amenity"><value>shower</value></Data></ExtendedData><Point><coordinates>8.0083775,58.1460787</coordinates></Point></Placemark><Placemark><ExtendedData><Data name="@id"><value>node/6564471231</value></Data><Data name="amenity"><value>shower</value></Data></ExtendedData><Point><coordinates>8.0056342,58.1465469</coordinates></Point></Placemark><Placemark><ExtendedData><Data name="@id"><value>node/6564471232</value></Data><Data name="amenity"><value>shower</value></Data></ExtendedData><Point><coordinates>8.0086392,58.1457377</coordinates></Point></Placemark><Placemark><ExtendedData><Data name="@id"><value>node/6564471233</value></Data><Data name="amenity"><value>shower</value></Data></ExtendedData><Point><coordinates>8.0066104,58.1456737</coordinates></Point></Placemark><Placemark><ExtendedData><Data name="@id"><value>node/6565088216</value></Data><Data name="access"><value>yes</value></Data><Data name="amenity"><value>shower</value></Data><Data name="hot_water"><value>no</value></Data><Data name="outdoor"><value>yes</value></Data></ExtendedData><Point><coordinates>7.4307804,58.0190549</coordinates></Point></Placemark><Placemark><ExtendedData><Data name="@id"><value>node/6566613496</value></Data><Data name="access"><value>yes</value></Data><Data name="amenity"><value>shower</value></Data><Data name="fee"><value>yes</value></Data><Data name="payment:cash"><value>no</value></Data></ExtendedData><Point><coordinates>7.4517306,58.0247942</coordinates></Point></Placemark><Placemark><ExtendedData><Data name="@id"><value>node/6566972975</value></Data><Data name="amenity"><value>shower</value></Data><Data name="fee"><value>no</value></Data></ExtendedData><Point><coordinates>7.6684262,62.5638577</coordinates></Point></Placemark><Placemark><ExtendedData><Data name="@id"><value>node/6585221729</value></Data><Data name="amenity"><value>shower</value></Data></ExtendedData><Point><coordinates>6.7433896,58.7600146</coordinates></Point></Placemark><Placemark><ExtendedData><Data name="@id"><value>node/6603282978</value></Data><Data name="amenity"><value>shower</value></Data></ExtendedData><Point><coordinates>8.0299038,58.1482523</coordinates></Point></Placemark><Placemark><ExtendedData><Data name="@id"><value>node/6614451462</value></Data><Data name="amenity"><value>shower</value></Data></ExtendedData><Point><coordinates>8.0305308,58.1471686</coordinates></Point></Placemark><Placemark><ExtendedData><Data name="@id"><value>node/6622950767</value></Data><Data name="amenity"><value>shower</value></Data></ExtendedData><Point><coordinates>5.5535347,58.7991423</coordinates></Point></Placemark><Placemark><ExtendedData><Data name="@id"><value>node/6625070715</value></Data><Data name="amenity"><value>shower</value></Data></ExtendedData><Point><coordinates>5.2579817,59.4279997</coordinates></Point></Placemark><Placemark><ExtendedData><Data name="@id"><value>node/6655798158</value></Data><Data name="amenity"><value>shower</value></Data></ExtendedData><Point><coordinates>6.6604389,58.2876175</coordinates></Point></Placemark><Placemark><ExtendedData><Data name="@id"><value>node/6657547044</value></Data><Data name="amenity"><value>shower</value></Data></ExtendedData><Point><coordinates>11.2344723,59.0927745</coordinates></Point></Placemark><Placemark><ExtendedData><Data name="@id"><value>node/6658560887</value></Data><Data name="amenity"><value>shower</value></Data></ExtendedData><Point><coordinates>11.4479515,64.0155315</coordinates></Point></Placemark><Placemark><ExtendedData><Data name="@id"><value>node/6687643330</value></Data><Data name="access"><value>customers</value></Data><Data name="amenity"><value>shower</value></Data><Data name="fee"><value>yes</value></Data><Data name="opening_hours"><value>24/7</value></Data></ExtendedData><Point><coordinates>7.127003,58.0430538</coordinates></Point></Placemark><Placemark><ExtendedData><Data name="@id"><value>node/6695921763</value></Data><Data name="access"><value>customers</value></Data><Data name="amenity"><value>shower</value></Data></ExtendedData><Point><coordinates>8.5419093,60.6242886</coordinates></Point></Placemark><Placemark><ExtendedData><Data name="@id"><value>node/6695921764</value></Data><Data name="access"><value>customers</value></Data><Data name="amenity"><value>shower</value></Data></ExtendedData><Point><coordinates>8.5419064,60.6244455</coordinates></Point></Placemark><Placemark><ExtendedData><Data name="@id"><value>node/6702326679</value></Data><Data name="access"><value>customers</value></Data><Data name="amenity"><value>shower</value></Data></ExtendedData><Point><coordinates>7.7843155,58.5535627</coordinates></Point></Placemark><Placemark><ExtendedData><Data name="@id"><value>node/6832742187</value></Data><Data name="amenity"><value>shower</value></Data></ExtendedData><Point><coordinates>15.0533594,67.9663733</coordinates></Point></Placemark><Placemark><ExtendedData><Data name="@id"><value>node/7056719160</value></Data><Data name="amenity"><value>shower</value></Data><Data name="source"><value>Norge i Bilder</value></Data></ExtendedData><Point><coordinates>10.5325641,59.8873928</coordinates></Point></Placemark><Placemark><ExtendedData><Data name="@id"><value>node/7056719161</value></Data><Data name="amenity"><value>shower</value></Data><Data name="source"><value>Norge i Bilder</value></Data></ExtendedData><Point><coordinates>10.5335753,59.8882331</coordinates></Point></Placemark><Placemark><ExtendedData><Data name="@id"><value>node/7056719162</value></Data><Data name="amenity"><value>shower</value></Data><Data name="source"><value>Norge i Bilder</value></Data></ExtendedData><Point><coordinates>10.5316937,59.8885171</coordinates></Point></Placemark><Placemark><ExtendedData><Data name="@id"><value>node/7157484099</value></Data><Data name="amenity"><value>shower</value></Data></ExtendedData><Point><coordinates>16.5548611,68.9990756</coordinates></Point></Placemark><Placemark><ExtendedData><Data name="@id"><value>node/7276261125</value></Data><Data name="access"><value>customers</value></Data><Data name="amenity"><value>shower</value></Data><Data name="female"><value>yes</value></Data><Data name="male"><value>yes</value></Data></ExtendedData><Point><coordinates>10.5960077,60.8239624</coordinates></Point></Placemark><Placemark><ExtendedData><Data name="@id"><value>node/7434410940</value></Data><Data name="amenity"><value>shower</value></Data><Data name="fee"><value>no</value></Data><Data name="female"><value>yes</value></Data><Data name="male"><value>yes</value></Data></ExtendedData><Point><coordinates>9.7428936,63.6994617</coordinates></Point></Placemark><Placemark><ExtendedData><Data name="@id"><value>node/7474297372</value></Data><Data name="amenity"><value>shower</value></Data></ExtendedData><Point><coordinates>11.3522438,62.5674558</coordinates></Point></Placemark><Placemark><ExtendedData><Data name="@id"><value>node/7492114618</value></Data><Data name="amenity"><value>shower</value></Data><Data name="fee"><value>yes</value></Data><Data name="female"><value>yes</value></Data><Data name="level"><value>-1</value></Data><Data name="male"><value>yes</value></Data></ExtendedData><Point><coordinates>10.0915083,61.3359167</coordinates></Point></Placemark><Placemark><ExtendedData><Data name="@id"><value>node/7549656385</value></Data><Data name="access"><value>yes</value></Data><Data name="amenity"><value>shower</value></Data></ExtendedData><Point><coordinates>10.5928522,59.8884305</coordinates></Point></Placemark><Placemark><ExtendedData><Data name="@id"><value>node/7611948006</value></Data><Data name="amenity"><value>shower</value></Data><Data name="fee"><value>yes</value></Data><Data name="female"><value>yes</value></Data><Data name="male"><value>no</value></Data></ExtendedData><Point><coordinates>10.7017132,60.9161029</coordinates></Point></Placemark><Placemark><ExtendedData><Data name="@id"><value>node/7611948008</value></Data><Data name="amenity"><value>shower</value></Data><Data name="fee"><value>yes</value></Data><Data name="female"><value>no</value></Data><Data name="male"><value>yes</value></Data></ExtendedData><Point><coordinates>10.7017907,60.916056</coordinates></Point></Placemark><Placemark><ExtendedData><Data name="@id"><value>node/7619475783</value></Data><Data name="amenity"><value>shower</value></Data></ExtendedData><Point><coordinates>6.4262483,59.0080909</coordinates></Point></Placemark><Placemark><ExtendedData><Data name="@id"><value>node/7671836739</value></Data><Data name="amenity"><value>shower</value></Data></ExtendedData><Point><coordinates>6.1911159,60.3682673</coordinates></Point></Placemark><Placemark><ExtendedData><Data name="@id"><value>node/7672975820</value></Data><Data name="female"><value>yes</value></Data><Data name="fee"><value>yes</value></Data><Data name="amenity"><value>shower</value></Data></ExtendedData><Point><coordinates>10.7691009,59.898324</coordinates></Point></Placemark><Placemark><ExtendedData><Data name="@id"><value>node/7672975825</value></Data><Data name="male"><value>yes</value></Data><Data name="female"><value>no</value></Data><Data name="fee"><value>yes</value></Data><Data name="amenity"><value>shower</value></Data></ExtendedData><Point><coordinates>10.7689318,59.8980307</coordinates></Point></Placemark><Placemark><ExtendedData><Data name="@id"><value>node/7673001891</value></Data><Data name="amenity"><value>shower</value></Data><Data name="fee"><value>yes</value></Data></ExtendedData><Point><coordinates>10.6768133,59.9194264</coordinates></Point></Placemark><Placemark><ExtendedData><Data name="@id"><value>node/7683715652</value></Data><Data name="opening_hours"><value>24/7</value></Data><Data name="amenity"><value>give_box</value></Data></ExtendedData><Point><coordinates>10.8120976,59.9423654</coordinates></Point></Placemark><Placemark><ExtendedData><Data name="@id"><value>node/7683715653</value></Data><Data name="amenity"><value>give_box</value></Data><Data name="opening_hours"><value>24/7</value></Data></ExtendedData><Point><coordinates>10.8049852,59.9088159</coordinates></Point></Placemark><Placemark><ExtendedData><Data name="@id"><value>node/7683715658</value></Data><Data name="amenity"><value>give_box</value></Data><Data name="opening_hours"><value>24/7</value></Data></ExtendedData><Point><coordinates>10.7519111,59.9382837</coordinates></Point></Placemark><Placemark><ExtendedData><Data name="@id"><value>node/7705002462</value></Data><Data name="amenity"><value>shower</value></Data><Data name="male"><value>yes</value></Data></ExtendedData><Point><coordinates>7.4433835,58.0205709</coordinates></Point></Placemark><Placemark><ExtendedData><Data name="@id"><value>node/7705002463</value></Data><Data name="amenity"><value>shower</value></Data><Data name="female"><value>yes</value></Data></ExtendedData><Point><coordinates>7.4434606,58.0206227</coordinates></Point></Placemark><Placemark><ExtendedData><Data name="@id"><value>node/7837647602</value></Data><Data name="amenity"><value>shower</value></Data></ExtendedData><Point><coordinates>6.5335222,61.2046055</coordinates></Point></Placemark><Placemark><ExtendedData><Data name="@id"><value>node/7840362568</value></Data><Data name="amenity"><value>shower</value></Data></ExtendedData><Point><coordinates>6.2695428,61.3259847</coordinates></Point></Placemark><Placemark><ExtendedData><Data name="@id"><value>node/7938053803</value></Data><Data name="amenity"><value>shower</value></Data></ExtendedData><Point><coordinates>10.5356043,59.8844529</coordinates></Point></Placemark><Placemark><ExtendedData><Data name="@id"><value>node/7987714526</value></Data><Data name="amenity"><value>shower</value></Data><Data name="fee"><value>yes</value></Data><Data name="female"><value>yes</value></Data><Data name="male"><value>yes</value></Data></ExtendedData><Point><coordinates>9.7033426,59.0090081</coordinates></Point></Placemark><Placemark><ExtendedData><Data name="@id"><value>node/7987714528</value></Data><Data name="amenity"><value>shower</value></Data><Data name="fee"><value>yes</value></Data><Data name="female"><value>yes</value></Data><Data name="male"><value>yes</value></Data></ExtendedData><Point><coordinates>9.6997919,59.009409</coordinates></Point></Placemark><Placemark><name>Byttebod</name><ExtendedData><Data name="@id"><value>node/7995129525</value></Data><Data name="amenity"><value>give_box</value></Data><Data name="name"><value>Byttebod</value></Data></ExtendedData><Point><coordinates>10.7702933,59.9389355</coordinates></Point></Placemark><Placemark><ExtendedData><Data name="@id"><value>node/8009117695</value></Data><Data name="access"><value>yes</value></Data><Data name="amenity"><value>give_box</value></Data><Data name="opening_hours"><value>24/7</value></Data></ExtendedData><Point><coordinates>10.7572381,59.9130706</coordinates></Point></Placemark><Placemark><ExtendedData><Data name="@id"><value>node/8021610621</value></Data><Data name="amenity"><value>give_box</value></Data></ExtendedData><Point><coordinates>10.7940285,59.9127416</coordinates></Point></Placemark><Placemark><ExtendedData><Data name="@id"><value>node/8525530834</value></Data><Data name="amenity"><value>shower</value></Data></ExtendedData><Point><coordinates>6.8058103,58.090621</coordinates></Point></Placemark><Placemark><ExtendedData><Data name="@id"><value>node/8796247688</value></Data><Data name="access"><value>yes</value></Data><Data name="amenity"><value>shower</value></Data><Data name="fee"><value>no</value></Data><Data name="hot_water"><value>no</value></Data><Data name="wheelchair"><value>yes</value></Data></ExtendedData><Point><coordinates>10.7252786,63.433675</coordinates></Point></Placemark><Placemark><ExtendedData><Data name="@id"><value>node/8796247689</value></Data><Data name="access"><value>yes</value></Data><Data name="amenity"><value>shower</value></Data><Data name="fee"><value>no</value></Data><Data name="hot_water"><value>no</value></Data><Data name="wheelchair"><value>yes</value></Data></ExtendedData><Point><coordinates>10.7233292,63.4324268</coordinates></Point></Placemark><Placemark><ExtendedData><Data name="@id"><value>node/8920135657</value></Data><Data name="amenity"><value>shower</value></Data></ExtendedData><Point><coordinates>4.911896,60.5131904</coordinates></Point></Placemark><Placemark><ExtendedData><Data name="@id"><value>node/8935714318</value></Data><Data name="amenity"><value>shower</value></Data></ExtendedData><Point><coordinates>10.7312057,59.6274927</coordinates></Point></Placemark><Placemark><ExtendedData><Data name="@id"><value>node/8936385350</value></Data><Data name="amenity"><value>shower</value></Data></ExtendedData><Point><coordinates>5.0099418,60.3215078</coordinates></Point></Placemark><Placemark><ExtendedData><Data name="@id"><value>node/8946896391</value></Data><Data name="amenity"><value>shower</value></Data></ExtendedData><Point><coordinates>10.5004319,59.8023996</coordinates></Point></Placemark><Placemark><name>Røklandsenteret</name><description>50 Norwegian Kroner to pay at fast food restaurant counter</description><ExtendedData><Data name="@id"><value>node/8987174688</value></Data><Data name="unisex"><value>yes</value></Data><Data name="amenity"><value>shower</value></Data><Data name="description"><value>50 Norwegian Kroner to pay at fast food restaurant counter</value></Data><Data name="fee"><value>yes</value></Data><Data name="hot_water"><value>yes</value></Data><Data name="location"><value>indoor</value></Data><Data name="name"><value>Røklandsenteret</value></Data></ExtendedData><Point><coordinates>15.314721,66.9811768</coordinates></Point></Placemark><Placemark><name>Hvaler kommune</name><ExtendedData><Data name="@id"><value>node/8989212212</value></Data><Data name="amenity"><value>shower</value></Data><Data name="description:payment"><value>40 NOK per 10 minutes pay by debit/credit card</value></Data><Data name="fee"><value>yes</value></Data><Data name="hot_water"><value>yes</value></Data><Data name="location"><value>indoor</value></Data><Data name="name"><value>Hvaler kommune</value></Data><Data name="unisex"><value>yes</value></Data></ExtendedData><Point><coordinates>11.0364644,59.0249315</coordinates></Point></Placemark><Placemark><ExtendedData><Data name="@id"><value>node/8989535312</value></Data><Data name="amenity"><value>shower</value></Data></ExtendedData><Point><coordinates>5.0421001,61.5857733</coordinates></Point></Placemark><Placemark><name>Circle K Brokelandsheia</name><ExtendedData><Data name="@id"><value>node/8990283887</value></Data><Data name="amenity"><value>shower</value></Data><Data name="fee"><value>yes</value></Data><Data name="hot_water"><value>yes</value></Data><Data name="name"><value>Circle K Brokelandsheia</value></Data><Data name="unisex"><value>yes</value></Data></ExtendedData><Point><coordinates>9.0743759,58.8217557</coordinates></Point></Placemark><Placemark><ExtendedData><Data name="@id"><value>node/9005957886</value></Data><Data name="amenity"><value>shower</value></Data></ExtendedData><Point><coordinates>11.0882787,63.2512822</coordinates></Point></Placemark><Placemark><ExtendedData><Data name="@id"><value>node/9038444577</value></Data><Data name="access"><value>restricted</value></Data><Data name="amenity"><value>shower</value></Data></ExtendedData><Point><coordinates>11.3853863,59.118244</coordinates></Point></Placemark><Placemark><ExtendedData><Data name="@id"><value>node/9041430262</value></Data><Data name="access"><value>restricted</value></Data><Data name="amenity"><value>shower</value></Data></ExtendedData><Point><coordinates>10.6040826,59.6784477</coordinates></Point></Placemark><Placemark><ExtendedData><Data name="@id"><value>node/9050833678</value></Data><Data name="access"><value>yes</value></Data><Data name="amenity"><value>shower</value></Data><Data name="fee"><value>yes</value></Data><Data name="hot_water"><value>yes</value></Data><Data name="unisex"><value>yes</value></Data></ExtendedData><Point><coordinates>8.9309026,58.622507</coordinates></Point></Placemark><Placemark><ExtendedData><Data name="@id"><value>node/9076464097</value></Data><Data name="access"><value>yes</value></Data><Data name="amenity"><value>shower</value></Data></ExtendedData><Point><coordinates>6.2020698,59.3457431</coordinates></Point></Placemark><Placemark><ExtendedData><Data name="@id"><value>node/9393796514</value></Data><Data name="amenity"><value>shower</value></Data></ExtendedData><Point><coordinates>8.8045745,58.4689817</coordinates></Point></Placemark><Placemark><ExtendedData><Data name="@id"><value>node/9588852037</value></Data><Data name="amenity"><value>give_box</value></Data></ExtendedData><Point><coordinates>10.7518408,59.9323651</coordinates></Point></Placemark><Placemark><name>Douche</name><description>Douche gratuite</description><ExtendedData><Data name="@id"><value>node/9845843847</value></Data><Data name="amenity"><value>shower</value></Data><Data name="description"><value>Douche gratuite</value></Data><Data name="name"><value>Douche</value></Data></ExtendedData><Point><coordinates>7.6030762,59.7370007</coordinates></Point></Placemark><Placemark><ExtendedData><Data name="@id"><value>node/9875316310</value></Data><Data name="access"><value>customers</value></Data><Data name="amenity"><value>shower</value></Data><Data name="male"><value>yes</value></Data></ExtendedData><Point><coordinates>5.350808,61.0326429</coordinates></Point></Placemark><Placemark><ExtendedData><Data name="@id"><value>node/9875382320</value></Data><Data name="access"><value>customers</value></Data><Data name="amenity"><value>shower</value></Data><Data name="female"><value>yes</value></Data></ExtendedData><Point><coordinates>5.3508893,61.0326007</coordinates></Point></Placemark><Placemark><ExtendedData><Data name="@id"><value>node/9875382411</value></Data><Data name="access"><value>customers</value></Data><Data name="amenity"><value>shower</value></Data><Data name="unisex"><value>yes</value></Data></ExtendedData><Point><coordinates>5.3518133,61.0317954</coordinates></Point></Placemark><Placemark><description>Hot shower. Inside the Wheelchair Toilet.</description><ExtendedData><Data name="@id"><value>node/9891141930</value></Data><Data name="amenity"><value>shower</value></Data><Data name="description"><value>Hot shower. Inside the Wheelchair Toilet.</value></Data></ExtendedData><Point><coordinates>6.658927,58.2877816</coordinates></Point></Placemark><Placemark><ExtendedData><Data name="@id"><value>node/9894946192</value></Data><Data name="access"><value>permit</value></Data><Data name="amenity"><value>shower</value></Data></ExtendedData><Point><coordinates>8.3904986,58.2557583</coordinates></Point></Placemark><Placemark><ExtendedData><Data name="@id"><value>node/9895291959</value></Data><Data name="access"><value>customers</value></Data><Data name="amenity"><value>shower</value></Data><Data name="female"><value>yes</value></Data><Data name="male"><value>yes</value></Data></ExtendedData><Point><coordinates>7.8806126,61.356169</coordinates></Point></Placemark><Placemark><ExtendedData><Data name="@id"><value>node/9895292016</value></Data><Data name="access"><value>customers</value></Data><Data name="amenity"><value>shower</value></Data><Data name="female"><value>yes</value></Data><Data name="male"><value>yes</value></Data></ExtendedData><Point><coordinates>7.9265879,61.3743447</coordinates></Point></Placemark><Placemark><ExtendedData><Data name="@id"><value>node/9895292080</value></Data><Data name="access"><value>customers</value></Data><Data name="amenity"><value>shower</value></Data><Data name="female"><value>yes</value></Data><Data name="male"><value>yes</value></Data></ExtendedData><Point><coordinates>8.0143718,61.4629385</coordinates></Point></Placemark><Placemark><ExtendedData><Data name="@id"><value>node/9895292146</value></Data><Data name="access"><value>customers</value></Data><Data name="amenity"><value>shower</value></Data><Data name="female"><value>yes</value></Data><Data name="male"><value>yes</value></Data></ExtendedData><Point><coordinates>7.7905527,61.6428048</coordinates></Point></Placemark><Placemark><ExtendedData><Data name="@id"><value>node/9895523269</value></Data><Data name="supervised"><value>no</value></Data><Data name="fee"><value>yes</value></Data><Data name="amenity"><value>shower</value></Data><Data name="opening_hours"><value>24/7</value></Data></ExtendedData><Point><coordinates>14.3364011,68.1893515</coordinates></Point></Placemark><Placemark><ExtendedData><Data name="@id"><value>node/9905600885</value></Data><Data name="amenity"><value>shower</value></Data></ExtendedData><Point><coordinates>6.5500361,60.0715365</coordinates></Point></Placemark><Placemark><ExtendedData><Data name="@id"><value>node/9905637260</value></Data><Data name="amenity"><value>shower</value></Data></ExtendedData><Point><coordinates>6.5497108,60.0715551</coordinates></Point></Placemark><Placemark><ExtendedData><Data name="@id"><value>node/9911078127</value></Data><Data name="access"><value>customers</value></Data><Data name="amenity"><value>shower</value></Data></ExtendedData><Point><coordinates>10.4994844,64.3005084</coordinates></Point></Placemark><Placemark><ExtendedData><Data name="@id"><value>node/9911142857</value></Data><Data name="access"><value>customers</value></Data><Data name="amenity"><value>shower</value></Data></ExtendedData><Point><coordinates>11.4323279,64.6879588</coordinates></Point></Placemark><Placemark><ExtendedData><Data name="@id"><value>node/9935523068</value></Data><Data name="amenity"><value>shower</value></Data><Data name="fee"><value>no</value></Data><Data name="hot_water"><value>no</value></Data><Data name="supervised"><value>no</value></Data></ExtendedData><Point><coordinates>10.7180747,59.8710473</coordinates></Point></Placemark><Placemark><ExtendedData><Data name="@id"><value>node/9961447191</value></Data><Data name="amenity"><value>shower</value></Data></ExtendedData><Point><coordinates>10.6461992,59.4292812</coordinates></Point></Placemark><Placemark><ExtendedData><Data name="@id"><value>node/9991502672</value></Data><Data name="amenity"><value>shower</value></Data><Data name="female"><value>yes</value></Data><Data name="operator"><value>Dalsøren Camping</value></Data></ExtendedData><Point><coordinates>7.4613248,61.4430701</coordinates></Point></Placemark><Placemark><ExtendedData><Data name="@id"><value>node/9991502673</value></Data><Data name="amenity"><value>shower</value></Data><Data name="male"><value>yes</value></Data><Data name="operator"><value>Dalsøren Camping</value></Data></ExtendedData><Point><coordinates>7.4613664,61.44304</coordinates></Point></Placemark><Placemark><ExtendedData><Data name="@id"><value>node/9994922567</value></Data><Data name="access"><value>customers</value></Data><Data name="amenity"><value>shower</value></Data><Data name="female"><value>no</value></Data><Data name="male"><value>yes</value></Data></ExtendedData><Point><coordinates>29.3308192,70.1196033</coordinates></Point></Placemark><Placemark><description>Outdoor, probably cold water only</description><ExtendedData><Data name="@id"><value>node/10032055641</value></Data><Data name="access"><value>yes</value></Data><Data name="amenity"><value>shower</value></Data><Data name="description"><value>Outdoor, probably cold water only</value></Data><Data name="fee"><value>no</value></Data></ExtendedData><Point><coordinates>5.6682385,58.9415156</coordinates></Point></Placemark><Placemark><ExtendedData><Data name="@id"><value>node/10055843550</value></Data><Data name="access"><value>customers</value></Data><Data name="amenity"><value>shower</value></Data><Data name="fee"><value>no</value></Data><Data name="hot_water"><value>yes</value></Data></ExtendedData><Point><coordinates>9.2343289,60.9804339</coordinates></Point></Placemark><Placemark><ExtendedData><Data name="@id"><value>node/10069592236</value></Data><Data name="amenity"><value>give_box</value></Data></ExtendedData><Point><coordinates>10.7511321,59.9377253</coordinates></Point></Placemark><Placemark><name>Byttebod</name><ExtendedData><Data name="@id"><value>node/10079813116</value></Data><Data name="amenity"><value>give_box</value></Data><Data name="name"><value>Byttebod</value></Data></ExtendedData><Point><coordinates>10.7863466,59.9072309</coordinates></Point></Placemark></Document></kml>