<?xml version="1.0" encoding="UTF-8"?><kml xmlns="http://www.opengis.net/kml/2.2"><Document><name>overpass-turbo.eu export</name><description>Filtered OSM data converted to KML by overpass turbo.
Copyright: The data included in this document is from www.openstreetmap.org. The data is made available under ODbL.
Timestamp: 2025-10-30T21:27:23Z</description><Placemark><ExtendedData><Data name="@id"><value>relation/14490381</value></Data><Data name="amenity"><value>shower</value></Data><Data name="building"><value>yes</value></Data><Data name="type"><value>multipolygon</value></Data><Data name="@geometry"><value>center</value></Data></ExtendedData><Point><coordinates>21.8493367,54.1830274</coordinates></Point></Placemark><Placemark><ExtendedData><Data name="@id"><value>way/290403760</value></Data><Data name="access"><value>customers</value></Data><Data name="amenity"><value>shower</value></Data><Data name="building"><value>yes</value></Data><Data name="@geometry"><value>center</value></Data></ExtendedData><Point><coordinates>18.4959854,54.762872</coordinates></Point></Placemark><Placemark><ExtendedData><Data name="@id"><value>way/290403761</value></Data><Data name="access"><value>customers</value></Data><Data name="amenity"><value>shower</value></Data><Data name="building"><value>yes</value></Data><Data name="@geometry"><value>center</value></Data></ExtendedData><Point><coordinates>18.4973476,54.7625294</coordinates></Point></Placemark><Placemark><ExtendedData><Data name="@id"><value>way/290403762</value></Data><Data name="access"><value>customers</value></Data><Data name="amenity"><value>shower</value></Data><Data name="building"><value>yes</value></Data><Data name="@geometry"><value>center</value></Data></ExtendedData><Point><coordinates>18.4991858,54.761681</coordinates></Point></Placemark><Placemark><ExtendedData><Data name="@id"><value>way/382943134</value></Data><Data name="amenity"><value>shower</value></Data><Data name="building"><value>pavilion</value></Data><Data name="access"><value>customers</value></Data><Data name="building:fireproof"><value>yes</value></Data><Data name="building:levels"><value>1</value></Data><Data name="source"><value>Starostwo Powiatowe w Gryficach</value></Data><Data name="@geometry"><value>center</value></Data></ExtendedData><Point><coordinates>15.2869253,54.1404717</coordinates></Point></Placemark><Placemark><ExtendedData><Data name="@id"><value>way/492928237</value></Data><Data name="amenity"><value>shower</value></Data><Data name="building"><value>yes</value></Data><Data name="@geometry"><value>center</value></Data></ExtendedData><Point><coordinates>22.9162975,54.0934592</coordinates></Point></Placemark><Placemark><ExtendedData><Data name="@id"><value>way/547602743</value></Data><Data name="opening_hours"><value>24/7</value></Data><Data name="access"><value>customers</value></Data><Data name="amenity"><value>shower</value></Data><Data name="building"><value>yes</value></Data><Data name="building:levels"><value>1</value></Data><Data name="fee"><value>no</value></Data><Data name="female"><value>yes</value></Data><Data name="male"><value>yes</value></Data><Data name="toilets:disposal"><value>flush</value></Data><Data name="wheelchair"><value>yes</value></Data><Data name="@geometry"><value>center</value></Data></ExtendedData><Point><coordinates>18.7033727,50.1963999</coordinates></Point></Placemark><Placemark><ExtendedData><Data name="@id"><value>way/547602744</value></Data><Data name="access"><value>customers</value></Data><Data name="amenity"><value>shower</value></Data><Data name="building"><value>yes</value></Data><Data name="building:levels"><value>1</value></Data><Data name="fee"><value>no</value></Data><Data name="female"><value>yes</value></Data><Data name="male"><value>yes</value></Data><Data name="opening_hours"><value>24/7</value></Data><Data name="toilets:disposal"><value>flush</value></Data><Data name="wheelchair"><value>yes</value></Data><Data name="@geometry"><value>center</value></Data></ExtendedData><Point><coordinates>18.7010662,50.1962912</coordinates></Point></Placemark><Placemark><ExtendedData><Data name="@id"><value>way/558620019</value></Data><Data name="amenity"><value>shower</value></Data><Data name="building"><value>yes</value></Data><Data name="@geometry"><value>center</value></Data></ExtendedData><Point><coordinates>20.4125294,53.986198</coordinates></Point></Placemark><Placemark><ExtendedData><Data name="@id"><value>way/617083691</value></Data><Data name="amenity_1"><value>toilets</value></Data><Data name="unisex"><value>yes</value></Data><Data name="amenity"><value>shower</value></Data><Data name="building"><value>yes</value></Data><Data name="operator"><value>Gdańska Stocznia Remontowa im. Józefa Piłsudskiego</value></Data><Data name="toilets:disposal"><value>flush</value></Data><Data name="@geometry"><value>center</value></Data></ExtendedData><Point><coordinates>17.9087434,54.0188281</coordinates></Point></Placemark><Placemark><description>Sanitariaty dla klientów campingu, miejsce zmywania naczyń</description><ExtendedData><Data name="@id"><value>way/700549076</value></Data><Data name="access"><value>customers</value></Data><Data name="amenity"><value>shower</value></Data><Data name="building"><value>yes</value></Data><Data name="description"><value>Sanitariaty dla klientów campingu, miejsce zmywania naczyń</value></Data><Data name="opening_hours"><value>24/7</value></Data><Data name="wheelchair"><value>no</value></Data><Data name="@geometry"><value>center</value></Data></ExtendedData><Point><coordinates>16.3742229,54.4275686</coordinates></Point></Placemark><Placemark><ExtendedData><Data name="@id"><value>way/758793709</value></Data><Data name="amenity"><value>shower</value></Data><Data name="building"><value>yes</value></Data><Data name="@geometry"><value>center</value></Data></ExtendedData><Point><coordinates>21.9444297,49.7320529</coordinates></Point></Placemark><Placemark><ExtendedData><Data name="@id"><value>way/822260941</value></Data><Data name="amenity"><value>shower</value></Data><Data name="building"><value>yes</value></Data><Data name="@geometry"><value>center</value></Data></ExtendedData><Point><coordinates>19.3813925,51.793188</coordinates></Point></Placemark><Placemark><ExtendedData><Data name="@id"><value>way/822260942</value></Data><Data name="amenity"><value>shower</value></Data><Data name="building"><value>yes</value></Data><Data name="@geometry"><value>center</value></Data></ExtendedData><Point><coordinates>19.3811789,51.7931597</coordinates></Point></Placemark><Placemark><ExtendedData><Data name="@id"><value>node/823488821</value></Data><Data name="amenity"><value>shower</value></Data></ExtendedData><Point><coordinates>23.2339712,54.0108882</coordinates></Point></Placemark><Placemark><ExtendedData><Data name="@id"><value>way/824577030</value></Data><Data name="amenity"><value>shower</value></Data><Data name="unisex"><value>yes</value></Data><Data name="@geometry"><value>center</value></Data></ExtendedData><Point><coordinates>19.3282331,50.2390374</coordinates></Point></Placemark><Placemark><ExtendedData><Data name="@id"><value>way/828202020</value></Data><Data name="amenity"><value>shower</value></Data><Data name="building"><value>yes</value></Data><Data name="fee"><value>yes</value></Data><Data name="@geometry"><value>center</value></Data></ExtendedData><Point><coordinates>17.7509782,54.2321299</coordinates></Point></Placemark><Placemark><ExtendedData><Data name="@id"><value>way/888204945</value></Data><Data name="amenity"><value>shower</value></Data><Data name="building"><value>yes</value></Data><Data name="source"><value>www.geoportal.gov.pl</value></Data><Data name="@geometry"><value>center</value></Data></ExtendedData><Point><coordinates>17.4986212,53.8560687</coordinates></Point></Placemark><Placemark><ExtendedData><Data name="@id"><value>way/964847137</value></Data><Data name="amenity"><value>shower</value></Data><Data name="@geometry"><value>center</value></Data></ExtendedData><Point><coordinates>17.5021539,53.8542753</coordinates></Point></Placemark><Placemark><ExtendedData><Data name="@id"><value>way/973607490</value></Data><Data name="amenity"><value>shower</value></Data><Data name="building"><value>yes</value></Data><Data name="@geometry"><value>center</value></Data></ExtendedData><Point><coordinates>21.8447051,54.1813693</coordinates></Point></Placemark><Placemark><name>sanitariaty</name><ExtendedData><Data name="@id"><value>way/974326554</value></Data><Data name="amenity"><value>shower</value></Data><Data name="building"><value>yes</value></Data><Data name="name"><value>sanitariaty</value></Data><Data name="@geometry"><value>center</value></Data></ExtendedData><Point><coordinates>22.9944098,53.865776</coordinates></Point></Placemark><Placemark><ExtendedData><Data name="@id"><value>way/993259003</value></Data><Data name="amenity"><value>shower</value></Data><Data name="indoor"><value>room</value></Data><Data name="level"><value>0</value></Data><Data name="@geometry"><value>center</value></Data></ExtendedData><Point><coordinates>17.035768,51.0985886</coordinates></Point></Placemark><Placemark><ExtendedData><Data name="@id"><value>way/1006801557</value></Data><Data name="amenity"><value>shower</value></Data><Data name="@geometry"><value>center</value></Data></ExtendedData><Point><coordinates>17.454644,51.6989763</coordinates></Point></Placemark><Placemark><ExtendedData><Data name="@id"><value>way/1007311231</value></Data><Data name="access"><value>customers</value></Data><Data name="amenity"><value>shower</value></Data><Data name="fee"><value>no</value></Data><Data name="female"><value>yes</value></Data><Data name="male"><value>yes</value></Data><Data name="opening_hours"><value>24/7</value></Data><Data name="toilets:disposal"><value>flush</value></Data><Data name="wheelchair"><value>no</value></Data><Data name="@geometry"><value>center</value></Data></ExtendedData><Point><coordinates>20.7000594,51.6257375</coordinates></Point></Placemark><Placemark><ExtendedData><Data name="@id"><value>way/1012730696</value></Data><Data name="building"><value>yes</value></Data><Data name="toilets"><value>yes</value></Data><Data name="hot_water"><value>yes</value></Data><Data name="access"><value>yes</value></Data><Data name="amenity"><value>shower</value></Data><Data name="@geometry"><value>center</value></Data></ExtendedData><Point><coordinates>20.1023452,53.6865641</coordinates></Point></Placemark><Placemark><ExtendedData><Data name="@id"><value>way/1014298315</value></Data><Data name="amenity"><value>shower</value></Data><Data name="building"><value>yes</value></Data><Data name="@geometry"><value>center</value></Data></ExtendedData><Point><coordinates>23.1452944,50.239964</coordinates></Point></Placemark><Placemark><ExtendedData><Data name="@id"><value>way/1014298316</value></Data><Data name="amenity"><value>shower</value></Data><Data name="building"><value>yes</value></Data><Data name="@geometry"><value>center</value></Data></ExtendedData><Point><coordinates>23.1453017,50.2399712</coordinates></Point></Placemark><Placemark><name>Plonownik</name><ExtendedData><Data name="@id"><value>way/1019811891</value></Data><Data name="amenity"><value>give_box</value></Data><Data name="name"><value>Plonownik</value></Data><Data name="@geometry"><value>center</value></Data></ExtendedData><Point><coordinates>20.9883668,52.1997121</coordinates></Point></Placemark><Placemark><ExtendedData><Data name="@id"><value>way/1099874577</value></Data><Data name="access"><value>customers</value></Data><Data name="amenity"><value>shower</value></Data><Data name="indoor"><value>room</value></Data><Data name="level"><value>1</value></Data><Data name="unisex"><value>yes</value></Data><Data name="@geometry"><value>center</value></Data></ExtendedData><Point><coordinates>16.617916,50.6826546</coordinates></Point></Placemark><Placemark><ExtendedData><Data name="@id"><value>way/1099874579</value></Data><Data name="access"><value>customers</value></Data><Data name="amenity"><value>shower</value></Data><Data name="indoor"><value>room</value></Data><Data name="level"><value>1</value></Data><Data name="unisex"><value>yes</value></Data><Data name="@geometry"><value>center</value></Data></ExtendedData><Point><coordinates>16.6182094,50.6827704</coordinates></Point></Placemark><Placemark><ExtendedData><Data name="@id"><value>way/1099874581</value></Data><Data name="access"><value>customers</value></Data><Data name="amenity"><value>shower</value></Data><Data name="indoor"><value>room</value></Data><Data name="level"><value>1</value></Data><Data name="unisex"><value>yes</value></Data><Data name="@geometry"><value>center</value></Data></ExtendedData><Point><coordinates>16.6183131,50.6828117</coordinates></Point></Placemark><Placemark><ExtendedData><Data name="@id"><value>node/1819464400</value></Data><Data name="amenity"><value>shower</value></Data></ExtendedData><Point><coordinates>16.6855889,53.2338124</coordinates></Point></Placemark><Placemark><ExtendedData><Data name="@id"><value>node/1892928049</value></Data><Data name="amenity"><value>shower</value></Data><Data name="charge"><value>12 zł</value></Data><Data name="fee"><value>yes</value></Data><Data name="opening_hours"><value>24/7</value></Data></ExtendedData><Point><coordinates>21.6838695,54.1302655</coordinates></Point></Placemark><Placemark><ExtendedData><Data name="@id"><value>node/1937170507</value></Data><Data name="access"><value>yes</value></Data><Data name="amenity"><value>shower</value></Data><Data name="fee"><value>no</value></Data><Data name="opening_hours"><value>24/7</value></Data></ExtendedData><Point><coordinates>15.4996696,54.1686221</coordinates></Point></Placemark><Placemark><ExtendedData><Data name="@id"><value>node/2472543974</value></Data><Data name="access"><value>customers</value></Data><Data name="amenity"><value>shower</value></Data></ExtendedData><Point><coordinates>21.7436832,53.9627088</coordinates></Point></Placemark><Placemark><name>Prysznic</name><ExtendedData><Data name="@id"><value>node/3143551223</value></Data><Data name="name"><value>Prysznic</value></Data><Data name="amenity"><value>shower</value></Data></ExtendedData><Point><coordinates>23.2453025,50.7101725</coordinates></Point></Placemark><Placemark><ExtendedData><Data name="@id"><value>node/3149863548</value></Data><Data name="access"><value>permissive</value></Data><Data name="amenity"><value>shower</value></Data><Data name="fee"><value>yes</value></Data><Data name="supervised"><value>yes</value></Data></ExtendedData><Point><coordinates>23.0848252,54.0799655</coordinates></Point></Placemark><Placemark><ExtendedData><Data name="@id"><value>node/3182379891</value></Data><Data name="amenity"><value>shower</value></Data></ExtendedData><Point><coordinates>20.6118307,49.9980949</coordinates></Point></Placemark><Placemark><ExtendedData><Data name="@id"><value>node/3306601723</value></Data><Data name="amenity"><value>shower</value></Data><Data name="fee"><value>yes</value></Data><Data name="operator"><value>Orlen</value></Data></ExtendedData><Point><coordinates>16.9739072,52.9079868</coordinates></Point></Placemark><Placemark><ExtendedData><Data name="@id"><value>node/3307794087</value></Data><Data name="amenity"><value>shower</value></Data></ExtendedData><Point><coordinates>20.0467596,49.9891508</coordinates></Point></Placemark><Placemark><description>Prysznic dla truckerów</description><ExtendedData><Data name="@id"><value>node/3395685505</value></Data><Data name="amenity"><value>shower</value></Data><Data name="description"><value>Prysznic dla truckerów</value></Data></ExtendedData><Point><coordinates>17.6367226,51.9255463</coordinates></Point></Placemark><Placemark><ExtendedData><Data name="@id"><value>node/3656881161</value></Data><Data name="access"><value>customers</value></Data><Data name="amenity"><value>shower</value></Data><Data name="fee"><value>no</value></Data></ExtendedData><Point><coordinates>17.6814023,54.2016832</coordinates></Point></Placemark><Placemark><ExtendedData><Data name="@id"><value>node/3671205786</value></Data><Data name="amenity"><value>shower</value></Data></ExtendedData><Point><coordinates>20.6405843,49.582429</coordinates></Point></Placemark><Placemark><ExtendedData><Data name="@id"><value>node/3671205787</value></Data><Data name="amenity"><value>shower</value></Data></ExtendedData><Point><coordinates>20.6405529,49.5823588</coordinates></Point></Placemark><Placemark><description>Prysznic dla kierowców ciężarówek</description><ExtendedData><Data name="@id"><value>node/3673527368</value></Data><Data name="amenity"><value>shower</value></Data><Data name="description"><value>Prysznic dla kierowców ciężarówek</value></Data><Data name="opening_hours"><value>24/7</value></Data><Data name="supervised"><value>yes</value></Data></ExtendedData><Point><coordinates>16.040266,53.5350073</coordinates></Point></Placemark><Placemark><ExtendedData><Data name="@id"><value>node/3688913116</value></Data><Data name="amenity"><value>shower</value></Data></ExtendedData><Point><coordinates>17.5775409,53.8529962</coordinates></Point></Placemark><Placemark><ExtendedData><Data name="@id"><value>node/3690466404</value></Data><Data name="access"><value>yes</value></Data><Data name="amenity"><value>shower</value></Data><Data name="fee"><value>yes</value></Data></ExtendedData><Point><coordinates>17.050928,54.6637468</coordinates></Point></Placemark><Placemark><ExtendedData><Data name="@id"><value>node/3750462856</value></Data><Data name="access"><value>yes</value></Data><Data name="amenity"><value>shower</value></Data><Data name="fee"><value>no</value></Data></ExtendedData><Point><coordinates>20.8580108,51.0847134</coordinates></Point></Placemark><Placemark><description>Dostępne dla użytkowników Historyczno-Kulturowo-Przyrodniczy szlaku rowerowego wokół Tatr</description><ExtendedData><Data name="@id"><value>node/3766022406</value></Data><Data name="access"><value>customers</value></Data><Data name="amenity"><value>shower</value></Data><Data name="description"><value>Dostępne dla użytkowników Historyczno-Kulturowo-Przyrodniczy szlaku rowerowego wokół Tatr</value></Data><Data name="operator"><value>gm. Czarny Dunajec</value></Data></ExtendedData><Point><coordinates>19.847652,49.4406521</coordinates></Point></Placemark><Placemark><ExtendedData><Data name="@id"><value>node/4032642286</value></Data><Data name="amenity"><value>shower</value></Data><Data name="wheelchair"><value>yes</value></Data></ExtendedData><Point><coordinates>22.8248449,53.9973429</coordinates></Point></Placemark><Placemark><ExtendedData><Data name="@id"><value>node/4281029369</value></Data><Data name="access"><value>customers</value></Data><Data name="amenity"><value>shower</value></Data></ExtendedData><Point><coordinates>14.2957934,53.7209906</coordinates></Point></Placemark><Placemark><ExtendedData><Data name="@id"><value>node/4301066788</value></Data><Data name="amenity"><value>shower</value></Data><Data name="fee"><value>yes</value></Data></ExtendedData><Point><coordinates>14.6183248,53.654439</coordinates></Point></Placemark><Placemark><ExtendedData><Data name="@id"><value>node/4309630384</value></Data><Data name="fee"><value>yes</value></Data><Data name="amenity"><value>shower</value></Data></ExtendedData><Point><coordinates>14.6168031,53.8412886</coordinates></Point></Placemark><Placemark><ExtendedData><Data name="@id"><value>node/4340309830</value></Data><Data name="amenity"><value>shower</value></Data></ExtendedData><Point><coordinates>23.0866565,54.2622326</coordinates></Point></Placemark><Placemark><ExtendedData><Data name="@id"><value>node/4428655703</value></Data><Data name="access"><value>customers</value></Data><Data name="amenity"><value>shower</value></Data><Data name="level"><value>-1</value></Data><Data name="wheelchair"><value>yes</value></Data></ExtendedData><Point><coordinates>18.5304282,54.5211709</coordinates></Point></Placemark><Placemark><ExtendedData><Data name="@id"><value>node/4478482639</value></Data><Data name="access"><value>customers</value></Data><Data name="amenity"><value>shower</value></Data></ExtendedData><Point><coordinates>14.4236974,53.3387278</coordinates></Point></Placemark><Placemark><ExtendedData><Data name="@id"><value>node/4543171334</value></Data><Data name="access"><value>customers</value></Data><Data name="amenity"><value>shower</value></Data></ExtendedData><Point><coordinates>15.7362273,54.2118584</coordinates></Point></Placemark><Placemark><ExtendedData><Data name="@id"><value>node/4942962748</value></Data><Data name="amenity"><value>shower</value></Data></ExtendedData><Point><coordinates>14.7387322,54.0211836</coordinates></Point></Placemark><Placemark><name>Natryski na Plaży miejskiej</name><ExtendedData><Data name="@id"><value>node/4957399471</value></Data><Data name="access"><value>yes</value></Data><Data name="amenity"><value>shower</value></Data><Data name="name"><value>Natryski na Plaży miejskiej</value></Data></ExtendedData><Point><coordinates>18.21795,50.0953173</coordinates></Point></Placemark><Placemark><ExtendedData><Data name="@id"><value>node/5032015851</value></Data><Data name="amenity"><value>shower</value></Data></ExtendedData><Point><coordinates>22.2741453,50.6750463</coordinates></Point></Placemark><Placemark><ExtendedData><Data name="@id"><value>node/5032599749</value></Data><Data name="amenity"><value>shower</value></Data></ExtendedData><Point><coordinates>22.4369302,49.361373</coordinates></Point></Placemark><Placemark><ExtendedData><Data name="@id"><value>node/5109810677</value></Data><Data name="amenity"><value>shower</value></Data><Data name="charge"><value>12 zł/6 min</value></Data><Data name="fee"><value>yes</value></Data><Data name="seamark:small_craft_facility:category"><value>showers</value></Data><Data name="seamark:type"><value>small_craft_facility</value></Data></ExtendedData><Point><coordinates>21.737847,54.0427238</coordinates></Point></Placemark><Placemark><ExtendedData><Data name="@id"><value>node/5111120126</value></Data><Data name="amenity"><value>shower</value></Data></ExtendedData><Point><coordinates>15.032553,51.1777169</coordinates></Point></Placemark><Placemark><name>Prysznic sezonowy</name><ExtendedData><Data name="@id"><value>node/5117011184</value></Data><Data name="charge"><value>10 zł/5 min</value></Data><Data name="name"><value>Prysznic sezonowy</value></Data><Data name="fee"><value>yes</value></Data><Data name="amenity"><value>shower</value></Data></ExtendedData><Point><coordinates>21.7364767,54.2090661</coordinates></Point></Placemark><Placemark><ExtendedData><Data name="@id"><value>node/5121379784</value></Data><Data name="amenity"><value>shower</value></Data><Data name="opening_hours"><value>07:30-12:00,16:00-22:30</value></Data></ExtendedData><Point><coordinates>21.7576249,53.9637953</coordinates></Point></Placemark><Placemark><ExtendedData><Data name="@id"><value>node/5159642645</value></Data><Data name="access"><value>customers</value></Data><Data name="amenity"><value>shower</value></Data><Data name="unisex"><value>yes</value></Data></ExtendedData><Point><coordinates>14.6189162,53.6545749</coordinates></Point></Placemark><Placemark><ExtendedData><Data name="@id"><value>node/5173472974</value></Data><Data name="access"><value>customers</value></Data><Data name="amenity"><value>shower</value></Data></ExtendedData><Point><coordinates>16.6632201,52.4587914</coordinates></Point></Placemark><Placemark><ExtendedData><Data name="@id"><value>node/5537263207</value></Data><Data name="amenity"><value>shower</value></Data></ExtendedData><Point><coordinates>16.5896257,50.6809993</coordinates></Point></Placemark><Placemark><ExtendedData><Data name="@id"><value>node/5619980300</value></Data><Data name="access"><value>permissive</value></Data><Data name="amenity"><value>shower</value></Data><Data name="fee"><value>no</value></Data></ExtendedData><Point><coordinates>18.6070803,52.9997534</coordinates></Point></Placemark><Placemark><ExtendedData><Data name="@id"><value>node/5686123169</value></Data><Data name="access"><value>customers</value></Data><Data name="amenity"><value>shower</value></Data><Data name="fee"><value>yes</value></Data></ExtendedData><Point><coordinates>14.6201373,53.6502126</coordinates></Point></Placemark><Placemark><ExtendedData><Data name="@id"><value>node/5688816377</value></Data><Data name="amenity"><value>shower</value></Data></ExtendedData><Point><coordinates>14.5442973,53.6982746</coordinates></Point></Placemark><Placemark><ExtendedData><Data name="@id"><value>node/5691452192</value></Data><Data name="amenity"><value>shower</value></Data><Data name="fee"><value>yes</value></Data></ExtendedData><Point><coordinates>14.5170172,53.6596595</coordinates></Point></Placemark><Placemark><ExtendedData><Data name="@id"><value>node/5691473609</value></Data><Data name="amenity"><value>shower</value></Data></ExtendedData><Point><coordinates>16.5550776,52.9071271</coordinates></Point></Placemark><Placemark><ExtendedData><Data name="@id"><value>node/5706253369</value></Data><Data name="amenity"><value>shower</value></Data></ExtendedData><Point><coordinates>15.7262218,51.3021663</coordinates></Point></Placemark><Placemark><ExtendedData><Data name="@id"><value>node/5706500614</value></Data><Data name="amenity"><value>shower</value></Data></ExtendedData><Point><coordinates>14.7017608,53.5034341</coordinates></Point></Placemark><Placemark><ExtendedData><Data name="@id"><value>node/5764232611</value></Data><Data name="amenity"><value>shower</value></Data></ExtendedData><Point><coordinates>22.3459568,53.803047</coordinates></Point></Placemark><Placemark><ExtendedData><Data name="@id"><value>node/5764232612</value></Data><Data name="amenity"><value>shower</value></Data></ExtendedData><Point><coordinates>22.3460199,53.8029827</coordinates></Point></Placemark><Placemark><ExtendedData><Data name="@id"><value>node/5764232613</value></Data><Data name="amenity"><value>shower</value></Data></ExtendedData><Point><coordinates>22.3458999,53.8029645</coordinates></Point></Placemark><Placemark><ExtendedData><Data name="@id"><value>node/5764232614</value></Data><Data name="amenity"><value>shower</value></Data></ExtendedData><Point><coordinates>22.3458974,53.802814</coordinates></Point></Placemark><Placemark><ExtendedData><Data name="@id"><value>node/5764232615</value></Data><Data name="amenity"><value>shower</value></Data></ExtendedData><Point><coordinates>22.3460174,53.8027899</coordinates></Point></Placemark><Placemark><ExtendedData><Data name="@id"><value>node/5764232616</value></Data><Data name="amenity"><value>shower</value></Data></ExtendedData><Point><coordinates>22.3459506,53.8027271</coordinates></Point></Placemark><Placemark><ExtendedData><Data name="@id"><value>node/5784559741</value></Data><Data name="amenity"><value>shower</value></Data></ExtendedData><Point><coordinates>21.3734069,49.4664082</coordinates></Point></Placemark><Placemark><ExtendedData><Data name="@id"><value>node/5784676022</value></Data><Data name="amenity"><value>shower</value></Data></ExtendedData><Point><coordinates>21.219315,49.4696973</coordinates></Point></Placemark><Placemark><ExtendedData><Data name="@id"><value>node/5798868262</value></Data><Data name="fee"><value>yes</value></Data><Data name="amenity"><value>shower</value></Data><Data name="access"><value>yes</value></Data></ExtendedData><Point><coordinates>21.7634592,54.0328517</coordinates></Point></Placemark><Placemark><ExtendedData><Data name="@id"><value>node/5818503290</value></Data><Data name="amenity"><value>shower</value></Data></ExtendedData><Point><coordinates>16.8823633,50.2739915</coordinates></Point></Placemark><Placemark><ExtendedData><Data name="@id"><value>node/5825278184</value></Data><Data name="amenity"><value>shower</value></Data></ExtendedData><Point><coordinates>19.5876923,53.7383803</coordinates></Point></Placemark><Placemark><ExtendedData><Data name="@id"><value>node/5830560511</value></Data><Data name="access"><value>customers</value></Data><Data name="amenity"><value>shower</value></Data></ExtendedData><Point><coordinates>18.8018401,54.6079405</coordinates></Point></Placemark><Placemark><ExtendedData><Data name="@id"><value>node/5842075769</value></Data><Data name="amenity"><value>shower</value></Data></ExtendedData><Point><coordinates>18.6323222,54.7160328</coordinates></Point></Placemark><Placemark><ExtendedData><Data name="@id"><value>node/5842075770</value></Data><Data name="amenity"><value>shower</value></Data></ExtendedData><Point><coordinates>18.6346118,54.7148649</coordinates></Point></Placemark><Placemark><ExtendedData><Data name="@id"><value>node/5842138632</value></Data><Data name="amenity"><value>shower</value></Data></ExtendedData><Point><coordinates>18.6531882,54.7082615</coordinates></Point></Placemark><Placemark><ExtendedData><Data name="@id"><value>node/5843564902</value></Data><Data name="access"><value>customers</value></Data><Data name="amenity"><value>shower</value></Data></ExtendedData><Point><coordinates>19.1122924,54.3456982</coordinates></Point></Placemark><Placemark><ExtendedData><Data name="@id"><value>node/5866942682</value></Data><Data name="access"><value>yes</value></Data><Data name="amenity"><value>shower</value></Data><Data name="fee"><value>no</value></Data><Data name="hot_water"><value>no</value></Data></ExtendedData><Point><coordinates>14.2477333,53.9228449</coordinates></Point></Placemark><Placemark><ExtendedData><Data name="@id"><value>node/5872324506</value></Data><Data name="access"><value>yes</value></Data><Data name="amenity"><value>shower</value></Data><Data name="opening_hours"><value>24/7</value></Data><Data name="supervised"><value>no</value></Data></ExtendedData><Point><coordinates>15.0855454,52.3191727</coordinates></Point></Placemark><Placemark><ExtendedData><Data name="@id"><value>node/5891839431</value></Data><Data name="amenity"><value>shower</value></Data><Data name="fee"><value>yes</value></Data></ExtendedData><Point><coordinates>18.8002998,54.6031262</coordinates></Point></Placemark><Placemark><ExtendedData><Data name="@id"><value>node/5902596105</value></Data><Data name="access"><value>yes</value></Data><Data name="amenity"><value>shower</value></Data><Data name="fee"><value>yes</value></Data><Data name="female"><value>yes</value></Data><Data name="male"><value>yes</value></Data></ExtendedData><Point><coordinates>21.6046108,53.7559131</coordinates></Point></Placemark><Placemark><ExtendedData><Data name="@id"><value>node/5907957346</value></Data><Data name="amenity"><value>shower</value></Data><Data name="fee"><value>yes</value></Data></ExtendedData><Point><coordinates>16.8539435,54.5854521</coordinates></Point></Placemark><Placemark><ExtendedData><Data name="@id"><value>node/5922158834</value></Data><Data name="amenity"><value>shower</value></Data></ExtendedData><Point><coordinates>18.7822329,54.3564332</coordinates></Point></Placemark><Placemark><ExtendedData><Data name="@id"><value>node/5923862439</value></Data><Data name="seamark:type"><value>small_craft_facility</value></Data><Data name="seamark:small_craft_facility:category"><value>showers</value></Data><Data name="access"><value>customers</value></Data><Data name="amenity"><value>shower</value></Data></ExtendedData><Point><coordinates>21.7746018,54.0312145</coordinates></Point></Placemark><Placemark><ExtendedData><Data name="@id"><value>node/5924701062</value></Data><Data name="access"><value>yes</value></Data><Data name="amenity"><value>shower</value></Data><Data name="fee"><value>yes</value></Data><Data name="opening_hours"><value>24/7</value></Data></ExtendedData><Point><coordinates>14.5986994,52.3342798</coordinates></Point></Placemark><Placemark><ExtendedData><Data name="@id"><value>node/5929352473</value></Data><Data name="access"><value>customers</value></Data><Data name="amenity"><value>shower</value></Data></ExtendedData><Point><coordinates>21.5062173,53.5628154</coordinates></Point></Placemark><Placemark><ExtendedData><Data name="@id"><value>node/6017746072</value></Data><Data name="amenity"><value>shower</value></Data></ExtendedData><Point><coordinates>15.0159048,51.7428313</coordinates></Point></Placemark><Placemark><ExtendedData><Data name="@id"><value>node/6045060013</value></Data><Data name="access"><value>private</value></Data><Data name="amenity"><value>shower</value></Data></ExtendedData><Point><coordinates>16.5250061,52.8892667</coordinates></Point></Placemark><Placemark><ExtendedData><Data name="@id"><value>node/6238662207</value></Data><Data name="access"><value>customers</value></Data><Data name="amenity"><value>shower</value></Data></ExtendedData><Point><coordinates>14.2667581,53.9116383</coordinates></Point></Placemark><Placemark><ExtendedData><Data name="@id"><value>node/6352193027</value></Data><Data name="amenity"><value>shower</value></Data></ExtendedData><Point><coordinates>17.7248622,52.8421131</coordinates></Point></Placemark><Placemark><ExtendedData><Data name="@id"><value>node/6400429435</value></Data><Data name="amenity"><value>shower</value></Data></ExtendedData><Point><coordinates>19.449338,50.1387955</coordinates></Point></Placemark><Placemark><ExtendedData><Data name="@id"><value>node/6426825603</value></Data><Data name="amenity"><value>shower</value></Data></ExtendedData><Point><coordinates>16.014381,52.8959577</coordinates></Point></Placemark><Placemark><ExtendedData><Data name="@id"><value>node/6473540351</value></Data><Data name="amenity"><value>shower</value></Data><Data name="source"><value>survey</value></Data></ExtendedData><Point><coordinates>22.4642824,49.1560426</coordinates></Point></Placemark><Placemark><ExtendedData><Data name="@id"><value>node/6480502716</value></Data><Data name="amenity"><value>shower</value></Data></ExtendedData><Point><coordinates>16.1704152,51.2024545</coordinates></Point></Placemark><Placemark><name>Givebox Jeżyce</name><ExtendedData><Data name="@id"><value>node/6510750152</value></Data><Data name="amenity"><value>give_box</value></Data><Data name="fixme"><value>resurvey</value></Data><Data name="name"><value>Givebox Jeżyce</value></Data></ExtendedData><Point><coordinates>16.9082404,52.4104127</coordinates></Point></Placemark><Placemark><ExtendedData><Data name="@id"><value>node/6630876812</value></Data><Data name="amenity"><value>shower</value></Data></ExtendedData><Point><coordinates>18.3229346,54.1942136</coordinates></Point></Placemark><Placemark><ExtendedData><Data name="@id"><value>node/6638749497</value></Data><Data name="amenity"><value>shower</value></Data></ExtendedData><Point><coordinates>16.654335,52.4593029</coordinates></Point></Placemark><Placemark><ExtendedData><Data name="@id"><value>node/6655901922</value></Data><Data name="access"><value>permissive</value></Data><Data name="amenity"><value>shower</value></Data><Data name="fee"><value>no</value></Data><Data name="female"><value>yes</value></Data><Data name="male"><value>yes</value></Data></ExtendedData><Point><coordinates>19.8606583,51.1942427</coordinates></Point></Placemark><Placemark><ExtendedData><Data name="@id"><value>node/6659045216</value></Data><Data name="amenity"><value>shower</value></Data></ExtendedData><Point><coordinates>19.9547401,53.7700118</coordinates></Point></Placemark><Placemark><ExtendedData><Data name="@id"><value>node/6719711103</value></Data><Data name="amenity"><value>shower</value></Data></ExtendedData><Point><coordinates>17.3797929,52.5559551</coordinates></Point></Placemark><Placemark><ExtendedData><Data name="@id"><value>node/6720807525</value></Data><Data name="amenity"><value>shower</value></Data></ExtendedData><Point><coordinates>20.0692366,49.8764808</coordinates></Point></Placemark><Placemark><ExtendedData><Data name="@id"><value>node/6720807526</value></Data><Data name="amenity"><value>shower</value></Data></ExtendedData><Point><coordinates>20.0691268,49.8765154</coordinates></Point></Placemark><Placemark><ExtendedData><Data name="@id"><value>node/6720807527</value></Data><Data name="amenity"><value>shower</value></Data></ExtendedData><Point><coordinates>20.0691655,49.8765673</coordinates></Point></Placemark><Placemark><ExtendedData><Data name="@id"><value>node/6740258884</value></Data><Data name="amenity"><value>shower</value></Data></ExtendedData><Point><coordinates>19.0941303,50.812707</coordinates></Point></Placemark><Placemark><ExtendedData><Data name="@id"><value>node/6743610108</value></Data><Data name="amenity"><value>shower</value></Data></ExtendedData><Point><coordinates>21.7577603,54.0322947</coordinates></Point></Placemark><Placemark><ExtendedData><Data name="@id"><value>node/6764029462</value></Data><Data name="amenity"><value>shower</value></Data></ExtendedData><Point><coordinates>16.4485827,52.4917127</coordinates></Point></Placemark><Placemark><ExtendedData><Data name="@id"><value>node/6799216842</value></Data><Data name="amenity"><value>shower</value></Data><Data name="fee"><value>yes</value></Data></ExtendedData><Point><coordinates>17.9216789,52.4115256</coordinates></Point></Placemark><Placemark><ExtendedData><Data name="@id"><value>node/6832585679</value></Data><Data name="amenity"><value>shower</value></Data></ExtendedData><Point><coordinates>15.0038095,51.9674857</coordinates></Point></Placemark><Placemark><description>lodówka społeczna</description><ExtendedData><Data name="@id"><value>node/7083030267</value></Data><Data name="website"><value>http://www.wezpomoz.pl/lodowkaspoleczna/</value></Data><Data name="amenity"><value>give_box</value></Data><Data name="description"><value>lodówka społeczna</value></Data><Data name="fee"><value>no</value></Data><Data name="food"><value>only</value></Data><Data name="location"><value>outdoor</value></Data><Data name="opening_hours"><value>24/7</value></Data><Data name="start_date"><value>2019-12-22</value></Data></ExtendedData><Point><coordinates>16.9421424,51.1003913</coordinates></Point></Placemark><Placemark><ExtendedData><Data name="@id"><value>node/7111035596</value></Data><Data name="amenity"><value>shower</value></Data><Data name="fee"><value>yes</value></Data></ExtendedData><Point><coordinates>18.53821,50.0923677</coordinates></Point></Placemark><Placemark><ExtendedData><Data name="@id"><value>node/7157160887</value></Data><Data name="amenity"><value>shower</value></Data><Data name="name:ru"><value>Платная парковка душ ресторан</value></Data></ExtendedData><Point><coordinates>15.2321303,52.6970701</coordinates></Point></Placemark><Placemark><ExtendedData><Data name="@id"><value>node/7179876565</value></Data><Data name="access"><value>yes</value></Data><Data name="amenity"><value>shower</value></Data><Data name="fee"><value>no</value></Data><Data name="hot_water"><value>no</value></Data><Data name="supervised"><value>no</value></Data></ExtendedData><Point><coordinates>18.595208,53.0061309</coordinates></Point></Placemark><Placemark><name>Nowosolska ciepła szafa</name><ExtendedData><Data name="@id"><value>node/7196290873</value></Data><Data name="amenity"><value>give_box</value></Data><Data name="clothes"><value>only</value></Data><Data name="image"><value>https://photos.app.goo.gl/Qp7iwvVtsbj2XL1r5</value></Data><Data name="mapillary"><value>421671879106282</value></Data><Data name="name"><value>Nowosolska ciepła szafa</value></Data></ExtendedData><Point><coordinates>15.7175436,51.8052101</coordinates></Point></Placemark><Placemark><name>Znicze do ponownego wykorzystania</name><ExtendedData><Data name="@id"><value>node/7395536888</value></Data><Data name="image"><value>https://images.mapillary.com/cPO95W50nCj4Vwh5Z75c1A/thumb-2048.jpg</value></Data><Data name="amenity"><value>give_box</value></Data><Data name="grave_candles"><value>only</value></Data><Data name="mapillary"><value>1198456450590378</value></Data><Data name="name"><value>Znicze do ponownego wykorzystania</value></Data></ExtendedData><Point><coordinates>15.7148819,52.1134444</coordinates></Point></Placemark><Placemark><name>Znicze do ponownego wykorzystania</name><ExtendedData><Data name="@id"><value>node/7526405066</value></Data><Data name="amenity"><value>give_box</value></Data><Data name="grave_candles"><value>only</value></Data><Data name="image"><value>https://images.mapillary.com/OReFbCuEgkEvfp53Nx18rQ/thumb-2048.jpg</value></Data><Data name="mapillary"><value>2880130088927458</value></Data><Data name="name"><value>Znicze do ponownego wykorzystania</value></Data></ExtendedData><Point><coordinates>15.7716678,52.1375651</coordinates></Point></Placemark><Placemark><name>Givebox Łazarz</name><description>miejsce gdzie możesz zostawić przedmioty innym</description><ExtendedData><Data name="@id"><value>node/7551371896</value></Data><Data name="amenity"><value>give_box</value></Data><Data name="contact:facebook"><value>https://www.facebook.com/giveboxpoznan/</value></Data><Data name="description"><value>miejsce gdzie możesz zostawić przedmioty innym</value></Data><Data name="image"><value>https://wiki.openstreetmap.org/w/images/a/a8/Givebox_%C5%81azarz.jpg</value></Data><Data name="name"><value>Givebox Łazarz</value></Data><Data name="url"><value>https://www.lazarz.pl/?id=2&amp;nr=11019</value></Data></ExtendedData><Point><coordinates>16.8916555,52.3951612</coordinates></Point></Placemark><Placemark><ExtendedData><Data name="@id"><value>node/7731064789</value></Data><Data name="amenity"><value>shower</value></Data></ExtendedData><Point><coordinates>15.3798278,52.2186091</coordinates></Point></Placemark><Placemark><ExtendedData><Data name="@id"><value>node/7736398819</value></Data><Data name="access"><value>customers</value></Data><Data name="amenity"><value>shower</value></Data><Data name="charge"><value>5 PLN</value></Data><Data name="fee"><value>yes</value></Data><Data name="hot_water"><value>yes</value></Data><Data name="opening_hours"><value>24/7</value></Data><Data name="payment:cash"><value>yes</value></Data><Data name="payment:coins"><value>yes</value></Data><Data name="supervised"><value>no</value></Data><Data name="wheelchair"><value>no</value></Data></ExtendedData><Point><coordinates>23.1174186,51.3758373</coordinates></Point></Placemark><Placemark><ExtendedData><Data name="@id"><value>node/7739917413</value></Data><Data name="amenity"><value>shower</value></Data></ExtendedData><Point><coordinates>23.0204354,51.3827364</coordinates></Point></Placemark><Placemark><ExtendedData><Data name="@id"><value>node/7739917414</value></Data><Data name="amenity"><value>shower</value></Data></ExtendedData><Point><coordinates>23.0217625,51.3827044</coordinates></Point></Placemark><Placemark><ExtendedData><Data name="@id"><value>node/7752638991</value></Data><Data name="amenity"><value>shower</value></Data></ExtendedData><Point><coordinates>19.0534797,53.1121255</coordinates></Point></Placemark><Placemark><ExtendedData><Data name="@id"><value>node/7801800551</value></Data><Data name="access"><value>yes</value></Data><Data name="amenity"><value>shower</value></Data><Data name="fee"><value>no</value></Data><Data name="hot_water"><value>yes</value></Data></ExtendedData><Point><coordinates>15.2386635,51.2326709</coordinates></Point></Placemark><Placemark><ExtendedData><Data name="@id"><value>node/7805973684</value></Data><Data name="amenity"><value>shower</value></Data><Data name="hot_water"><value>yes</value></Data><Data name="wheelchair"><value>yes</value></Data></ExtendedData><Point><coordinates>22.2756406,49.6141756</coordinates></Point></Placemark><Placemark><ExtendedData><Data name="@id"><value>node/7806136590</value></Data><Data name="amenity"><value>shower</value></Data><Data name="hot_water"><value>yes</value></Data></ExtendedData><Point><coordinates>22.2757866,49.6158637</coordinates></Point></Placemark><Placemark><ExtendedData><Data name="@id"><value>node/7837989828</value></Data><Data name="amenity"><value>shower</value></Data></ExtendedData><Point><coordinates>17.5325133,54.7637998</coordinates></Point></Placemark><Placemark><ExtendedData><Data name="@id"><value>node/7838280210</value></Data><Data name="amenity"><value>shower</value></Data></ExtendedData><Point><coordinates>18.731466,54.3745308</coordinates></Point></Placemark><Placemark><ExtendedData><Data name="@id"><value>node/7841716540</value></Data><Data name="amenity"><value>shower</value></Data><Data name="female"><value>yes</value></Data><Data name="hot_water"><value>yes</value></Data><Data name="level"><value>0</value></Data><Data name="male"><value>no</value></Data><Data name="supervised"><value>yes</value></Data></ExtendedData><Point><coordinates>16.8746359,54.5857844</coordinates></Point></Placemark><Placemark><ExtendedData><Data name="@id"><value>node/7841716544</value></Data><Data name="amenity"><value>shower</value></Data><Data name="female"><value>no</value></Data><Data name="hot_water"><value>yes</value></Data><Data name="male"><value>yes</value></Data></ExtendedData><Point><coordinates>16.8746468,54.5856981</coordinates></Point></Placemark><Placemark><ExtendedData><Data name="@id"><value>node/7844251561</value></Data><Data name="access"><value>customers</value></Data><Data name="amenity"><value>shower</value></Data><Data name="fee"><value>no</value></Data><Data name="female"><value>yes</value></Data><Data name="hot_water"><value>yes</value></Data><Data name="male"><value>yes</value></Data></ExtendedData><Point><coordinates>16.0740055,54.2621683</coordinates></Point></Placemark><Placemark><ExtendedData><Data name="@id"><value>node/7856515875</value></Data><Data name="access"><value>customers</value></Data><Data name="amenity"><value>shower</value></Data></ExtendedData><Point><coordinates>16.0135683,53.6332216</coordinates></Point></Placemark><Placemark><ExtendedData><Data name="@id"><value>node/7857434328</value></Data><Data name="amenity"><value>shower</value></Data></ExtendedData><Point><coordinates>18.5251346,49.9605407</coordinates></Point></Placemark><Placemark><ExtendedData><Data name="@id"><value>node/7857504938</value></Data><Data name="amenity"><value>shower</value></Data></ExtendedData><Point><coordinates>22.6460484,53.4823898</coordinates></Point></Placemark><Placemark><ExtendedData><Data name="@id"><value>node/7857504969</value></Data><Data name="amenity"><value>shower</value></Data></ExtendedData><Point><coordinates>22.7966423,53.1047279</coordinates></Point></Placemark><Placemark><ExtendedData><Data name="@id"><value>node/7857504988</value></Data><Data name="amenity"><value>shower</value></Data></ExtendedData><Point><coordinates>22.9776722,53.8246469</coordinates></Point></Placemark><Placemark><ExtendedData><Data name="@id"><value>node/7857504989</value></Data><Data name="amenity"><value>shower</value></Data></ExtendedData><Point><coordinates>22.9777732,53.8246686</coordinates></Point></Placemark><Placemark><ExtendedData><Data name="@id"><value>node/7866443458</value></Data><Data name="amenity"><value>shower</value></Data></ExtendedData><Point><coordinates>15.5595518,54.179612</coordinates></Point></Placemark><Placemark><ExtendedData><Data name="@id"><value>node/7876967336</value></Data><Data name="amenity"><value>shower</value></Data></ExtendedData><Point><coordinates>15.4917246,54.161742</coordinates></Point></Placemark><Placemark><ExtendedData><Data name="@id"><value>node/7918290270</value></Data><Data name="amenity"><value>shower</value></Data></ExtendedData><Point><coordinates>18.3761634,50.6417725</coordinates></Point></Placemark><Placemark><ExtendedData><Data name="@id"><value>node/7925285889</value></Data><Data name="access"><value>customers</value></Data><Data name="amenity"><value>shower</value></Data><Data name="fee"><value>no</value></Data><Data name="wheelchair"><value>yes</value></Data></ExtendedData><Point><coordinates>14.5143202,53.6623209</coordinates></Point></Placemark><Placemark><ExtendedData><Data name="@id"><value>node/7925444860</value></Data><Data name="access"><value>private</value></Data><Data name="amenity"><value>shower</value></Data><Data name="fee"><value>no</value></Data></ExtendedData><Point><coordinates>14.6164595,53.3996038</coordinates></Point></Placemark><Placemark><ExtendedData><Data name="@id"><value>node/7973683360</value></Data><Data name="amenity"><value>shower</value></Data></ExtendedData><Point><coordinates>21.5443101,53.6386384</coordinates></Point></Placemark><Placemark><ExtendedData><Data name="@id"><value>node/7973683375</value></Data><Data name="amenity"><value>shower</value></Data></ExtendedData><Point><coordinates>21.4292903,53.690801</coordinates></Point></Placemark><Placemark><ExtendedData><Data name="@id"><value>node/7973683997</value></Data><Data name="amenity"><value>shower</value></Data></ExtendedData><Point><coordinates>21.3918816,53.6495411</coordinates></Point></Placemark><Placemark><ExtendedData><Data name="@id"><value>node/7999471610</value></Data><Data name="access"><value>customers</value></Data><Data name="amenity"><value>shower</value></Data></ExtendedData><Point><coordinates>14.6632058,53.4034651</coordinates></Point></Placemark><Placemark><ExtendedData><Data name="@id"><value>node/8040623459</value></Data><Data name="amenity"><value>shower</value></Data><Data name="hot_water"><value>no</value></Data><Data name="location"><value>outdoor</value></Data><Data name="source"><value>Geoportal 2: Orthophotomap (aerial image) WMTS</value></Data><Data name="unisex"><value>yes</value></Data></ExtendedData><Point><coordinates>17.0324365,51.0901141</coordinates></Point></Placemark><Placemark><ExtendedData><Data name="@id"><value>node/8040623460</value></Data><Data name="amenity"><value>shower</value></Data><Data name="hot_water"><value>no</value></Data><Data name="location"><value>outdoor</value></Data><Data name="source"><value>Geoportal 2: Orthophotomap (aerial image) WMTS</value></Data><Data name="unisex"><value>yes</value></Data></ExtendedData><Point><coordinates>17.032367,51.0901246</coordinates></Point></Placemark><Placemark><ExtendedData><Data name="@id"><value>node/8040623461</value></Data><Data name="amenity"><value>shower</value></Data><Data name="hot_water"><value>no</value></Data><Data name="location"><value>outdoor</value></Data><Data name="source"><value>Geoportal 2: Orthophotomap (aerial image) WMTS</value></Data><Data name="unisex"><value>yes</value></Data></ExtendedData><Point><coordinates>17.0322927,51.0900436</coordinates></Point></Placemark><Placemark><ExtendedData><Data name="@id"><value>node/8040623462</value></Data><Data name="amenity"><value>shower</value></Data><Data name="hot_water"><value>no</value></Data><Data name="location"><value>outdoor</value></Data><Data name="source"><value>Geoportal 2: Orthophotomap (aerial image) WMTS</value></Data><Data name="unisex"><value>yes</value></Data></ExtendedData><Point><coordinates>17.0323343,51.0900357</coordinates></Point></Placemark><Placemark><ExtendedData><Data name="@id"><value>node/8040629763</value></Data><Data name="amenity"><value>shower</value></Data><Data name="hot_water"><value>no</value></Data><Data name="location"><value>outdoor</value></Data><Data name="source"><value>Geoportal 2: Orthophotomap (aerial image) WMTS</value></Data><Data name="unisex"><value>yes</value></Data></ExtendedData><Point><coordinates>17.0325975,51.0901479</coordinates></Point></Placemark><Placemark><ExtendedData><Data name="@id"><value>node/8040629764</value></Data><Data name="amenity"><value>shower</value></Data><Data name="hot_water"><value>no</value></Data><Data name="location"><value>outdoor</value></Data><Data name="source"><value>Geoportal 2: Orthophotomap (aerial image) WMTS</value></Data><Data name="unisex"><value>yes</value></Data></ExtendedData><Point><coordinates>17.0325776,51.0901516</coordinates></Point></Placemark><Placemark><ExtendedData><Data name="@id"><value>node/8040629765</value></Data><Data name="amenity"><value>shower</value></Data><Data name="hot_water"><value>no</value></Data><Data name="location"><value>outdoor</value></Data><Data name="source"><value>Geoportal 2: Orthophotomap (aerial image) WMTS</value></Data><Data name="unisex"><value>yes</value></Data></ExtendedData><Point><coordinates>17.0325568,51.0901552</coordinates></Point></Placemark><Placemark><ExtendedData><Data name="@id"><value>node/8040629766</value></Data><Data name="amenity"><value>shower</value></Data><Data name="hot_water"><value>no</value></Data><Data name="location"><value>outdoor</value></Data><Data name="source"><value>Geoportal 2: Orthophotomap (aerial image) WMTS</value></Data><Data name="unisex"><value>yes</value></Data></ExtendedData><Point><coordinates>17.0321994,51.0903073</coordinates></Point></Placemark><Placemark><ExtendedData><Data name="@id"><value>node/8040629767</value></Data><Data name="amenity"><value>shower</value></Data><Data name="hot_water"><value>no</value></Data><Data name="location"><value>outdoor</value></Data><Data name="source"><value>Geoportal 2: Orthophotomap (aerial image) WMTS</value></Data><Data name="unisex"><value>yes</value></Data></ExtendedData><Point><coordinates>17.0322039,51.0903196</coordinates></Point></Placemark><Placemark><ExtendedData><Data name="@id"><value>node/8082552976</value></Data><Data name="access"><value>yes</value></Data><Data name="amenity"><value>shower</value></Data><Data name="fee"><value>no</value></Data></ExtendedData><Point><coordinates>22.7309512,50.5540879</coordinates></Point></Placemark><Placemark><ExtendedData><Data name="@id"><value>node/8082552977</value></Data><Data name="access"><value>yes</value></Data><Data name="amenity"><value>shower</value></Data><Data name="fee"><value>no</value></Data></ExtendedData><Point><coordinates>22.730963,50.5541551</coordinates></Point></Placemark><Placemark><name>Znicze do wykorzystania</name><ExtendedData><Data name="@id"><value>node/8124206865</value></Data><Data name="image"><value>https://images.mapillary.com/5rJUfxs9qnpv4PGIS1qCUP/thumb-2048.jpg</value></Data><Data name="amenity"><value>give_box</value></Data><Data name="grave_candles"><value>only</value></Data><Data name="mapillary"><value>160139302646842</value></Data><Data name="name"><value>Znicze do wykorzystania</value></Data></ExtendedData><Point><coordinates>15.5269868,52.2571249</coordinates></Point></Placemark><Placemark><name>Znicze do wykorzystania</name><ExtendedData><Data name="@id"><value>node/8124901677</value></Data><Data name="image"><value>https://images.mapillary.com/PoADWGMmzwquwHVzlEr83z/thumb-2048.jpg</value></Data><Data name="amenity"><value>give_box</value></Data><Data name="grave_candles"><value>only</value></Data><Data name="mapillary"><value>160325086039935</value></Data><Data name="name"><value>Znicze do wykorzystania</value></Data></ExtendedData><Point><coordinates>15.5277588,52.2600412</coordinates></Point></Placemark><Placemark><name>Regał na znicze</name><ExtendedData><Data name="@id"><value>node/8179694363</value></Data><Data name="amenity"><value>give_box</value></Data><Data name="name"><value>Regał na znicze</value></Data></ExtendedData><Point><coordinates>23.1855267,53.1504685</coordinates></Point></Placemark><Placemark><ExtendedData><Data name="@id"><value>node/8396323272</value></Data><Data name="amenity"><value>shower</value></Data></ExtendedData><Point><coordinates>20.7934697,52.407277</coordinates></Point></Placemark><Placemark><ExtendedData><Data name="@id"><value>node/8397745170</value></Data><Data name="amenity"><value>shower</value></Data></ExtendedData><Point><coordinates>20.7311638,52.4161288</coordinates></Point></Placemark><Placemark><ExtendedData><Data name="@id"><value>node/8400263835</value></Data><Data name="access"><value>yes</value></Data><Data name="amenity"><value>shower</value></Data></ExtendedData><Point><coordinates>22.542329,51.1910357</coordinates></Point></Placemark><Placemark><ExtendedData><Data name="@id"><value>node/8402325925</value></Data><Data name="amenity"><value>shower</value></Data></ExtendedData><Point><coordinates>19.6254711,51.7132505</coordinates></Point></Placemark><Placemark><ExtendedData><Data name="@id"><value>node/8402325926</value></Data><Data name="amenity"><value>shower</value></Data></ExtendedData><Point><coordinates>19.6254549,51.7132276</coordinates></Point></Placemark><Placemark><ExtendedData><Data name="@id"><value>node/8402325927</value></Data><Data name="amenity"><value>shower</value></Data></ExtendedData><Point><coordinates>19.6254364,51.7132042</coordinates></Point></Placemark><Placemark><ExtendedData><Data name="@id"><value>node/8429551065</value></Data><Data name="access"><value>yes</value></Data><Data name="amenity"><value>shower</value></Data><Data name="fee"><value>yes</value></Data><Data name="hot_water"><value>yes</value></Data><Data name="opening_hours"><value>24/7</value></Data><Data name="self_service"><value>yes</value></Data><Data name="shop"><value>laundry</value></Data></ExtendedData><Point><coordinates>14.6498295,52.307625</coordinates></Point></Placemark><Placemark><ExtendedData><Data name="@id"><value>node/8454022034</value></Data><Data name="amenity"><value>shower</value></Data></ExtendedData><Point><coordinates>18.5919067,54.4293644</coordinates></Point></Placemark><Placemark><ExtendedData><Data name="@id"><value>node/8454026517</value></Data><Data name="amenity"><value>shower</value></Data></ExtendedData><Point><coordinates>18.5941825,54.427961</coordinates></Point></Placemark><Placemark><ExtendedData><Data name="@id"><value>node/8543895508</value></Data><Data name="amenity"><value>shower</value></Data></ExtendedData><Point><coordinates>20.6399078,52.1004217</coordinates></Point></Placemark><Placemark><ExtendedData><Data name="@id"><value>node/8634384190</value></Data><Data name="opening_hours"><value>24/7</value></Data><Data name="hot_water"><value>yes</value></Data><Data name="access"><value>yes</value></Data><Data name="amenity"><value>shower</value></Data><Data name="fee"><value>yes</value></Data></ExtendedData><Point><coordinates>15.2391184,51.2127992</coordinates></Point></Placemark><Placemark><ExtendedData><Data name="@id"><value>node/8763827865</value></Data><Data name="access"><value>customers</value></Data><Data name="amenity"><value>shower</value></Data><Data name="hot_water"><value>yes</value></Data></ExtendedData><Point><coordinates>21.6245847,52.5280837</coordinates></Point></Placemark><Placemark><ExtendedData><Data name="@id"><value>node/8763839782</value></Data><Data name="amenity"><value>shower</value></Data></ExtendedData><Point><coordinates>19.6681622,52.4358981</coordinates></Point></Placemark><Placemark><ExtendedData><Data name="@id"><value>node/8763938659</value></Data><Data name="amenity"><value>shower</value></Data></ExtendedData><Point><coordinates>19.7070375,52.4256749</coordinates></Point></Placemark><Placemark><ExtendedData><Data name="@id"><value>node/8763938661</value></Data><Data name="amenity"><value>shower</value></Data></ExtendedData><Point><coordinates>19.7072072,52.4333429</coordinates></Point></Placemark><Placemark><ExtendedData><Data name="@id"><value>node/8809531896</value></Data><Data name="access"><value>customers</value></Data><Data name="amenity"><value>shower</value></Data><Data name="unisex"><value>yes</value></Data></ExtendedData><Point><coordinates>17.0841997,51.1227219</coordinates></Point></Placemark><Placemark><ExtendedData><Data name="@id"><value>node/8809531897</value></Data><Data name="access"><value>customers</value></Data><Data name="amenity"><value>shower</value></Data><Data name="unisex"><value>yes</value></Data></ExtendedData><Point><coordinates>17.0842189,51.1227173</coordinates></Point></Placemark><Placemark><ExtendedData><Data name="@id"><value>node/8809531898</value></Data><Data name="access"><value>customers</value></Data><Data name="amenity"><value>shower</value></Data><Data name="unisex"><value>yes</value></Data></ExtendedData><Point><coordinates>17.0842187,51.1227666</coordinates></Point></Placemark><Placemark><ExtendedData><Data name="@id"><value>node/8809531899</value></Data><Data name="access"><value>customers</value></Data><Data name="amenity"><value>shower</value></Data><Data name="unisex"><value>yes</value></Data></ExtendedData><Point><coordinates>17.0842413,51.1227622</coordinates></Point></Placemark><Placemark><ExtendedData><Data name="@id"><value>node/8809531900</value></Data><Data name="access"><value>customers</value></Data><Data name="amenity"><value>shower</value></Data><Data name="unisex"><value>yes</value></Data></ExtendedData><Point><coordinates>17.083428,51.1218275</coordinates></Point></Placemark><Placemark><ExtendedData><Data name="@id"><value>node/8809531901</value></Data><Data name="access"><value>customers</value></Data><Data name="amenity"><value>shower</value></Data><Data name="unisex"><value>yes</value></Data></ExtendedData><Point><coordinates>17.0834519,51.1218171</coordinates></Point></Placemark><Placemark><ExtendedData><Data name="@id"><value>node/8809531902</value></Data><Data name="access"><value>customers</value></Data><Data name="amenity"><value>shower</value></Data><Data name="unisex"><value>yes</value></Data></ExtendedData><Point><coordinates>17.0834062,51.1217778</coordinates></Point></Placemark><Placemark><ExtendedData><Data name="@id"><value>node/8809531903</value></Data><Data name="access"><value>customers</value></Data><Data name="amenity"><value>shower</value></Data><Data name="unisex"><value>yes</value></Data></ExtendedData><Point><coordinates>17.083387,51.1217861</coordinates></Point></Placemark><Placemark><ExtendedData><Data name="@id"><value>node/8810711481</value></Data><Data name="amenity"><value>shower</value></Data></ExtendedData><Point><coordinates>17.2540161,53.7798301</coordinates></Point></Placemark><Placemark><ExtendedData><Data name="@id"><value>node/8828066466</value></Data><Data name="amenity"><value>shower</value></Data><Data name="fee"><value>yes</value></Data><Data name="hot_water"><value>yes</value></Data></ExtendedData><Point><coordinates>18.4468308,50.194609</coordinates></Point></Placemark><Placemark><ExtendedData><Data name="@id"><value>node/8893433236</value></Data><Data name="access"><value>customers</value></Data><Data name="amenity"><value>shower</value></Data><Data name="unisex"><value>yes</value></Data></ExtendedData><Point><coordinates>15.7215621,54.2094002</coordinates></Point></Placemark><Placemark><ExtendedData><Data name="@id"><value>node/8894518111</value></Data><Data name="access"><value>customers</value></Data><Data name="amenity"><value>shower</value></Data><Data name="fee"><value>yes</value></Data><Data name="hot_water"><value>yes</value></Data><Data name="opening_hours"><value>24/7</value></Data><Data name="payment:cash"><value>yes</value></Data><Data name="supervised"><value>yes</value></Data><Data name="wheelchair"><value>limited</value></Data></ExtendedData><Point><coordinates>18.3156024,52.3757846</coordinates></Point></Placemark><Placemark><ExtendedData><Data name="@id"><value>node/8894542240</value></Data><Data name="amenity"><value>shower</value></Data></ExtendedData><Point><coordinates>18.316345,52.3746368</coordinates></Point></Placemark><Placemark><ExtendedData><Data name="@id"><value>node/8898655369</value></Data><Data name="amenity"><value>shower</value></Data></ExtendedData><Point><coordinates>19.8044325,51.7748803</coordinates></Point></Placemark><Placemark><ExtendedData><Data name="@id"><value>node/8898655370</value></Data><Data name="amenity"><value>shower</value></Data></ExtendedData><Point><coordinates>19.8044647,51.7748778</coordinates></Point></Placemark><Placemark><ExtendedData><Data name="@id"><value>node/8905346781</value></Data><Data name="access"><value>customers</value></Data><Data name="amenity"><value>shower</value></Data><Data name="hot_water"><value>yes</value></Data></ExtendedData><Point><coordinates>18.322035,52.3826218</coordinates></Point></Placemark><Placemark><ExtendedData><Data name="@id"><value>node/8920820060</value></Data><Data name="amenity"><value>shower</value></Data></ExtendedData><Point><coordinates>15.5047308,52.4632467</coordinates></Point></Placemark><Placemark><ExtendedData><Data name="@id"><value>node/8931316995</value></Data><Data name="access"><value>yes</value></Data><Data name="amenity"><value>shower</value></Data><Data name="fee"><value>no</value></Data><Data name="location"><value>outdoor</value></Data></ExtendedData><Point><coordinates>18.2589395,50.9662018</coordinates></Point></Placemark><Placemark><ExtendedData><Data name="@id"><value>node/8932863696</value></Data><Data name="amenity"><value>shower</value></Data></ExtendedData><Point><coordinates>19.9159332,51.4478899</coordinates></Point></Placemark><Placemark><ExtendedData><Data name="@id"><value>node/8934866850</value></Data><Data name="amenity"><value>shower</value></Data><Data name="opening_hours"><value>8:30-21:00</value></Data></ExtendedData><Point><coordinates>23.7810866,52.928994</coordinates></Point></Placemark><Placemark><ExtendedData><Data name="@id"><value>node/8935750998</value></Data><Data name="amenity"><value>shower</value></Data><Data name="fee"><value>yes</value></Data><Data name="hot_water"><value>yes</value></Data><Data name="payment:coins"><value>yes</value></Data><Data name="wheelchair"><value>yes</value></Data></ExtendedData><Point><coordinates>23.7674507,52.9474183</coordinates></Point></Placemark><Placemark><ExtendedData><Data name="@id"><value>node/8944328292</value></Data><Data name="amenity"><value>shower</value></Data></ExtendedData><Point><coordinates>20.6813264,49.7282122</coordinates></Point></Placemark><Placemark><ExtendedData><Data name="@id"><value>node/8986707467</value></Data><Data name="amenity"><value>shower</value></Data><Data name="fee"><value>yes</value></Data></ExtendedData><Point><coordinates>21.5423676,53.9364802</coordinates></Point></Placemark><Placemark><ExtendedData><Data name="@id"><value>node/9011922108</value></Data><Data name="access"><value>customers</value></Data><Data name="amenity"><value>shower</value></Data><Data name="female"><value>yes</value></Data><Data name="male"><value>yes</value></Data></ExtendedData><Point><coordinates>16.9213468,54.5972273</coordinates></Point></Placemark><Placemark><ExtendedData><Data name="@id"><value>node/9022834880</value></Data><Data name="amenity"><value>shower</value></Data></ExtendedData><Point><coordinates>21.0723242,52.1875049</coordinates></Point></Placemark><Placemark><ExtendedData><Data name="@id"><value>node/9031410634</value></Data><Data name="amenity"><value>shower</value></Data></ExtendedData><Point><coordinates>19.23724,54.3406928</coordinates></Point></Placemark><Placemark><ExtendedData><Data name="@id"><value>node/9056919049</value></Data><Data name="amenity"><value>shower</value></Data></ExtendedData><Point><coordinates>16.1475816,53.5777113</coordinates></Point></Placemark><Placemark><ExtendedData><Data name="@id"><value>node/9057039456</value></Data><Data name="amenity"><value>shower</value></Data><Data name="drinking_water"><value>yes</value></Data></ExtendedData><Point><coordinates>15.9198061,53.4571509</coordinates></Point></Placemark><Placemark><ExtendedData><Data name="@id"><value>node/9104213544</value></Data><Data name="amenity"><value>shower</value></Data></ExtendedData><Point><coordinates>18.7873644,52.8868142</coordinates></Point></Placemark><Placemark><ExtendedData><Data name="@id"><value>node/9104213545</value></Data><Data name="amenity"><value>shower</value></Data></ExtendedData><Point><coordinates>18.7869265,52.8871371</coordinates></Point></Placemark><Placemark><ExtendedData><Data name="@id"><value>node/9181212572</value></Data><Data name="access"><value>customers</value></Data><Data name="amenity"><value>shower</value></Data><Data name="fee"><value>no</value></Data><Data name="female"><value>yes</value></Data><Data name="male"><value>yes</value></Data><Data name="unisex"><value>no</value></Data></ExtendedData><Point><coordinates>20.022359,49.3998978</coordinates></Point></Placemark><Placemark><ExtendedData><Data name="@id"><value>node/9196166745</value></Data><Data name="access"><value>customers</value></Data><Data name="amenity"><value>shower</value></Data></ExtendedData><Point><coordinates>19.0693923,50.3084915</coordinates></Point></Placemark><Placemark><ExtendedData><Data name="@id"><value>node/9196166783</value></Data><Data name="access"><value>customers</value></Data><Data name="amenity"><value>shower</value></Data></ExtendedData><Point><coordinates>19.0702848,50.3085525</coordinates></Point></Placemark><Placemark><ExtendedData><Data name="@id"><value>node/9196166784</value></Data><Data name="access"><value>customers</value></Data><Data name="amenity"><value>shower</value></Data></ExtendedData><Point><coordinates>19.0702389,50.3085165</coordinates></Point></Placemark><Placemark><ExtendedData><Data name="@id"><value>node/9196166785</value></Data><Data name="access"><value>customers</value></Data><Data name="amenity"><value>shower</value></Data></ExtendedData><Point><coordinates>19.0702711,50.3086426</coordinates></Point></Placemark><Placemark><ExtendedData><Data name="@id"><value>node/9225417646</value></Data><Data name="access"><value>customers</value></Data><Data name="amenity"><value>shower</value></Data></ExtendedData><Point><coordinates>14.603419,53.3987409</coordinates></Point></Placemark><Placemark><ExtendedData><Data name="@id"><value>node/9281239935</value></Data><Data name="access"><value>customers</value></Data><Data name="amenity"><value>shower</value></Data><Data name="fee"><value>yes</value></Data></ExtendedData><Point><coordinates>20.371148,52.0887709</coordinates></Point></Placemark><Placemark><ExtendedData><Data name="@id"><value>node/9364373048</value></Data><Data name="website"><value>https://wezpomoz.pl/lodowka-spoleczna/</value></Data><Data name="opening_hours"><value>24/7</value></Data><Data name="location"><value>outdoor</value></Data><Data name="fridge"><value>yes</value></Data><Data name="food"><value>only</value></Data><Data name="fee"><value>no</value></Data><Data name="amenity"><value>give_box</value></Data><Data name="covered"><value>yes</value></Data></ExtendedData><Point><coordinates>16.9997162,51.0889219</coordinates></Point></Placemark><Placemark><ExtendedData><Data name="@id"><value>node/9365408987</value></Data><Data name="amenity"><value>shower</value></Data></ExtendedData><Point><coordinates>17.8594612,50.5688354</coordinates></Point></Placemark><Placemark><ExtendedData><Data name="@id"><value>node/9365414415</value></Data><Data name="amenity"><value>shower</value></Data></ExtendedData><Point><coordinates>18.1609628,50.4607372</coordinates></Point></Placemark><Placemark><ExtendedData><Data name="@id"><value>node/9365415705</value></Data><Data name="access"><value>yes</value></Data><Data name="amenity"><value>shower</value></Data></ExtendedData><Point><coordinates>18.8816676,50.2509394</coordinates></Point></Placemark><Placemark><name>Pomocnik</name><ExtendedData><Data name="@id"><value>node/9374804680</value></Data><Data name="name"><value>Pomocnik</value></Data><Data name="amenity"><value>give_box</value></Data><Data name="image"><value>https://photos.app.goo.gl/KjY5aPAkSyTM2epD8</value></Data></ExtendedData><Point><coordinates>15.5148222,51.9462569</coordinates></Point></Placemark><Placemark><ExtendedData><Data name="@id"><value>node/9437253170</value></Data><Data name="access"><value>yes</value></Data><Data name="amenity"><value>shower</value></Data><Data name="capacity"><value>7</value></Data><Data name="fee"><value>no</value></Data><Data name="hot_water"><value>yes</value></Data><Data name="opening_hours"><value>24/7</value></Data><Data name="supervised"><value>yes</value></Data></ExtendedData><Point><coordinates>15.0880908,52.319714</coordinates></Point></Placemark><Placemark><ExtendedData><Data name="@id"><value>node/9536641707</value></Data><Data name="amenity"><value>shower</value></Data><Data name="fee"><value>yes</value></Data></ExtendedData><Point><coordinates>22.8741249,51.1314968</coordinates></Point></Placemark><Placemark><ExtendedData><Data name="@id"><value>node/9536681733</value></Data><Data name="access"><value>yes</value></Data><Data name="amenity"><value>shower</value></Data><Data name="charge"><value>10 PLN</value></Data><Data name="fee"><value>yes</value></Data></ExtendedData><Point><coordinates>21.705902,51.3722908</coordinates></Point></Placemark><Placemark><ExtendedData><Data name="@id"><value>node/9538695585</value></Data><Data name="amenity"><value>shower</value></Data></ExtendedData><Point><coordinates>19.9131442,50.0621739</coordinates></Point></Placemark><Placemark><ExtendedData><Data name="@id"><value>node/9582503324</value></Data><Data name="fee"><value>no</value></Data><Data name="amenity"><value>shower</value></Data><Data name="access"><value>yes</value></Data></ExtendedData><Point><coordinates>18.7301839,54.3735394</coordinates></Point></Placemark><Placemark><ExtendedData><Data name="@id"><value>node/9611590406</value></Data><Data name="access"><value>customers</value></Data><Data name="amenity"><value>shower</value></Data><Data name="female"><value>yes</value></Data><Data name="male"><value>yes</value></Data><Data name="unisex"><value>no</value></Data></ExtendedData><Point><coordinates>16.9081937,51.3048238</coordinates></Point></Placemark><Placemark><ExtendedData><Data name="@id"><value>node/9626782033</value></Data><Data name="amenity"><value>shower</value></Data><Data name="fee"><value>no</value></Data><Data name="hot_water"><value>yes</value></Data></ExtendedData><Point><coordinates>17.6944701,52.8359543</coordinates></Point></Placemark><Placemark><ExtendedData><Data name="@id"><value>node/9653604428</value></Data><Data name="access"><value>customers</value></Data><Data name="amenity"><value>shower</value></Data><Data name="unisex"><value>yes</value></Data></ExtendedData><Point><coordinates>16.9934976,52.5148228</coordinates></Point></Placemark><Placemark><ExtendedData><Data name="@id"><value>node/9709896374</value></Data><Data name="access"><value>permit</value></Data><Data name="amenity"><value>shower</value></Data></ExtendedData><Point><coordinates>20.1161137,53.4878719</coordinates></Point></Placemark><Placemark><ExtendedData><Data name="@id"><value>node/9782526475</value></Data><Data name="amenity"><value>give_box</value></Data><Data name="plants"><value>only</value></Data></ExtendedData><Point><coordinates>17.0797776,52.4156226</coordinates></Point></Placemark><Placemark><ExtendedData><Data name="@id"><value>node/9786987339</value></Data><Data name="amenity"><value>shower</value></Data><Data name="fee"><value>yes</value></Data><Data name="hot_water"><value>yes</value></Data><Data name="supervised"><value>yes</value></Data></ExtendedData><Point><coordinates>17.5447316,52.3087832</coordinates></Point></Placemark><Placemark><ExtendedData><Data name="@id"><value>node/9810720443</value></Data><Data name="amenity"><value>shower</value></Data></ExtendedData><Point><coordinates>19.3267556,50.2397039</coordinates></Point></Placemark><Placemark><ExtendedData><Data name="@id"><value>node/9810720444</value></Data><Data name="amenity"><value>shower</value></Data></ExtendedData><Point><coordinates>19.3273451,50.2395223</coordinates></Point></Placemark><Placemark><ExtendedData><Data name="@id"><value>node/9810720445</value></Data><Data name="amenity"><value>shower</value></Data></ExtendedData><Point><coordinates>19.3276751,50.2394079</coordinates></Point></Placemark><Placemark><ExtendedData><Data name="@id"><value>node/9817327307</value></Data><Data name="access"><value>yes</value></Data><Data name="amenity"><value>shower</value></Data><Data name="fee"><value>no</value></Data><Data name="hot_water"><value>yes</value></Data><Data name="wheelchair"><value>yes</value></Data></ExtendedData><Point><coordinates>22.2916352,50.6114237</coordinates></Point></Placemark><Placemark><ExtendedData><Data name="@id"><value>node/9823681275</value></Data><Data name="access"><value>yes</value></Data><Data name="amenity"><value>shower</value></Data><Data name="fee"><value>yes</value></Data></ExtendedData><Point><coordinates>14.6139749,52.3329163</coordinates></Point></Placemark><Placemark><ExtendedData><Data name="@id"><value>node/9844098800</value></Data><Data name="amenity"><value>shower</value></Data><Data name="fee"><value>no</value></Data><Data name="hot_water"><value>no</value></Data></ExtendedData><Point><coordinates>18.0686172,51.3240105</coordinates></Point></Placemark><Placemark><ExtendedData><Data name="@id"><value>node/9844098801</value></Data><Data name="amenity"><value>shower</value></Data><Data name="charge"><value>10PLN</value></Data><Data name="fee"><value>yes</value></Data><Data name="hot_water"><value>yes</value></Data></ExtendedData><Point><coordinates>18.0702091,51.3238731</coordinates></Point></Placemark><Placemark><ExtendedData><Data name="@id"><value>node/9844177542</value></Data><Data name="amenity"><value>shower</value></Data><Data name="fee"><value>no</value></Data></ExtendedData><Point><coordinates>18.2393833,51.3116045</coordinates></Point></Placemark><Placemark><ExtendedData><Data name="@id"><value>node/9880625789</value></Data><Data name="amenity"><value>shower</value></Data><Data name="seamark:small_craft_facility:category"><value>showers</value></Data><Data name="seamark:type"><value>small_craft_facility</value></Data></ExtendedData><Point><coordinates>21.5803121,53.6868184</coordinates></Point></Placemark><Placemark><ExtendedData><Data name="@id"><value>node/9899669979</value></Data><Data name="access"><value>yes</value></Data><Data name="amenity"><value>shower</value></Data><Data name="fee"><value>no</value></Data><Data name="hot_water"><value>no</value></Data></ExtendedData><Point><coordinates>14.2445487,53.9235231</coordinates></Point></Placemark><Placemark><ExtendedData><Data name="@id"><value>node/9899669980</value></Data><Data name="amenity"><value>shower</value></Data></ExtendedData><Point><coordinates>14.244542,53.9235073</coordinates></Point></Placemark><Placemark><ExtendedData><Data name="@id"><value>node/9899669981</value></Data><Data name="amenity"><value>shower</value></Data></ExtendedData><Point><coordinates>14.2445595,53.9235444</coordinates></Point></Placemark><Placemark><ExtendedData><Data name="@id"><value>node/9901599953</value></Data><Data name="access"><value>yes</value></Data><Data name="amenity"><value>shower</value></Data><Data name="fee"><value>no</value></Data><Data name="hot_water"><value>no</value></Data></ExtendedData><Point><coordinates>14.2477475,53.922881</coordinates></Point></Placemark><Placemark><ExtendedData><Data name="@id"><value>node/9901599954</value></Data><Data name="access"><value>yes</value></Data><Data name="amenity"><value>shower</value></Data><Data name="fee"><value>no</value></Data><Data name="hot_water"><value>no</value></Data></ExtendedData><Point><coordinates>14.2477394,53.9228644</coordinates></Point></Placemark><Placemark><ExtendedData><Data name="@id"><value>node/9918801073</value></Data><Data name="access"><value>yes</value></Data><Data name="amenity"><value>shower</value></Data><Data name="direction"><value>200</value></Data><Data name="fee"><value>no</value></Data></ExtendedData><Point><coordinates>14.2407598,53.9231704</coordinates></Point></Placemark><Placemark><ExtendedData><Data name="@id"><value>node/9918801074</value></Data><Data name="access"><value>yes</value></Data><Data name="amenity"><value>shower</value></Data><Data name="direction"><value>200</value></Data><Data name="fee"><value>no</value></Data></ExtendedData><Point><coordinates>14.2407317,53.9231787</coordinates></Point></Placemark><Placemark><ExtendedData><Data name="@id"><value>node/9918801075</value></Data><Data name="access"><value>yes</value></Data><Data name="amenity"><value>shower</value></Data><Data name="direction"><value>200</value></Data><Data name="fee"><value>no</value></Data></ExtendedData><Point><coordinates>14.2406941,53.9231898</coordinates></Point></Placemark><Placemark><ExtendedData><Data name="@id"><value>node/9918801076</value></Data><Data name="access"><value>yes</value></Data><Data name="amenity"><value>shower</value></Data><Data name="direction"><value>200</value></Data><Data name="fee"><value>no</value></Data></ExtendedData><Point><coordinates>14.2406499,53.9232008</coordinates></Point></Placemark><Placemark><ExtendedData><Data name="@id"><value>node/9918801077</value></Data><Data name="access"><value>yes</value></Data><Data name="amenity"><value>shower</value></Data><Data name="direction"><value>200</value></Data><Data name="fee"><value>no</value></Data></ExtendedData><Point><coordinates>14.2406076,53.9232095</coordinates></Point></Placemark><Placemark><ExtendedData><Data name="@id"><value>node/9918801084</value></Data><Data name="access"><value>yes</value></Data><Data name="amenity"><value>shower</value></Data><Data name="direction"><value>240</value></Data><Data name="fee"><value>no</value></Data></ExtendedData><Point><coordinates>14.2519353,53.9208383</coordinates></Point></Placemark><Placemark><ExtendedData><Data name="@id"><value>node/9918801085</value></Data><Data name="access"><value>yes</value></Data><Data name="amenity"><value>shower</value></Data><Data name="direction"><value>240</value></Data><Data name="fee"><value>no</value></Data></ExtendedData><Point><coordinates>14.2518561,53.9208509</coordinates></Point></Placemark><Placemark><ExtendedData><Data name="@id"><value>node/9918801086</value></Data><Data name="access"><value>yes</value></Data><Data name="amenity"><value>shower</value></Data><Data name="direction"><value>240</value></Data><Data name="fee"><value>no</value></Data></ExtendedData><Point><coordinates>14.251779,53.9208636</coordinates></Point></Placemark><Placemark><ExtendedData><Data name="@id"><value>node/9918801087</value></Data><Data name="access"><value>yes</value></Data><Data name="amenity"><value>shower</value></Data><Data name="direction"><value>340</value></Data><Data name="fee"><value>no</value></Data></ExtendedData><Point><coordinates>14.2517676,53.9208383</coordinates></Point></Placemark><Placemark><ExtendedData><Data name="@id"><value>node/9918801088</value></Data><Data name="access"><value>yes</value></Data><Data name="amenity"><value>shower</value></Data><Data name="direction"><value>340</value></Data><Data name="fee"><value>no</value></Data></ExtendedData><Point><coordinates>14.2518441,53.920826</coordinates></Point></Placemark><Placemark><ExtendedData><Data name="@id"><value>node/9918801089</value></Data><Data name="access"><value>yes</value></Data><Data name="amenity"><value>shower</value></Data><Data name="direction"><value>340</value></Data><Data name="fee"><value>no</value></Data></ExtendedData><Point><coordinates>14.2519225,53.9208138</coordinates></Point></Placemark><Placemark><ExtendedData><Data name="@id"><value>node/9922023304</value></Data><Data name="access"><value>yes</value></Data><Data name="amenity"><value>shower</value></Data><Data name="hot_water"><value>yes</value></Data><Data name="supervised"><value>yes</value></Data></ExtendedData><Point><coordinates>23.7147055,52.7062448</coordinates></Point></Placemark><Placemark><ExtendedData><Data name="@id"><value>node/9935291377</value></Data><Data name="access"><value>customers</value></Data><Data name="amenity"><value>shower</value></Data></ExtendedData><Point><coordinates>16.9121037,51.3045608</coordinates></Point></Placemark><Placemark><ExtendedData><Data name="@id"><value>node/9935747983</value></Data><Data name="amenity"><value>shower</value></Data></ExtendedData><Point><coordinates>21.2416538,53.7350524</coordinates></Point></Placemark><Placemark><ExtendedData><Data name="@id"><value>node/9953016302</value></Data><Data name="amenity"><value>shower</value></Data></ExtendedData><Point><coordinates>17.2470184,54.7008571</coordinates></Point></Placemark><Placemark><ExtendedData><Data name="@id"><value>node/9955583164</value></Data><Data name="access"><value>yes</value></Data><Data name="amenity"><value>shower</value></Data><Data name="fee"><value>no</value></Data><Data name="supervised"><value>no</value></Data><Data name="wheelchair"><value>limited</value></Data></ExtendedData><Point><coordinates>20.1452855,53.785488</coordinates></Point></Placemark><Placemark><ExtendedData><Data name="@id"><value>node/9957452463</value></Data><Data name="amenity"><value>shower</value></Data></ExtendedData><Point><coordinates>17.9484455,52.3909336</coordinates></Point></Placemark><Placemark><ExtendedData><Data name="@id"><value>node/9957517973</value></Data><Data name="amenity"><value>shower</value></Data></ExtendedData><Point><coordinates>17.9470929,52.3730677</coordinates></Point></Placemark><Placemark><ExtendedData><Data name="@id"><value>node/9957574440</value></Data><Data name="amenity"><value>shower</value></Data></ExtendedData><Point><coordinates>18.0035019,52.4424726</coordinates></Point></Placemark><Placemark><ExtendedData><Data name="@id"><value>node/9967796755</value></Data><Data name="amenity"><value>shower</value></Data></ExtendedData><Point><coordinates>20.9898157,52.2559117</coordinates></Point></Placemark><Placemark><ExtendedData><Data name="@id"><value>node/9967796756</value></Data><Data name="amenity"><value>shower</value></Data></ExtendedData><Point><coordinates>20.9902166,52.2555677</coordinates></Point></Placemark><Placemark><ExtendedData><Data name="@id"><value>node/9968398606</value></Data><Data name="amenity"><value>shower</value></Data></ExtendedData><Point><coordinates>17.9470691,52.4297088</coordinates></Point></Placemark><Placemark><ExtendedData><Data name="@id"><value>node/9968407246</value></Data><Data name="amenity"><value>shower</value></Data></ExtendedData><Point><coordinates>17.9492853,52.4002376</coordinates></Point></Placemark><Placemark><description>klucz w barze</description><ExtendedData><Data name="@id"><value>node/10009117566</value></Data><Data name="amenity"><value>shower</value></Data><Data name="description"><value>klucz w barze</value></Data><Data name="fee"><value>15PLN</value></Data><Data name="hot_water"><value>yes</value></Data></ExtendedData><Point><coordinates>18.365474,51.308329</coordinates></Point></Placemark><Placemark><ExtendedData><Data name="@id"><value>node/10016000440</value></Data><Data name="amenity"><value>shower</value></Data><Data name="charge"><value>10 PLN</value></Data><Data name="fee"><value>yes</value></Data><Data name="location"><value>indoor</value></Data><Data name="maxstay"><value>15 minutes</value></Data><Data name="payment:coins"><value>yes</value></Data></ExtendedData><Point><coordinates>21.0404306,52.4355189</coordinates></Point></Placemark><Placemark><ExtendedData><Data name="@id"><value>node/10039682507</value></Data><Data name="amenity"><value>shower</value></Data></ExtendedData><Point><coordinates>19.6518281,53.7310122</coordinates></Point></Placemark><Placemark><ExtendedData><Data name="@id"><value>node/10053388798</value></Data><Data name="amenity"><value>shower</value></Data></ExtendedData><Point><coordinates>18.3934903,50.5179102</coordinates></Point></Placemark><Placemark><ExtendedData><Data name="@id"><value>node/10053388799</value></Data><Data name="amenity"><value>shower</value></Data></ExtendedData><Point><coordinates>18.3935349,50.5178837</coordinates></Point></Placemark><Placemark><ExtendedData><Data name="@id"><value>node/10096515207</value></Data><Data name="amenity"><value>shower</value></Data><Data name="hot_water"><value>no</value></Data><Data name="location"><value>outdoor</value></Data><Data name="source"><value>Geoportal 2: Orthophotomap (aerial image) WMTS</value></Data><Data name="unisex"><value>yes</value></Data></ExtendedData><Point><coordinates>17.0315624,51.0897243</coordinates></Point></Placemark><Placemark><ExtendedData><Data name="@id"><value>node/10096515208</value></Data><Data name="amenity"><value>shower</value></Data><Data name="hot_water"><value>no</value></Data><Data name="location"><value>outdoor</value></Data><Data name="source"><value>Geoportal 2: Orthophotomap (aerial image) WMTS</value></Data><Data name="unisex"><value>yes</value></Data></ExtendedData><Point><coordinates>17.0315684,51.0897403</coordinates></Point></Placemark><Placemark><ExtendedData><Data name="@id"><value>node/10096515209</value></Data><Data name="amenity"><value>shower</value></Data><Data name="hot_water"><value>no</value></Data><Data name="location"><value>outdoor</value></Data><Data name="source"><value>Geoportal 2: Orthophotomap (aerial image) WMTS</value></Data><Data name="unisex"><value>yes</value></Data></ExtendedData><Point><coordinates>17.031812,51.0895582</coordinates></Point></Placemark><Placemark><ExtendedData><Data name="@id"><value>node/10096515210</value></Data><Data name="amenity"><value>shower</value></Data><Data name="hot_water"><value>no</value></Data><Data name="location"><value>outdoor</value></Data><Data name="source"><value>Geoportal 2: Orthophotomap (aerial image) WMTS</value></Data><Data name="unisex"><value>yes</value></Data></ExtendedData><Point><coordinates>17.0318179,51.0895743</coordinates></Point></Placemark><Placemark><ExtendedData><Data name="@id"><value>node/10096515211</value></Data><Data name="amenity"><value>shower</value></Data><Data name="hot_water"><value>no</value></Data><Data name="location"><value>outdoor</value></Data><Data name="source"><value>Geoportal 2: Orthophotomap (aerial image) WMTS</value></Data><Data name="unisex"><value>yes</value></Data></ExtendedData><Point><coordinates>17.0314917,51.0894987</coordinates></Point></Placemark><Placemark><ExtendedData><Data name="@id"><value>node/10096515212</value></Data><Data name="amenity"><value>shower</value></Data><Data name="hot_water"><value>no</value></Data><Data name="location"><value>outdoor</value></Data><Data name="source"><value>Geoportal 2: Orthophotomap (aerial image) WMTS</value></Data><Data name="unisex"><value>yes</value></Data></ExtendedData><Point><coordinates>17.0314858,51.0894826</coordinates></Point></Placemark><Placemark><ExtendedData><Data name="@id"><value>node/10119734503</value></Data><Data name="access"><value>yes</value></Data><Data name="amenity"><value>shower</value></Data></ExtendedData><Point><coordinates>21.4557932,51.4615535</coordinates></Point></Placemark><Placemark><ExtendedData><Data name="@id"><value>node/10119734504</value></Data><Data name="access"><value>yes</value></Data><Data name="amenity"><value>shower</value></Data></ExtendedData><Point><coordinates>21.4564262,51.4613258</coordinates></Point></Placemark><Placemark><name>Zniczodzielnia</name><ExtendedData><Data name="@id"><value>node/10141166317</value></Data><Data name="amenity"><value>give_box</value></Data><Data name="location"><value>indoor</value></Data><Data name="name"><value>Zniczodzielnia</value></Data><Data name="operator"><value>PGK Goleniów</value></Data></ExtendedData><Point><coordinates>14.8165469,53.5580452</coordinates></Point></Placemark><Placemark><ExtendedData><Data name="@id"><value>node/10163504215</value></Data><Data name="amenity"><value>shower</value></Data><Data name="charge"><value>8zł</value></Data><Data name="fee"><value>yes</value></Data><Data name="hot_water"><value>yes</value></Data></ExtendedData><Point><coordinates>18.6446511,53.4766979</coordinates></Point></Placemark><Placemark><ExtendedData><Data name="@id"><value>node/10184063788</value></Data><Data name="amenity"><value>shower</value></Data></ExtendedData><Point><coordinates>19.307557,49.5500904</coordinates></Point></Placemark><Placemark><ExtendedData><Data name="@id"><value>node/10249802274</value></Data><Data name="amenity"><value>shower</value></Data><Data name="charge"><value>10PLN</value></Data><Data name="fee"><value>yes</value></Data><Data name="hot_water"><value>yes</value></Data><Data name="indoor"><value>yes</value></Data></ExtendedData><Point><coordinates>17.0442393,51.2582729</coordinates></Point></Placemark><Placemark><ExtendedData><Data name="@id"><value>node/10295031407</value></Data><Data name="access"><value>yes</value></Data><Data name="amenity"><value>shower</value></Data><Data name="fee"><value>no</value></Data><Data name="supervised"><value>yes</value></Data><Data name="wheelchair"><value>limited</value></Data></ExtendedData><Point><coordinates>20.6222595,52.098161</coordinates></Point></Placemark></Document></kml>