{
  "type": "FeatureCollection",
  "generator": "overpass-turbo",
  "copyright": "The data included in this document is from www.openstreetmap.org. The data is made available under ODbL.",
  "timestamp": "2025-09-29T00:20:33Z",
  "features": [
    {
      "type": "Feature",
      "properties": {
        "@id": "relation/13812437",
        "amenity": "community_centre",
        "name": "Myrvoll speidergruppe",
        "operator": "Norges speiderforbund",
        "operator:type": "private_non_profit",
        "type": "multipolygon",
        "website": "https://www.myrvollspeider.no/",
        "@geometry": "center"
      },
      "geometry": {
        "type": "Point",
        "coordinates": [
          10.797396,
          59.785129
        ]
      },
      "id": "relation/13812437"
    },
    {
      "type": "Feature",
      "properties": {
        "@id": "relation/14580791",
        "amenity": "community_centre",
        "community_centre:for": "disabled",
        "name": "Kalhammaren avlastningsboliger",
        "operator": "Stavanger kommune",
        "type": "multipolygon",
        "@geometry": "center"
      },
      "geometry": {
        "type": "Point",
        "coordinates": [
          5.7147432,
          58.9809305
        ]
      },
      "id": "relation/14580791"
    },
    {
      "type": "Feature",
      "properties": {
        "@id": "way/36807064",
        "amenity": "community_centre",
        "name": "Langhuset",
        "social_facility": "yes",
        "building": "civic",
        "operator": "Ski kommune",
        "ref:bygningsnr": "17857479",
        "@geometry": "center"
      },
      "geometry": {
        "type": "Point",
        "coordinates": [
          10.8412188,
          59.7588234
        ]
      },
      "id": "way/36807064"
    },
    {
      "type": "Feature",
      "properties": {
        "@id": "way/41441786",
        "alt_name": "Indremisjonens Forum",
        "amenity": "community_centre",
        "building": "commercial",
        "floors": "3",
        "name": "IMI Forum",
        "ref:bygningsnr": "4818512",
        "religion": "christian",
        "stavanger_forum_ref": "K",
        "@geometry": "center"
      },
      "geometry": {
        "type": "Point",
        "coordinates": [
          5.699106,
          58.9550455
        ]
      },
      "id": "way/41441786"
    },
    {
      "type": "Feature",
      "properties": {
        "@id": "way/51851360",
        "amenity": "community_centre",
        "building": "civic",
        "name": "Høyenhall",
        "ref:bygningsnr": "161005819",
        "@geometry": "center"
      },
      "geometry": {
        "type": "Point",
        "coordinates": [
          10.4040782,
          59.7489873
        ]
      },
      "id": "way/51851360"
    },
    {
      "type": "Feature",
      "properties": {
        "@id": "way/52449356",
        "building": "civic",
        "amenity": "community_centre",
        "ref:bygningsnr": "80744390",
        "name": "Islamic centre & aktivitetshus",
        "@geometry": "center"
      },
      "geometry": {
        "type": "Point",
        "coordinates": [
          10.9211056,
          59.9615893
        ]
      },
      "id": "way/52449356"
    },
    {
      "type": "Feature",
      "properties": {
        "@id": "way/72272700",
        "ref:bygningsnr": "189701985",
        "amenity": "community_centre",
        "building": "civic",
        "description": "Arbeid",
        "name": "Arbeideren",
        "@geometry": "center"
      },
      "geometry": {
        "type": "Point",
        "coordinates": [
          14.4766474,
          68.2097727
        ]
      },
      "id": "way/72272700"
    },
    {
      "type": "Feature",
      "properties": {
        "@id": "way/80255555",
        "amenity": "community_centre",
        "building": "civic",
        "name": "Grorud samfunnshus",
        "ref:bygningsnr": "80230419",
        "@geometry": "center"
      },
      "geometry": {
        "type": "Point",
        "coordinates": [
          10.8735882,
          59.9511551
        ]
      },
      "id": "way/80255555"
    },
    {
      "type": "Feature",
      "properties": {
        "@id": "way/87771982",
        "amenity": "community_centre",
        "name": "Venskaben",
        "operator": "Asker kommune",
        "operator:type": "government",
        "wikidata": "Q12009284",
        "wikipedia": "no:Venskapen (Asker)",
        "ref:bygningsnr": "140110817",
        "building": "office",
        "@geometry": "center"
      },
      "geometry": {
        "type": "Point",
        "coordinates": [
          10.4367534,
          59.8358553
        ]
      },
      "id": "way/87771982"
    },
    {
      "type": "Feature",
      "properties": {
        "@id": "way/91157248",
        "amenity": "community_centre",
        "building": "office",
        "name": "Servicetorget, Stavanger kommune",
        "office": "government",
        "ref:bygningsnr": "4602110",
        "website": "https://www.stavanger.kommune.no/",
        "@geometry": "center"
      },
      "geometry": {
        "type": "Point",
        "coordinates": [
          5.7273162,
          58.969724
        ]
      },
      "id": "way/91157248"
    },
    {
      "type": "Feature",
      "properties": {
        "@id": "way/93935170",
        "amenity": "community_centre",
        "name": "Lisleby Samfunnshus",
        "building": "civic",
        "ref:bygningsnr": "6246559",
        "@geometry": "center"
      },
      "geometry": {
        "type": "Point",
        "coordinates": [
          10.9730025,
          59.2317895
        ]
      },
      "id": "way/93935170"
    },
    {
      "type": "Feature",
      "properties": {
        "@id": "way/104013321",
        "amenity": "community_centre",
        "building": "commercial",
        "name": "Verkstedhallen",
        "ref:bygningsnr": "182125156",
        "@geometry": "center"
      },
      "geometry": {
        "type": "Point",
        "coordinates": [
          10.4226455,
          63.43823
        ]
      },
      "id": "way/104013321"
    },
    {
      "type": "Feature",
      "properties": {
        "@id": "way/107817053",
        "amenity": "community_centre",
        "ref:bygningsnr": "80957173",
        "name": "Jesperudhuset",
        "building": "civic",
        "@geometry": "center"
      },
      "geometry": {
        "type": "Point",
        "coordinates": [
          10.932137,
          59.9621773
        ]
      },
      "id": "way/107817053"
    },
    {
      "type": "Feature",
      "properties": {
        "@id": "way/109586458",
        "amenity": "community_centre",
        "building": "chapel",
        "building:levels": "1",
        "name": "Forland bedehus",
        "ref:bygningsnr": "175495622",
        "@geometry": "center"
      },
      "geometry": {
        "type": "Point",
        "coordinates": [
          5.1030091,
          60.1882126
        ]
      },
      "id": "way/109586458"
    },
    {
      "type": "Feature",
      "properties": {
        "@id": "way/111845747",
        "smoking": "no",
        "amenity": "nightclub",
        "building:part": "yes",
        "lgbtq": "primary",
        "min_age": "21",
        "name": "Elsker",
        "opening_hours:covid19": "closed",
        "@geometry": "center"
      },
      "geometry": {
        "type": "Point",
        "coordinates": [
          10.737937,
          59.9154295
        ]
      },
      "id": "way/111845747"
    },
    {
      "type": "Feature",
      "properties": {
        "@id": "way/112150247",
        "amenity": "community_centre",
        "building": "office",
        "building:levels": "3",
        "description": "Sjølstyrt ungdomshus og senter for venstreradikal utenomparlamentarisk aktivisme i Oslo.",
        "name": "Blitzhuset",
        "name:en": "Blitz house",
        "ref:bygningsnr": "80480423",
        "roof:shape": "gabled",
        "start_date": "1982",
        "unit": "C",
        "website": "http://www.blitz.no/",
        "wheelchair": "no",
        "wikidata": "Q2203897",
        "wikipedia": "no:Blitz",
        "@geometry": "center"
      },
      "geometry": {
        "type": "Point",
        "coordinates": [
          10.7374715,
          59.918501
        ]
      },
      "id": "way/112150247"
    },
    {
      "type": "Feature",
      "properties": {
        "@id": "way/112356141",
        "amenity": "community_centre",
        "building": "religious",
        "name": "Ottestad samfunshus",
        "ref:bygningsnr": "7244703",
        "@geometry": "center"
      },
      "geometry": {
        "type": "Point",
        "coordinates": [
          11.1121298,
          60.7692261
        ]
      },
      "id": "way/112356141"
    },
    {
      "type": "Feature",
      "properties": {
        "@id": "way/123460930",
        "amenity": "community_centre",
        "building": "civic",
        "building:levels": "2",
        "name": "Ris menighetshus",
        "ref:bygningsnr": "80121806",
        "@geometry": "center"
      },
      "geometry": {
        "type": "Point",
        "coordinates": [
          10.7025855,
          59.9482015
        ]
      },
      "id": "way/123460930"
    },
    {
      "type": "Feature",
      "properties": {
        "@id": "way/129116101",
        "ref:bygningsnr": "22371606",
        "name": "Storelvahallen",
        "leisure": "sports_centre",
        "amenity": "community_centre",
        "building": "sports_centre",
        "@geometry": "center"
      },
      "geometry": {
        "type": "Point",
        "coordinates": [
          18.7921952,
          69.6865433
        ]
      },
      "id": "way/129116101"
    },
    {
      "type": "Feature",
      "properties": {
        "@id": "way/132155278",
        "wikidata": "Q10297276",
        "religion": "christian",
        "ref:bygningsnr": "80595743",
        "amenity": "community_centre",
        "building": "kindergarten",
        "community_centre": "parish_hall",
        "name": "Kampen kirkes menighetshus",
        "@geometry": "center"
      },
      "geometry": {
        "type": "Point",
        "coordinates": [
          10.783409,
          59.9120815
        ]
      },
      "id": "way/132155278"
    },
    {
      "type": "Feature",
      "properties": {
        "@id": "way/132837100",
        "amenity": "community_centre",
        "building": "civic",
        "name": "Korshamn Grendehus",
        "operator": "Korshamn Grendehus",
        "ref:bygningsnr": "169481911",
        "@geometry": "center"
      },
      "geometry": {
        "type": "Point",
        "coordinates": [
          7.0064395,
          58.0232485
        ]
      },
      "id": "way/132837100"
    },
    {
      "type": "Feature",
      "properties": {
        "@id": "way/132859659",
        "amenity": "community_centre",
        "building": "kindergarten",
        "name": "Kroer Samfunnshus",
        "opening_hours": "\"its rented out for special occasions, no regular opening hours.\"",
        "ref:bygningsnr": "149121498",
        "@geometry": "center"
      },
      "geometry": {
        "type": "Point",
        "coordinates": [
          10.850499,
          59.6330605
        ]
      },
      "id": "way/132859659"
    },
    {
      "type": "Feature",
      "properties": {
        "@id": "way/132876179",
        "amenity": "community_centre",
        "building": "civic",
        "name": "Slettaelva grendehus",
        "ref:bygningsnr": "16526827",
        "@geometry": "center"
      },
      "geometry": {
        "type": "Point",
        "coordinates": [
          18.8956424,
          69.702971
        ]
      },
      "id": "way/132876179"
    },
    {
      "type": "Feature",
      "properties": {
        "@id": "way/132908850",
        "amenity": "community_centre",
        "building": "civic",
        "name": "Liahøi",
        "ref:bygningsnr": "149097236",
        "website": "http://www.liahoi.no/",
        "@geometry": "center"
      },
      "geometry": {
        "type": "Point",
        "coordinates": [
          10.7689461,
          59.7217105
        ]
      },
      "id": "way/132908850"
    },
    {
      "type": "Feature",
      "properties": {
        "@id": "way/135744484",
        "amenity": "community_centre",
        "building": "yes",
        "ref:bygningsnr": "8016461",
        "@geometry": "center"
      },
      "geometry": {
        "type": "Point",
        "coordinates": [
          10.0003237,
          59.7739336
        ]
      },
      "id": "way/135744484"
    },
    {
      "type": "Feature",
      "properties": {
        "@id": "way/136790942",
        "amenity": "community_centre",
        "building": "civic",
        "name": "Brevik Kulturhus",
        "operator": "Porsgrunn Kommune",
        "ref:bygningsnr": "163995956",
        "@geometry": "center"
      },
      "geometry": {
        "type": "Point",
        "coordinates": [
          9.698019,
          59.054272
        ]
      },
      "id": "way/136790942"
    },
    {
      "type": "Feature",
      "properties": {
        "@id": "way/156114509",
        "amenity": "community_centre",
        "building": "garages",
        "ref:bygningsnr": "81015112",
        "@geometry": "center"
      },
      "geometry": {
        "type": "Point",
        "coordinates": [
          10.9182118,
          59.9315893
        ]
      },
      "id": "way/156114509"
    },
    {
      "type": "Feature",
      "properties": {
        "@id": "way/160686716",
        "amenity": "community_centre",
        "building": "civic",
        "building:levels": "2",
        "name": "ISAK",
        "opening_hours": "Mo-Th 09:00-21:30; Fr 09:00-18:30",
        "ref:bygningsnr": "182777927",
        "roof:shape": "gabled",
        "website": "http://isak.no/",
        "wheelchair": "yes",
        "@geometry": "center"
      },
      "geometry": {
        "type": "Point",
        "coordinates": [
          10.390869,
          63.4330235
        ]
      },
      "id": "way/160686716"
    },
    {
      "type": "Feature",
      "properties": {
        "@id": "way/163738653",
        "amenity": "community_centre",
        "building": "yes",
        "name": "Tinghus 2",
        "office": "Vacant building",
        "@geometry": "center"
      },
      "geometry": {
        "type": "Point",
        "coordinates": [
          6.8213806,
          61.1853383
        ]
      },
      "id": "way/163738653"
    },
    {
      "type": "Feature",
      "properties": {
        "@id": "way/167174422",
        "ref:bygningsnr": "168787006",
        "name": "Festiviteten",
        "amenity": "community_centre",
        "building": "civic",
        "@geometry": "center"
      },
      "geometry": {
        "type": "Point",
        "coordinates": [
          6.6369153,
          58.0850057
        ]
      },
      "id": "way/167174422"
    },
    {
      "type": "Feature",
      "properties": {
        "@id": "way/167229381",
        "alt_name": "Offiseren",
        "amenity": "community_centre",
        "building": "office",
        "loc_ref": "30",
        "name": "Befalsmessa",
        "operator": "Lista Flypark Hotell & Appartements",
        "ref:bygningsnr": "24460126",
        "website": "https://www.lista-flypark.no/Hotell-og-appertements/1155242",
        "@geometry": "center"
      },
      "geometry": {
        "type": "Point",
        "coordinates": [
          6.6147022,
          58.1152377
        ]
      },
      "id": "way/167229381"
    },
    {
      "type": "Feature",
      "properties": {
        "@id": "way/167235354",
        "amenity": "community_centre",
        "building": "civic",
        "name": "Nortun",
        "ref:bygningsnr": "168790198",
        "@geometry": "center"
      },
      "geometry": {
        "type": "Point",
        "coordinates": [
          6.6137818,
          58.1270938
        ]
      },
      "id": "way/167235354"
    },
    {
      "type": "Feature",
      "properties": {
        "@id": "way/167310521",
        "amenity": "community_centre",
        "building": "chapel",
        "description:no": "Flerbrukshus som kan leies til konfirmasjoner, bursdager og lignende.",
        "name": "Vigmostad bede- og grendehus",
        "ref:bygningsnr": "168809492",
        "@geometry": "center"
      },
      "geometry": {
        "type": "Point",
        "coordinates": [
          6.6519296,
          58.1515905
        ]
      },
      "id": "way/167310521"
    },
    {
      "type": "Feature",
      "properties": {
        "@id": "way/167516907",
        "ref:bygningsnr": "168800142",
        "name": "Vanseheim",
        "amenity": "community_centre",
        "building": "civic",
        "@geometry": "center"
      },
      "geometry": {
        "type": "Point",
        "coordinates": [
          6.6894041,
          58.0980795
        ]
      },
      "id": "way/167516907"
    },
    {
      "type": "Feature",
      "properties": {
        "@id": "way/167664797",
        "amenity": "community_centre",
        "building": "civic",
        "name": "Tveit grendehus",
        "ref:bygningsnr": "168811926",
        "wheelchair": "no",
        "@geometry": "center"
      },
      "geometry": {
        "type": "Point",
        "coordinates": [
          6.657437,
          58.136523
        ]
      },
      "id": "way/167664797"
    },
    {
      "type": "Feature",
      "properties": {
        "@id": "way/167787331",
        "amenity": "community_centre",
        "building": "civic",
        "name": "Hananger Grendehus",
        "ref:bygningsnr": "168814704",
        "@geometry": "center"
      },
      "geometry": {
        "type": "Point",
        "coordinates": [
          6.7113473,
          58.0803276
        ]
      },
      "id": "way/167787331"
    },
    {
      "type": "Feature",
      "properties": {
        "@id": "way/168135445",
        "amenity": "community_centre",
        "building": "civic",
        "name": "Frøynes grendehus",
        "note:no": "Grendehus i bruk av kretsen. Se http://innsyn.farsund.kommune.no/Publikum/getfile.aspx/ephdoc/?db%3DEPHORTE%26ParamCount%3D2%26UB_ID%3D8950%26SakType%3DSaksFremlegg",
        "ref:bygningsnr": "168859236",
        "@geometry": "center"
      },
      "geometry": {
        "type": "Point",
        "coordinates": [
          6.8442706,
          58.1350281
        ]
      },
      "id": "way/168135445"
    },
    {
      "type": "Feature",
      "properties": {
        "@id": "way/168625069",
        "alt_name": "Vestbygden grendehus",
        "amenity": "community_centre",
        "building": "civic",
        "name": "Vestbygda grendehus",
        "note:no": "Grendehus i bruk av kretsen. Se http://innsyn.farsund.kommune.no/Publikum/getfile.aspx/ephdoc/?db%3DEPHORTE%26ParamCount%3D2%26UB_ID%3D8950%26SakType%3DSaksFremlegg",
        "old_name": "Vestbygda skolehus",
        "ref:bygningsnr": "168845944",
        "@geometry": "center"
      },
      "geometry": {
        "type": "Point",
        "coordinates": [
          6.749348,
          58.2070123
        ]
      },
      "id": "way/168625069"
    },
    {
      "type": "Feature",
      "properties": {
        "@id": "way/169021329",
        "amenity": "community_centre",
        "name": "Orelåven selskapslokaler",
        "source": "Bing",
        "website": "http://www.orelaaven.com/",
        "@geometry": "center"
      },
      "geometry": {
        "type": "Point",
        "coordinates": [
          6.6342505,
          58.1083105
        ]
      },
      "id": "way/169021329"
    },
    {
      "type": "Feature",
      "properties": {
        "@id": "way/169698327",
        "name": "Austad Grendehus",
        "building": "yes",
        "amenity": "community_centre",
        "air_conditioning": "yes",
        "@geometry": "center"
      },
      "geometry": {
        "type": "Point",
        "coordinates": [
          7.0440867,
          58.089906
        ]
      },
      "id": "way/169698327"
    },
    {
      "type": "Feature",
      "properties": {
        "@id": "way/170858430",
        "name": "Spind Grendehus",
        "amenity": "community_centre",
        "@geometry": "center"
      },
      "geometry": {
        "type": "Point",
        "coordinates": [
          6.8689969,
          58.1010055
        ]
      },
      "id": "way/170858430"
    },
    {
      "type": "Feature",
      "properties": {
        "@id": "way/172650050",
        "amenity": "community_centre",
        "building": "religious",
        "name": "Kjærrane",
        "old_name": "Grokjærrane",
        "operator": "Ynglingeforeningen",
        "ref:bygningsnr": "168061684",
        "@geometry": "center"
      },
      "geometry": {
        "type": "Point",
        "coordinates": [
          7.921329,
          58.15619
        ]
      },
      "id": "way/172650050"
    },
    {
      "type": "Feature",
      "properties": {
        "@id": "way/177527230",
        "amenity": "community_centre",
        "building": "civic",
        "building:levels": "2",
        "name": "Ungdomshallen",
        "ref:bygningsnr": "174901287",
        "@geometry": "center"
      },
      "geometry": {
        "type": "Point",
        "coordinates": [
          6.4219151,
          60.6284897
        ]
      },
      "id": "way/177527230"
    },
    {
      "type": "Feature",
      "properties": {
        "@id": "way/179202042",
        "amenity": "community_centre",
        "building": "garage",
        "name": "Jondal Kulturhus",
        "ref:bygningsnr": "194873050",
        "@geometry": "center"
      },
      "geometry": {
        "type": "Point",
        "coordinates": [
          6.2526105,
          60.278629
        ]
      },
      "id": "way/179202042"
    },
    {
      "type": "Feature",
      "properties": {
        "@id": "way/183497765",
        "amenity": "community_centre",
        "building": "commercial",
        "name": "Forum Expo",
        "ref:bygningsnr": "300311427",
        "ssr:stedsnr": "545324",
        "stavanger_forum_ref": "E",
        "@geometry": "center"
      },
      "geometry": {
        "type": "Point",
        "coordinates": [
          5.696727,
          58.9545765
        ]
      },
      "id": "way/183497765"
    },
    {
      "type": "Feature",
      "properties": {
        "@id": "way/183822363",
        "amenity": "community_centre",
        "building": "office",
        "name": "Fredshuset",
        "name:en": "Norwegian Peace House",
        "ref:bygningsnr": "80478275",
        "@geometry": "center"
      },
      "geometry": {
        "type": "Point",
        "coordinates": [
          10.7475485,
          59.9144865
        ]
      },
      "id": "way/183822363"
    },
    {
      "type": "Feature",
      "properties": {
        "@id": "way/184176400",
        "amenity": "community_centre",
        "name": "Vangseter",
        "@geometry": "center"
      },
      "geometry": {
        "type": "Point",
        "coordinates": [
          11.1828877,
          60.8830028
        ]
      },
      "id": "way/184176400"
    },
    {
      "type": "Feature",
      "properties": {
        "@id": "way/190516797",
        "name": "Spangereid Grendehus",
        "ref:bygningsnr": "9055517",
        "building": "civic",
        "amenity": "community_centre",
        "@geometry": "center"
      },
      "geometry": {
        "type": "Point",
        "coordinates": [
          7.1470809,
          58.0427451
        ]
      },
      "id": "way/190516797"
    },
    {
      "type": "Feature",
      "properties": {
        "@id": "way/191544620",
        "amenity": "community_centre",
        "building": "civic",
        "name": "Speidernes Hus",
        "ref:bygningsnr": "149445404",
        "@geometry": "center"
      },
      "geometry": {
        "type": "Point",
        "coordinates": [
          10.6659225,
          59.8527678
        ]
      },
      "id": "way/191544620"
    },
    {
      "type": "Feature",
      "properties": {
        "@id": "way/192470226",
        "amenity": "community_centre",
        "building": "religious",
        "name": "Ilen menighetshus",
        "ref:bygningsnr": "182792721",
        "@geometry": "center"
      },
      "geometry": {
        "type": "Point",
        "coordinates": [
          10.3663415,
          63.4289705
        ]
      },
      "id": "way/192470226"
    },
    {
      "type": "Feature",
      "properties": {
        "@id": "way/194926130",
        "ref:bygningsnr": "117955486",
        "name": "Polarhallen",
        "leisure": "sports_centre",
        "amenity": "community_centre",
        "building": "sports_centre",
        "@geometry": "center"
      },
      "geometry": {
        "type": "Point",
        "coordinates": [
          24.6554463,
          70.9994311
        ]
      },
      "id": "way/194926130"
    },
    {
      "type": "Feature",
      "properties": {
        "@id": "way/195928901",
        "amenity": "community_centre",
        "building": "civic",
        "name": "Folkets hus",
        "ref:bygningsnr": "208256",
        "@geometry": "center"
      },
      "geometry": {
        "type": "Point",
        "coordinates": [
          14.3875477,
          67.2831884
        ]
      },
      "id": "way/195928901"
    },
    {
      "type": "Feature",
      "properties": {
        "@id": "way/197812894",
        "amenity": "community_centre",
        "building": "barn",
        "name": "Klokkergården",
        "ref:bygningsnr": "140437336",
        "@geometry": "center"
      },
      "geometry": {
        "type": "Point",
        "coordinates": [
          10.3876915,
          59.7464959
        ]
      },
      "id": "way/197812894"
    },
    {
      "type": "Feature",
      "properties": {
        "@id": "way/200199501",
        "amenity": "community_centre",
        "building": "civic",
        "name": "Steinsland ungdomshus",
        "ref:bygningsnr": "175499121",
        "@geometry": "center"
      },
      "geometry": {
        "type": "Point",
        "coordinates": [
          5.097362,
          60.1980465
        ]
      },
      "id": "way/200199501"
    },
    {
      "type": "Feature",
      "properties": {
        "@id": "way/208198433",
        "ref:bygningsnr": "8807108",
        "name": "Nidarhall",
        "building": "civic",
        "amenity": "community_centre",
        "@geometry": "center"
      },
      "geometry": {
        "type": "Point",
        "coordinates": [
          8.6329792,
          58.5151864
        ]
      },
      "id": "way/208198433"
    },
    {
      "type": "Feature",
      "properties": {
        "@id": "way/217708176",
        "amenity": "community_centre",
        "name": "Askerøya gamle skole",
        "@geometry": "center"
      },
      "geometry": {
        "type": "Point",
        "coordinates": [
          9.0775602,
          58.6149678
        ]
      },
      "id": "way/217708176"
    },
    {
      "type": "Feature",
      "properties": {
        "@id": "way/219678886",
        "ref:bygningsnr": "80688695",
        "amenity": "community_centre",
        "building": "civic",
        "name": "Bøler samfunnshus",
        "@geometry": "center"
      },
      "geometry": {
        "type": "Point",
        "coordinates": [
          10.8435984,
          59.8827873
        ]
      },
      "id": "way/219678886"
    },
    {
      "type": "Feature",
      "properties": {
        "@id": "way/220886590",
        "amenity": "community_centre",
        "building": "school",
        "name": "Kjeldebotn samfunnshus",
        "ref:bygningsnr": "189394209",
        "sport": "multi",
        "@geometry": "center"
      },
      "geometry": {
        "type": "Point",
        "coordinates": [
          16.6583685,
          68.4064135
        ]
      },
      "id": "way/220886590"
    },
    {
      "type": "Feature",
      "properties": {
        "@id": "way/220888851",
        "amenity": "community_centre",
        "name": "Uvdal Herredshus",
        "building": "civic",
        "ref:bygningsnr": "161439606",
        "@geometry": "center"
      },
      "geometry": {
        "type": "Point",
        "coordinates": [
          8.7518519,
          60.2693468
        ]
      },
      "id": "way/220888851"
    },
    {
      "type": "Feature",
      "properties": {
        "@id": "way/225921423",
        "amenity": "community_centre",
        "building": "civic",
        "name": "Hvitsten Grendehus",
        "ref:bygningsnr": "148719527",
        "website": "http://www.vestby.kommune.no/hvitsten-grendehus.79279.no.html",
        "@geometry": "center"
      },
      "geometry": {
        "type": "Point",
        "coordinates": [
          10.6658696,
          59.6037269
        ]
      },
      "id": "way/225921423"
    },
    {
      "type": "Feature",
      "properties": {
        "@id": "way/227466124",
        "amenity": "community_centre",
        "building": "civic",
        "name": "Orm skole",
        "ref:bygningsnr": "158889625",
        "ssr:stedsnr": "731933",
        "@geometry": "center"
      },
      "geometry": {
        "type": "Point",
        "coordinates": [
          9.5256785,
          59.7005285
        ]
      },
      "id": "way/227466124"
    },
    {
      "type": "Feature",
      "properties": {
        "@id": "way/228194316",
        "amenity": "community_centre",
        "building": "civic",
        "name": "Mastebogen",
        "ref:bygningsnr": "160768193",
        "ssr:stedsnr": "488516",
        "@geometry": "center"
      },
      "geometry": {
        "type": "Point",
        "coordinates": [
          9.9401979,
          59.635413
        ]
      },
      "id": "way/228194316"
    },
    {
      "type": "Feature",
      "properties": {
        "@id": "way/228216444",
        "amenity": "community_centre",
        "landuse": "commercial",
        "@geometry": "center"
      },
      "geometry": {
        "type": "Point",
        "coordinates": [
          13.712544,
          66.8748847
        ]
      },
      "id": "way/228216444"
    },
    {
      "type": "Feature",
      "properties": {
        "@id": "way/228216451",
        "amenity": "community_centre",
        "building": "religious",
        "name": "Ørnes menighetshus",
        "ref:bygningsnr": "11184340",
        "@geometry": "center"
      },
      "geometry": {
        "type": "Point",
        "coordinates": [
          13.7124818,
          66.8748667
        ]
      },
      "id": "way/228216451"
    },
    {
      "type": "Feature",
      "properties": {
        "@id": "way/230207009",
        "amenity": "community_centre",
        "community_centre:for": "juvenile",
        "@geometry": "center"
      },
      "geometry": {
        "type": "Point",
        "coordinates": [
          13.7714387,
          66.830597
        ]
      },
      "id": "way/230207009"
    },
    {
      "type": "Feature",
      "properties": {
        "@id": "way/230875704",
        "amenity": "community_centre",
        "building": "office",
        "community_centre": "meeting_room",
        "ref:bygningsnr": "188606091",
        "@geometry": "center"
      },
      "geometry": {
        "type": "Point",
        "coordinates": [
          13.979442,
          66.8100377
        ]
      },
      "id": "way/230875704"
    },
    {
      "type": "Feature",
      "properties": {
        "@id": "way/231136002",
        "ref:bygningsnr": "187040272",
        "name": "Solheim",
        "building": "civic",
        "amenity": "community_centre",
        "@geometry": "center"
      },
      "geometry": {
        "type": "Point",
        "coordinates": [
          13.9884518,
          67.2803729
        ]
      },
      "id": "way/231136002"
    },
    {
      "type": "Feature",
      "properties": {
        "@id": "way/231910222",
        "amenity": "community_centre",
        "building": "civic",
        "name": "Halsa samfunnshus",
        "ref:bygningsnr": "11187803",
        "@geometry": "center"
      },
      "geometry": {
        "type": "Point",
        "coordinates": [
          13.5572045,
          66.7430373
        ]
      },
      "id": "way/231910222"
    },
    {
      "type": "Feature",
      "properties": {
        "@id": "way/233023515",
        "amenity": "community_centre",
        "building": "yes",
        "name": "Fjelltun",
        "ref:bygningsnr": "10869226",
        "@geometry": "center"
      },
      "geometry": {
        "type": "Point",
        "coordinates": [
          10.60611,
          63.7658645
        ]
      },
      "id": "way/233023515"
    },
    {
      "type": "Feature",
      "properties": {
        "@id": "way/233368447",
        "amenity": "community_centre",
        "@geometry": "center"
      },
      "geometry": {
        "type": "Point",
        "coordinates": [
          13.7602756,
          66.7585897
        ]
      },
      "id": "way/233368447"
    },
    {
      "type": "Feature",
      "properties": {
        "@id": "way/237964843",
        "website": "http://digerudutleielokale.com/index.html",
        "amenity": "community_centre",
        "building": "civic",
        "name": "Digerud grendestue",
        "ref:bygningsnr": "149271813",
        "@geometry": "center"
      },
      "geometry": {
        "type": "Point",
        "coordinates": [
          10.6151232,
          59.72043
        ]
      },
      "id": "way/237964843"
    },
    {
      "type": "Feature",
      "properties": {
        "@id": "way/239173701",
        "amenity": "community_centre",
        "@geometry": "center"
      },
      "geometry": {
        "type": "Point",
        "coordinates": [
          13.4435052,
          66.9244127
        ]
      },
      "id": "way/239173701"
    },
    {
      "type": "Feature",
      "properties": {
        "@id": "way/239173741",
        "amenity": "community_centre",
        "@geometry": "center"
      },
      "geometry": {
        "type": "Point",
        "coordinates": [
          13.4414783,
          66.923792
        ]
      },
      "id": "way/239173741"
    },
    {
      "type": "Feature",
      "properties": {
        "@id": "way/239173751",
        "amenity": "community_centre",
        "@geometry": "center"
      },
      "geometry": {
        "type": "Point",
        "coordinates": [
          13.4436239,
          66.9240626
        ]
      },
      "id": "way/239173751"
    },
    {
      "type": "Feature",
      "properties": {
        "@id": "way/240378166",
        "amenity": "community_centre",
        "@geometry": "center"
      },
      "geometry": {
        "type": "Point",
        "coordinates": [
          13.6770437,
          66.8512015
        ]
      },
      "id": "way/240378166"
    },
    {
      "type": "Feature",
      "properties": {
        "@id": "way/240413888",
        "amenity": "community_centre",
        "@geometry": "center"
      },
      "geometry": {
        "type": "Point",
        "coordinates": [
          13.2183674,
          66.7980687
        ]
      },
      "id": "way/240413888"
    },
    {
      "type": "Feature",
      "properties": {
        "@id": "way/240413902",
        "amenity": "community_centre",
        "@geometry": "center"
      },
      "geometry": {
        "type": "Point",
        "coordinates": [
          13.2322061,
          66.803292
        ]
      },
      "id": "way/240413902"
    },
    {
      "type": "Feature",
      "properties": {
        "@id": "way/240519334",
        "amenity": "community_centre",
        "@geometry": "center"
      },
      "geometry": {
        "type": "Point",
        "coordinates": [
          13.3335107,
          66.7520549
        ]
      },
      "id": "way/240519334"
    },
    {
      "type": "Feature",
      "properties": {
        "@id": "way/240519337",
        "ref:bygningsnr": "188556736",
        "amenity": "community_centre",
        "building": "religious",
        "@geometry": "center"
      },
      "geometry": {
        "type": "Point",
        "coordinates": [
          13.370006,
          66.7836905
        ]
      },
      "id": "way/240519337"
    },
    {
      "type": "Feature",
      "properties": {
        "@id": "way/241094862",
        "amenity": "community_centre",
        "@geometry": "center"
      },
      "geometry": {
        "type": "Point",
        "coordinates": [
          13.4476135,
          66.7890173
        ]
      },
      "id": "way/241094862"
    },
    {
      "type": "Feature",
      "properties": {
        "@id": "way/241499232",
        "amenity": "community_centre",
        "name": "URD Samfunnshus",
        "opening_hours": "\"Etter avtale\"",
        "@geometry": "center"
      },
      "geometry": {
        "type": "Point",
        "coordinates": [
          13.409121,
          66.8233708
        ]
      },
      "id": "way/241499232"
    },
    {
      "type": "Feature",
      "properties": {
        "@id": "way/248664608",
        "name": "Florø Kulturhus",
        "amenity": "community_centre",
        "building": "civic",
        "layer": "1",
        "opening_hours": "Mo-Fr 08:00-20:00, Sa 11:00-14:00",
        "ref:bygningsnr": "176611499",
        "website": "https://www.florasamfunnshus.no/",
        "@geometry": "center"
      },
      "geometry": {
        "type": "Point",
        "coordinates": [
          5.037465,
          61.6000676
        ]
      },
      "id": "way/248664608"
    },
    {
      "type": "Feature",
      "properties": {
        "@id": "way/251470653",
        "amenity": "community_centre",
        "@geometry": "center"
      },
      "geometry": {
        "type": "Point",
        "coordinates": [
          13.6353319,
          66.9096718
        ]
      },
      "id": "way/251470653"
    },
    {
      "type": "Feature",
      "properties": {
        "@id": "way/255897154",
        "amenity": "community_centre",
        "building": "civic",
        "community_centre:for": "juvenile",
        "name": "Reipå ungdomshus",
        "ref:bygningsnr": "188575129",
        "@geometry": "center"
      },
      "geometry": {
        "type": "Point",
        "coordinates": [
          13.6430415,
          66.911828
        ]
      },
      "id": "way/255897154"
    },
    {
      "type": "Feature",
      "properties": {
        "@id": "way/260447486",
        "amenity": "community_centre",
        "name": "Elvatun Ungdomshus",
        "building": "civic",
        "ref:bygningsnr": "174794731",
        "@geometry": "center"
      },
      "geometry": {
        "type": "Point",
        "coordinates": [
          6.9147094,
          60.5702743
        ]
      },
      "id": "way/260447486"
    },
    {
      "type": "Feature",
      "properties": {
        "@id": "way/268586598",
        "website": "http://www.bluebox.no/",
        "amenity": "nightclub",
        "building": "university",
        "building:levels": "2",
        "name": "Bluebox",
        "opening_hours": "Tu 16:00-22:00, Th,Fr 16:00-24:00, Sa 21:00-02:00",
        "ref:bygningsnr": "300555322",
        "wheelchair": "yes",
        "@geometry": "center"
      },
      "geometry": {
        "type": "Point",
        "coordinates": [
          8.5775165,
          58.3346755
        ]
      },
      "id": "way/268586598"
    },
    {
      "type": "Feature",
      "properties": {
        "@id": "way/269931190",
        "amenity": "social_centre",
        "name": "Haraset leirsted",
        "operator": "Normisjon region øst",
        "tourism": "chalet",
        "url": "http://www.normisjonost.no/haraset/",
        "@geometry": "center"
      },
      "geometry": {
        "type": "Point",
        "coordinates": [
          11.383813,
          60.6629846
        ]
      },
      "id": "way/269931190"
    },
    {
      "type": "Feature",
      "properties": {
        "@id": "way/285857698",
        "amenity": "community_centre",
        "name": "Soknahall",
        "building": "civic",
        "ref:bygningsnr": "3434826",
        "@geometry": "center"
      },
      "geometry": {
        "type": "Point",
        "coordinates": [
          10.1905858,
          62.9493739
        ]
      },
      "id": "way/285857698"
    },
    {
      "type": "Feature",
      "properties": {
        "@id": "way/285886694",
        "amenity": "community_centre",
        "building": "religious",
        "ref:bygningsnr": "188572065",
        "@geometry": "center"
      },
      "geometry": {
        "type": "Point",
        "coordinates": [
          13.5944681,
          66.8057347
        ]
      },
      "id": "way/285886694"
    },
    {
      "type": "Feature",
      "properties": {
        "@id": "way/286603767",
        "amenity": "community_centre",
        "building": "civic",
        "ref:bygningsnr": "18299291",
        "@geometry": "center"
      },
      "geometry": {
        "type": "Point",
        "coordinates": [
          13.5006339,
          66.7955406
        ]
      },
      "id": "way/286603767"
    },
    {
      "type": "Feature",
      "properties": {
        "@id": "way/287362322",
        "amenity": "community_centre",
        "building": "civic",
        "name": "Revelltun grendehus",
        "ref:bygningsnr": "10867339",
        "@geometry": "center"
      },
      "geometry": {
        "type": "Point",
        "coordinates": [
          10.3976833,
          63.5865537
        ]
      },
      "id": "way/287362322"
    },
    {
      "type": "Feature",
      "properties": {
        "@id": "way/289368472",
        "amenity": "community_centre",
        "building": "civic",
        "ref:bygningsnr": "188579817",
        "@geometry": "center"
      },
      "geometry": {
        "type": "Point",
        "coordinates": [
          13.6664625,
          66.7667086
        ]
      },
      "id": "way/289368472"
    },
    {
      "type": "Feature",
      "properties": {
        "@id": "way/289786191",
        "amenity": "community_centre",
        "building": "religious",
        "name": "Lademoen bydelshus",
        "ref:bygningsnr": "182134473",
        "url": "https://lademoen-bydelshus.no/",
        "@geometry": "center"
      },
      "geometry": {
        "type": "Point",
        "coordinates": [
          10.420524,
          63.436832
        ]
      },
      "id": "way/289786191"
    },
    {
      "type": "Feature",
      "properties": {
        "@id": "way/289788267",
        "amenity": "community_centre",
        "building": "civic",
        "name": "ReMida Senter for Kreativ Gjenbruk",
        "ref:bygningsnr": "182125148",
        "@geometry": "center"
      },
      "geometry": {
        "type": "Point",
        "coordinates": [
          10.4232881,
          63.4383869
        ]
      },
      "id": "way/289788267"
    },
    {
      "type": "Feature",
      "properties": {
        "@id": "way/290804530",
        "amenity": "social_centre",
        "building": "civic",
        "name": "Pakkhuset",
        "operator": "Nes Blues Club",
        "ref:bygningsnr": "151461034",
        "website": "http://nesblues.no/",
        "@geometry": "center"
      },
      "geometry": {
        "type": "Point",
        "coordinates": [
          11.4659933,
          60.124653
        ]
      },
      "id": "way/290804530"
    },
    {
      "type": "Feature",
      "properties": {
        "@id": "way/297819978",
        "amenity": "community_centre",
        "building": "civic",
        "ref:bygningsnr": "191065980",
        "@geometry": "center"
      },
      "geometry": {
        "type": "Point",
        "coordinates": [
          16.1724102,
          68.7716304
        ]
      },
      "id": "way/297819978"
    },
    {
      "type": "Feature",
      "properties": {
        "@id": "way/303571805",
        "amenity": "community_centre",
        "building": "civic",
        "building:levels": "2",
        "ref:bygningsnr": "189340702",
        "roof:levels": "1",
        "roof:shape": "hipped",
        "@geometry": "center"
      },
      "geometry": {
        "type": "Point",
        "coordinates": [
          16.6259946,
          68.4603745
        ]
      },
      "id": "way/303571805"
    },
    {
      "type": "Feature",
      "properties": {
        "@id": "way/304900130",
        "amenity": "community_centre",
        "building": "civic",
        "name": "Høgda folkehus",
        "ref:bygningsnr": "189348630",
        "@geometry": "center"
      },
      "geometry": {
        "type": "Point",
        "coordinates": [
          16.9004033,
          68.4888972
        ]
      },
      "id": "way/304900130"
    },
    {
      "type": "Feature",
      "properties": {
        "@id": "way/306725488",
        "amenity": "community_centre",
        "name": "Folkets hus",
        "building": "civic",
        "building:levels": "1",
        "ref:bygningsnr": "152435983",
        "@geometry": "center"
      },
      "geometry": {
        "type": "Point",
        "coordinates": [
          10.845026,
          60.8023805
        ]
      },
      "id": "way/306725488"
    },
    {
      "type": "Feature",
      "properties": {
        "@id": "way/312859209",
        "amenity": "community_centre",
        "building": "house",
        "building:levels": "1",
        "name": "Sjåberget grill- og kulturbu",
        "opening_hours": "\"on request\"",
        "roof:levels": "1",
        "roof:shape": "skillion",
        "@geometry": "center"
      },
      "geometry": {
        "type": "Point",
        "coordinates": [
          16.5973913,
          68.4551227
        ]
      },
      "id": "way/312859209"
    },
    {
      "type": "Feature",
      "properties": {
        "@id": "way/312922613",
        "amenity": "community_centre",
        "building": "religious",
        "heritage": "yes",
        "ref:bygningsnr": "189342322",
        "@geometry": "center"
      },
      "geometry": {
        "type": "Point",
        "coordinates": [
          16.6998535,
          68.458793
        ]
      },
      "id": "way/312922613"
    },
    {
      "type": "Feature",
      "properties": {
        "@id": "way/319919279",
        "alt_name": "Ådalsbruk arbeidersamfunn",
        "amenity": "community_centre",
        "name": "Samfunnet",
        "building": "civic",
        "ref:bygningsnr": "140131482",
        "@geometry": "center"
      },
      "geometry": {
        "type": "Point",
        "coordinates": [
          11.32167,
          60.788509
        ]
      },
      "id": "way/319919279"
    },
    {
      "type": "Feature",
      "properties": {
        "@id": "way/321286492",
        "ref:bygningsnr": "140075140",
        "amenity": "community_centre",
        "building": "office",
        "name": "Waldemarhøy",
        "operator": "Ski kommune",
        "@geometry": "center"
      },
      "geometry": {
        "type": "Point",
        "coordinates": [
          10.8372892,
          59.7228695
        ]
      },
      "id": "way/321286492"
    },
    {
      "type": "Feature",
      "properties": {
        "@id": "way/322498273",
        "amenity": "community_centre",
        "building": "civic",
        "ref:bygningsnr": "11193730",
        "@geometry": "center"
      },
      "geometry": {
        "type": "Point",
        "coordinates": [
          13.7758841,
          67.161174
        ]
      },
      "id": "way/322498273"
    },
    {
      "type": "Feature",
      "properties": {
        "@id": "way/322498337",
        "amenity": "community_centre",
        "building": "civic",
        "ref:bygningsnr": "188657273",
        "@geometry": "center"
      },
      "geometry": {
        "type": "Point",
        "coordinates": [
          13.7798621,
          67.1707169
        ]
      },
      "id": "way/322498337"
    },
    {
      "type": "Feature",
      "properties": {
        "@id": "way/322648368",
        "amenity": "community_centre",
        "name": "Rambu",
        "building": "civic",
        "ref:bygningsnr": "184160692",
        "@geometry": "center"
      },
      "geometry": {
        "type": "Point",
        "coordinates": [
          11.5557709,
          62.5035819
        ]
      },
      "id": "way/322648368"
    },
    {
      "type": "Feature",
      "properties": {
        "@id": "way/323419142",
        "amenity": "community_centre",
        "building": "civic",
        "name": "Husmorstua forsamlingshus",
        "ref:bygningsnr": "188652514",
        "@geometry": "center"
      },
      "geometry": {
        "type": "Point",
        "coordinates": [
          13.7278347,
          66.9451963
        ]
      },
      "id": "way/323419142"
    },
    {
      "type": "Feature",
      "properties": {
        "@id": "way/323955739",
        "amenity": "community_centre",
        "building": "civic",
        "name": "Ul Lys",
        "ref:bygningsnr": "188658911",
        "@geometry": "center"
      },
      "geometry": {
        "type": "Point",
        "coordinates": [
          13.8030276,
          66.9648073
        ]
      },
      "id": "way/323955739"
    },
    {
      "type": "Feature",
      "properties": {
        "@id": "way/325190657",
        "amenity": "community_centre",
        "building": "civic",
        "ref:bygningsnr": "188669239",
        "@geometry": "center"
      },
      "geometry": {
        "type": "Point",
        "coordinates": [
          13.978237,
          67.0079897
        ]
      },
      "id": "way/325190657"
    },
    {
      "type": "Feature",
      "properties": {
        "@id": "way/326516217",
        "amenity": "community_centre",
        "building": "civic",
        "ref:bygningsnr": "188663117",
        "@geometry": "center"
      },
      "geometry": {
        "type": "Point",
        "coordinates": [
          13.977454,
          66.9713953
        ]
      },
      "id": "way/326516217"
    },
    {
      "type": "Feature",
      "properties": {
        "@id": "way/327747363",
        "amenity": "community_centre",
        "ref:bygningsnr": "188665888",
        "building": "civic",
        "@geometry": "center"
      },
      "geometry": {
        "type": "Point",
        "coordinates": [
          14.0275476,
          67.0333558
        ]
      },
      "id": "way/327747363"
    },
    {
      "type": "Feature",
      "properties": {
        "@id": "way/327957895",
        "amenity": "community_centre",
        "building": "civic",
        "ref:bygningsnr": "188670857",
        "@geometry": "center"
      },
      "geometry": {
        "type": "Point",
        "coordinates": [
          14.0583477,
          67.0744686
        ]
      },
      "id": "way/327957895"
    },
    {
      "type": "Feature",
      "properties": {
        "@id": "way/330228344",
        "amenity": "community_centre",
        "building": "civic",
        "name": "Ekko",
        "ref:bygningsnr": "168834624",
        "@geometry": "center"
      },
      "geometry": {
        "type": "Point",
        "coordinates": [
          6.798296,
          58.095379
        ]
      },
      "id": "way/330228344"
    },
    {
      "type": "Feature",
      "properties": {
        "@id": "way/335016299",
        "amenity": "community_centre",
        "building": "civic",
        "ref:bygningsnr": "11189512",
        "@geometry": "center"
      },
      "geometry": {
        "type": "Point",
        "coordinates": [
          14.3210415,
          67.0679993
        ]
      },
      "id": "way/335016299"
    },
    {
      "type": "Feature",
      "properties": {
        "@id": "way/337584151",
        "amenity": "community_centre",
        "building": "civic",
        "ref:bygningsnr": "188665187",
        "@geometry": "center"
      },
      "geometry": {
        "type": "Point",
        "coordinates": [
          13.9579468,
          67.0356389
        ]
      },
      "id": "way/337584151"
    },
    {
      "type": "Feature",
      "properties": {
        "@id": "way/337861537",
        "amenity": "community_centre",
        "name": "Øygarden kulturhus",
        "building": "sports_centre",
        "ref:bygningsnr": "176083700",
        "@geometry": "center"
      },
      "geometry": {
        "type": "Point",
        "coordinates": [
          4.9035324,
          60.516331
        ]
      },
      "id": "way/337861537"
    },
    {
      "type": "Feature",
      "properties": {
        "@id": "way/338793790",
        "amenity": "community_centre",
        "building": "shed",
        "ref:bygningsnr": "188659942",
        "@geometry": "center"
      },
      "geometry": {
        "type": "Point",
        "coordinates": [
          13.8543515,
          67.0745725
        ]
      },
      "id": "way/338793790"
    },
    {
      "type": "Feature",
      "properties": {
        "@id": "way/338793919",
        "amenity": "community_centre",
        "building": "civic",
        "name": "Ungdomshus",
        "ref:bygningsnr": "188656005",
        "@geometry": "center"
      },
      "geometry": {
        "type": "Point",
        "coordinates": [
          13.7769913,
          67.0592445
        ]
      },
      "id": "way/338793919"
    },
    {
      "type": "Feature",
      "properties": {
        "@id": "way/339736377",
        "amenity": "community_centre",
        "building": "civic",
        "ref:bygningsnr": "188676480",
        "@geometry": "center"
      },
      "geometry": {
        "type": "Point",
        "coordinates": [
          14.0052018,
          67.1558912
        ]
      },
      "id": "way/339736377"
    },
    {
      "type": "Feature",
      "properties": {
        "@id": "way/341189537",
        "amenity": "community_centre",
        "building": "civic",
        "name": "Nordlys Grendehus",
        "ref:bygningsnr": "188678831",
        "@geometry": "center"
      },
      "geometry": {
        "type": "Point",
        "coordinates": [
          13.9695308,
          67.1409493
        ]
      },
      "id": "way/341189537"
    },
    {
      "type": "Feature",
      "properties": {
        "@id": "way/360313652",
        "amenity": "community_centre",
        "building": "civic",
        "ref:bygningsnr": "188673368",
        "@geometry": "center"
      },
      "geometry": {
        "type": "Point",
        "coordinates": [
          14.0497822,
          67.1176497
        ]
      },
      "id": "way/360313652"
    },
    {
      "type": "Feature",
      "properties": {
        "@id": "way/361009827",
        "amenity": "community_centre",
        "building": "civic",
        "ref:bygningsnr": "188686966",
        "@geometry": "center"
      },
      "geometry": {
        "type": "Point",
        "coordinates": [
          14.1485295,
          67.1236365
        ]
      },
      "id": "way/361009827"
    },
    {
      "type": "Feature",
      "properties": {
        "@id": "way/361405188",
        "amenity": "community_centre",
        "building": "civic",
        "ref:bygningsnr": "188652212",
        "@geometry": "center"
      },
      "geometry": {
        "type": "Point",
        "coordinates": [
          14.2497718,
          67.1862095
        ]
      },
      "id": "way/361405188"
    },
    {
      "type": "Feature",
      "properties": {
        "@id": "way/361722525",
        "amenity": "community_centre",
        "building": "civic",
        "ref:bygningsnr": "188687377",
        "@geometry": "center"
      },
      "geometry": {
        "type": "Point",
        "coordinates": [
          14.2279548,
          67.1113272
        ]
      },
      "id": "way/361722525"
    },
    {
      "type": "Feature",
      "properties": {
        "@id": "way/362032970",
        "amenity": "community_centre",
        "building": "civic",
        "ref:bygningsnr": "188686168",
        "@geometry": "center"
      },
      "geometry": {
        "type": "Point",
        "coordinates": [
          14.2110137,
          67.0469997
        ]
      },
      "id": "way/362032970"
    },
    {
      "type": "Feature",
      "properties": {
        "@id": "way/364581905",
        "alt_name": "Lokalet",
        "amenity": "community_centre",
        "building": "civic",
        "name": "Kjennhaug",
        "ref:bygningsnr": "193551521",
        "@geometry": "center"
      },
      "geometry": {
        "type": "Point",
        "coordinates": [
          9.0539575,
          58.5912623
        ]
      },
      "id": "way/364581905"
    },
    {
      "type": "Feature",
      "properties": {
        "@id": "way/365006026",
        "amenity": "community_centre",
        "name": "Berlevåg samfunnshus",
        "building": "civic",
        "ref:bygningsnr": "192950201",
        "@geometry": "center"
      },
      "geometry": {
        "type": "Point",
        "coordinates": [
          29.087614,
          70.8560805
        ]
      },
      "id": "way/365006026"
    },
    {
      "type": "Feature",
      "properties": {
        "@id": "way/381319401",
        "amenity": "community_centre",
        "building": "civic",
        "name": "Grimshalli",
        "ref:bygningsnr": "174936463",
        "@geometry": "center"
      },
      "geometry": {
        "type": "Point",
        "coordinates": [
          6.5172646,
          60.6677725
        ]
      },
      "id": "way/381319401"
    },
    {
      "type": "Feature",
      "properties": {
        "@id": "way/381737803",
        "alt_name": "Spjeldshuset",
        "amenity": "community_centre",
        "building": "civic",
        "name": "Spjeld Grendahus",
        "old_name": "Spjeld Bedehus",
        "ref:bygningsnr": "175624171",
        "@geometry": "center"
      },
      "geometry": {
        "type": "Point",
        "coordinates": [
          5.0403393,
          60.3908715
        ]
      },
      "id": "way/381737803"
    },
    {
      "type": "Feature",
      "properties": {
        "@id": "way/381855585",
        "amenity": "community_centre",
        "building": "civic",
        "name": "Fjell grendahus",
        "ref:bygningsnr": "175583300",
        "@geometry": "center"
      },
      "geometry": {
        "type": "Point",
        "coordinates": [
          5.0718556,
          60.3289905
        ]
      },
      "id": "way/381855585"
    },
    {
      "type": "Feature",
      "properties": {
        "@id": "way/382038550",
        "amenity": "community_centre",
        "name": "Landro samfunnshus",
        "building": "civic",
        "ref:bygningsnr": "175604596",
        "@geometry": "center"
      },
      "geometry": {
        "type": "Point",
        "coordinates": [
          4.9667865,
          60.428663
        ]
      },
      "id": "way/382038550"
    },
    {
      "type": "Feature",
      "properties": {
        "@id": "way/386346361",
        "amenity": "community_centre",
        "building": "civic",
        "ref:bygningsnr": "188723411",
        "@geometry": "center"
      },
      "geometry": {
        "type": "Point",
        "coordinates": [
          14.5577831,
          67.0262466
        ]
      },
      "id": "way/386346361"
    },
    {
      "type": "Feature",
      "properties": {
        "@id": "way/389105388",
        "amenity": "community_centre",
        "@geometry": "center"
      },
      "geometry": {
        "type": "Point",
        "coordinates": [
          8.5863593,
          59.8796542
        ]
      },
      "id": "way/389105388"
    },
    {
      "type": "Feature",
      "properties": {
        "@id": "way/390252044",
        "amenity": "community_centre",
        "building": "civic",
        "ref:bygningsnr": "188720773",
        "@geometry": "center"
      },
      "geometry": {
        "type": "Point",
        "coordinates": [
          14.4281185,
          67.0905365
        ]
      },
      "id": "way/390252044"
    },
    {
      "type": "Feature",
      "properties": {
        "@id": "way/390828675",
        "amenity": "community_centre",
        "building": "civic",
        "ref:bygningsnr": "188727131",
        "@geometry": "center"
      },
      "geometry": {
        "type": "Point",
        "coordinates": [
          14.5488299,
          67.0730382
        ]
      },
      "id": "way/390828675"
    },
    {
      "type": "Feature",
      "properties": {
        "@id": "way/392453852",
        "amenity": "community_centre",
        "building": "civic",
        "ref:bygningsnr": "188722296",
        "@geometry": "center"
      },
      "geometry": {
        "type": "Point",
        "coordinates": [
          14.6588871,
          66.8778916
        ]
      },
      "id": "way/392453852"
    },
    {
      "type": "Feature",
      "properties": {
        "@id": "way/394106662",
        "amenity": "community_centre",
        "building": "civic",
        "name": "Bronli IL forsamlingshus",
        "ref:bygningsnr": "188721257",
        "@geometry": "center"
      },
      "geometry": {
        "type": "Point",
        "coordinates": [
          14.6042267,
          66.7866092
        ]
      },
      "id": "way/394106662"
    },
    {
      "type": "Feature",
      "properties": {
        "@id": "way/400146576",
        "amenity": "community_centre",
        "building": "civic",
        "ref:bygningsnr": "188732771",
        "@geometry": "center"
      },
      "geometry": {
        "type": "Point",
        "coordinates": [
          14.7991439,
          66.9783042
        ]
      },
      "id": "way/400146576"
    },
    {
      "type": "Feature",
      "properties": {
        "@id": "way/403499979",
        "amenity": "community_centre",
        "building": "yes",
        "contact:phone": "+47 468 23 500",
        "name": "Fellesskapet Aktivitetssenter",
        "ref:bygningsnr": "147336764",
        "website": "https://www.io.kommune.no/",
        "@geometry": "center"
      },
      "geometry": {
        "type": "Point",
        "coordinates": [
          11.1623459,
          59.5862041
        ]
      },
      "id": "way/403499979"
    },
    {
      "type": "Feature",
      "properties": {
        "@id": "way/405071744",
        "amenity": "community_centre",
        "building": "office",
        "ref:bygningsnr": "186397460",
        "@geometry": "center"
      },
      "geometry": {
        "type": "Point",
        "coordinates": [
          13.592881,
          64.46404
        ]
      },
      "id": "way/405071744"
    },
    {
      "type": "Feature",
      "properties": {
        "@id": "way/423209185",
        "amenity": "community_centre",
        "building": "civic",
        "ref:bygningsnr": "183367005",
        "@geometry": "center"
      },
      "geometry": {
        "type": "Point",
        "coordinates": [
          8.6574395,
          63.8647911
        ]
      },
      "id": "way/423209185"
    },
    {
      "type": "Feature",
      "properties": {
        "@id": "way/430871138",
        "amenity": "social_centre",
        "name": "Kragerø Røde Kors",
        "building": "barn",
        "ref:bygningsnr": "165354729",
        "@geometry": "center"
      },
      "geometry": {
        "type": "Point",
        "coordinates": [
          9.3964937,
          58.8695103
        ]
      },
      "id": "way/430871138"
    },
    {
      "type": "Feature",
      "properties": {
        "@id": "way/445390884",
        "ref:bygningsnr": "8703310",
        "amenity": "community_centre",
        "building": "civic",
        "name": "Risørhuset kulturhus",
        "@geometry": "center"
      },
      "geometry": {
        "type": "Point",
        "coordinates": [
          9.229061,
          58.719391
        ]
      },
      "id": "way/445390884"
    },
    {
      "type": "Feature",
      "properties": {
        "@id": "way/462070206",
        "amenity": "community_centre",
        "building": "civic",
        "name": "Ungdomshuset Dalheim",
        "opening_hours:signed": "no",
        "ref:bygningsnr": "12494157",
        "@geometry": "center"
      },
      "geometry": {
        "type": "Point",
        "coordinates": [
          5.2296784,
          60.6826829
        ]
      },
      "id": "way/462070206"
    },
    {
      "type": "Feature",
      "properties": {
        "@id": "way/475732012",
        "website": "https://www.facebook.com/sokndalidrettshall/",
        "ref:bygningsnr": "9187944",
        "name": "Sokndalshallen",
        "building": "sports_centre",
        "amenity": "community_centre",
        "@geometry": "center"
      },
      "geometry": {
        "type": "Point",
        "coordinates": [
          6.2920645,
          58.3463766
        ]
      },
      "id": "way/475732012"
    },
    {
      "type": "Feature",
      "properties": {
        "@id": "way/480888521",
        "amenity": "community_centre",
        "building": "civic",
        "name": "Førdehuset",
        "operator": "Førde kommune",
        "ref:bygningsnr": "13141525",
        "@geometry": "center"
      },
      "geometry": {
        "type": "Point",
        "coordinates": [
          5.8669365,
          61.453834
        ]
      },
      "id": "way/480888521"
    },
    {
      "type": "Feature",
      "properties": {
        "@id": "way/509323875",
        "ref:bygningsnr": "15275715",
        "building": "civic",
        "name": "Grendehuset",
        "amenity": "community_centre",
        "@geometry": "center"
      },
      "geometry": {
        "type": "Point",
        "coordinates": [
          11.2060965,
          60.2451905
        ]
      },
      "id": "way/509323875"
    },
    {
      "type": "Feature",
      "properties": {
        "@id": "way/548431436",
        "amenity": "community_centre",
        "building": "commercial",
        "name": "Raknestunet",
        "operator": "Nordhordland Indremisjon",
        "operator:type": "religious",
        "ref:bygningsnr": "9845372",
        "religion": "christian",
        "website": "https://www.raknestunet.no/",
        "@geometry": "center"
      },
      "geometry": {
        "type": "Point",
        "coordinates": [
          5.423181,
          60.5551175
        ]
      },
      "id": "way/548431436"
    },
    {
      "type": "Feature",
      "properties": {
        "@id": "way/553065986",
        "amenity": "community_centre",
        "building": "civic",
        "ref:bygningsnr": "11801668",
        "@geometry": "center"
      },
      "geometry": {
        "type": "Point",
        "coordinates": [
          5.189571,
          59.2609953
        ]
      },
      "id": "way/553065986"
    },
    {
      "type": "Feature",
      "properties": {
        "@id": "way/557074573",
        "amenity": "community_centre",
        "building": "civic",
        "name": "Bygdahuset Vonheim",
        "operator": "Sylte og Malme ungdomslag",
        "ref:bygningsnr": "15647442",
        "@geometry": "center"
      },
      "geometry": {
        "type": "Point",
        "coordinates": [
          7.23923,
          62.815911
        ]
      },
      "id": "way/557074573"
    },
    {
      "type": "Feature",
      "properties": {
        "@id": "way/564633506",
        "amenity": "community_centre",
        "building": "civic",
        "ref:bygningsnr": "188535453",
        "@geometry": "center"
      },
      "geometry": {
        "type": "Point",
        "coordinates": [
          13.4240195,
          66.6896292
        ]
      },
      "id": "way/564633506"
    },
    {
      "type": "Feature",
      "properties": {
        "@id": "way/569648089",
        "amenity": "community_centre",
        "building": "civic",
        "ref:bygningsnr": "188524850",
        "@geometry": "center"
      },
      "geometry": {
        "type": "Point",
        "coordinates": [
          13.29136,
          66.6250275
        ]
      },
      "id": "way/569648089"
    },
    {
      "type": "Feature",
      "properties": {
        "@id": "way/573469494",
        "amenity": "community_centre",
        "building": "civic",
        "ref:bygningsnr": "188522939",
        "@geometry": "center"
      },
      "geometry": {
        "type": "Point",
        "coordinates": [
          13.312725,
          66.506346
        ]
      },
      "id": "way/573469494"
    },
    {
      "type": "Feature",
      "properties": {
        "@id": "way/577614018",
        "amenity": "community_centre",
        "name": "Vossestrand Sambygg",
        "building": "yes",
        "building:levels": "3",
        "ref:bygningsnr": "9732659",
        "@geometry": "center"
      },
      "geometry": {
        "type": "Point",
        "coordinates": [
          6.5094357,
          60.7925632
        ]
      },
      "id": "way/577614018"
    },
    {
      "type": "Feature",
      "properties": {
        "@id": "way/578365387",
        "amenity": "community_centre",
        "building": "civic",
        "ref:bygningsnr": "188519180",
        "@geometry": "center"
      },
      "geometry": {
        "type": "Point",
        "coordinates": [
          13.2318928,
          66.467844
        ]
      },
      "id": "way/578365387"
    },
    {
      "type": "Feature",
      "properties": {
        "@id": "way/578395742",
        "amenity": "community_centre",
        "building": "civic",
        "ref:bygningsnr": "188465293",
        "@geometry": "center"
      },
      "geometry": {
        "type": "Point",
        "coordinates": [
          13.1713783,
          66.4668444
        ]
      },
      "id": "way/578395742"
    },
    {
      "type": "Feature",
      "properties": {
        "@id": "way/578812518",
        "amenity": "community_centre",
        "building": "civic",
        "ref:bygningsnr": "188468284",
        "@geometry": "center"
      },
      "geometry": {
        "type": "Point",
        "coordinates": [
          13.0914788,
          66.5053446
        ]
      },
      "id": "way/578812518"
    },
    {
      "type": "Feature",
      "properties": {
        "@id": "way/579506068",
        "amenity": "community_centre",
        "building": "civic",
        "name": "Regnbuen",
        "ref:bygningsnr": "188513581",
        "@geometry": "center"
      },
      "geometry": {
        "type": "Point",
        "coordinates": [
          13.0004792,
          66.56784
        ]
      },
      "id": "way/579506068"
    },
    {
      "type": "Feature",
      "properties": {
        "@id": "way/580772060",
        "amenity": "community_centre",
        "building": "civic",
        "ref:bygningsnr": "188515754",
        "@geometry": "center"
      },
      "geometry": {
        "type": "Point",
        "coordinates": [
          13.0672454,
          66.6572888
        ]
      },
      "id": "way/580772060"
    },
    {
      "type": "Feature",
      "properties": {
        "@id": "way/581196943",
        "amenity": "community_centre",
        "building": "civic",
        "ref:bygningsnr": "188515185",
        "@geometry": "center"
      },
      "geometry": {
        "type": "Point",
        "coordinates": [
          12.933903,
          66.586842
        ]
      },
      "id": "way/581196943"
    },
    {
      "type": "Feature",
      "properties": {
        "@id": "way/581516059",
        "amenity": "community_centre",
        "building": "civic",
        "ref:bygningsnr": "188513042",
        "@geometry": "center"
      },
      "geometry": {
        "type": "Point",
        "coordinates": [
          12.8528143,
          66.5467259
        ]
      },
      "id": "way/581516059"
    },
    {
      "type": "Feature",
      "properties": {
        "@id": "way/581855320",
        "ref:bygningsnr": "188449484",
        "amenity": "community_centre",
        "building": "civic",
        "@geometry": "center"
      },
      "geometry": {
        "type": "Point",
        "coordinates": [
          12.656883,
          66.5717305
        ]
      },
      "id": "way/581855320"
    },
    {
      "type": "Feature",
      "properties": {
        "@id": "way/581855349",
        "amenity": "community_centre",
        "building": "civic",
        "ref:bygningsnr": "188449352",
        "@geometry": "center"
      },
      "geometry": {
        "type": "Point",
        "coordinates": [
          12.6464535,
          66.5692693
        ]
      },
      "id": "way/581855349"
    },
    {
      "type": "Feature",
      "properties": {
        "@id": "way/582600007",
        "amenity": "community_centre",
        "building": "house",
        "building:levels": "2",
        "name": "Solhøid",
        "ref:bygningsnr": "146872050",
        "@geometry": "center"
      },
      "geometry": {
        "type": "Point",
        "coordinates": [
          11.022944,
          59.2437833
        ]
      },
      "id": "way/582600007"
    },
    {
      "type": "Feature",
      "properties": {
        "@id": "way/582841758",
        "amenity": "community_centre",
        "building": "civic",
        "ref:bygningsnr": "188468748",
        "@geometry": "center"
      },
      "geometry": {
        "type": "Point",
        "coordinates": [
          13.1118108,
          66.4020078
        ]
      },
      "id": "way/582841758"
    },
    {
      "type": "Feature",
      "properties": {
        "@id": "way/583052773",
        "amenity": "community_centre",
        "building": "religious",
        "name": "Tveit bygdahus",
        "ref:bygningsnr": "9131205",
        "@geometry": "center"
      },
      "geometry": {
        "type": "Point",
        "coordinates": [
          5.910129,
          58.822162
        ]
      },
      "id": "way/583052773"
    },
    {
      "type": "Feature",
      "properties": {
        "@id": "way/583456130",
        "amenity": "community_centre",
        "building": "civic",
        "ref:bygningsnr": "188455565",
        "@geometry": "center"
      },
      "geometry": {
        "type": "Point",
        "coordinates": [
          13.0193547,
          66.3371215
        ]
      },
      "id": "way/583456130"
    },
    {
      "type": "Feature",
      "properties": {
        "@id": "way/583470221",
        "ref:bygningsnr": "188459927",
        "amenity": "community_centre",
        "building": "civic",
        "@geometry": "center"
      },
      "geometry": {
        "type": "Point",
        "coordinates": [
          13.1040948,
          66.3229322
        ]
      },
      "id": "way/583470221"
    },
    {
      "type": "Feature",
      "properties": {
        "@id": "way/587592612",
        "amenity": "community_centre",
        "building": "civic",
        "ref:bygningsnr": "188451500",
        "@geometry": "center"
      },
      "geometry": {
        "type": "Point",
        "coordinates": [
          12.8644305,
          66.398404
        ]
      },
      "id": "way/587592612"
    },
    {
      "type": "Feature",
      "properties": {
        "@id": "way/587592633",
        "amenity": "community_centre",
        "building": "civic",
        "ref:bygningsnr": "188451551",
        "@geometry": "center"
      },
      "geometry": {
        "type": "Point",
        "coordinates": [
          12.8691149,
          66.3981877
        ]
      },
      "id": "way/587592633"
    },
    {
      "type": "Feature",
      "properties": {
        "@id": "way/591190266",
        "amenity": "community_centre",
        "name": "Søre Osen Samfunnshus",
        "building": "civic",
        "ref:bygningsnr": "154181350",
        "@geometry": "center"
      },
      "geometry": {
        "type": "Point",
        "coordinates": [
          11.987224,
          61.1069685
        ]
      },
      "id": "way/591190266"
    },
    {
      "type": "Feature",
      "properties": {
        "@id": "way/591193370",
        "amenity": "community_centre",
        "building": "yes",
        "@geometry": "center"
      },
      "geometry": {
        "type": "Point",
        "coordinates": [
          12.0937497,
          61.1315134
        ]
      },
      "id": "way/591193370"
    },
    {
      "type": "Feature",
      "properties": {
        "@id": "way/605367083",
        "amenity": "community_centre",
        "building": "religious",
        "name": "Skiptvet misjonshus",
        "ref:bygningsnr": "147592671",
        "@geometry": "center"
      },
      "geometry": {
        "type": "Point",
        "coordinates": [
          11.1713561,
          59.4698694
        ]
      },
      "id": "way/605367083"
    },
    {
      "type": "Feature",
      "properties": {
        "@id": "way/605859301",
        "amenity": "community_centre",
        "building": "civic",
        "name": "Eikvang",
        "ref:bygningsnr": "162845462",
        "@geometry": "center"
      },
      "geometry": {
        "type": "Point",
        "coordinates": [
          9.9137307,
          59.1106725
        ]
      },
      "id": "way/605859301"
    },
    {
      "type": "Feature",
      "properties": {
        "@id": "way/608109670",
        "amenity": "community_centre",
        "building": "religious",
        "name": "KUF-huset",
        "ref:bygningsnr": "163021080",
        "@geometry": "center"
      },
      "geometry": {
        "type": "Point",
        "coordinates": [
          10.0478264,
          59.0562543
        ]
      },
      "id": "way/608109670"
    },
    {
      "type": "Feature",
      "properties": {
        "@id": "way/620497785",
        "amenity": "community_centre",
        "building": "civic",
        "name": "Søfteland Ungdomshus Urheim",
        "ref:bygningsnr": "12539266",
        "@geometry": "center"
      },
      "geometry": {
        "type": "Point",
        "coordinates": [
          5.4471587,
          60.2381401
        ]
      },
      "id": "way/620497785"
    },
    {
      "type": "Feature",
      "properties": {
        "@id": "way/624107865",
        "amenity": "community_centre",
        "building": "yes",
        "name": "Nore Neset Idrettslag Klubbhus",
        "ref:bygningsnr": "300550656",
        "@geometry": "center"
      },
      "geometry": {
        "type": "Point",
        "coordinates": [
          5.4145895,
          60.1788437
        ]
      },
      "id": "way/624107865"
    },
    {
      "type": "Feature",
      "properties": {
        "@id": "way/639634707",
        "amenity": "community_centre",
        "building": "civic",
        "name": "Skogstjerna",
        "operator": "Markane Ungdomslag",
        "ref:bygningsnr": "178571095",
        "website": "https://www.facebook.com/MarkaneUngdomslag/",
        "@geometry": "center"
      },
      "geometry": {
        "type": "Point",
        "coordinates": [
          6.5852176,
          61.9111202
        ]
      },
      "id": "way/639634707"
    },
    {
      "type": "Feature",
      "properties": {
        "@id": "way/640632571",
        "amenity": "community_centre",
        "alt_name": "SAGA",
        "architect": "Kvernaas Arkitekter AS",
        "building": "church",
        "capacity": "425",
        "deanery": "Søndre Follo",
        "denomination": "lutheran",
        "diocese": "Borg",
        "name": "Son kulturkirke",
        "operator": "Vestby kirkelige fellesråd",
        "parish": "Såner",
        "ref:bygningsnr": "300353193",
        "religion": "christian",
        "start_date": "2014",
        "toilets": "yes",
        "@geometry": "center"
      },
      "geometry": {
        "type": "Point",
        "coordinates": [
          10.684825,
          59.5158385
        ]
      },
      "id": "way/640632571"
    },
    {
      "type": "Feature",
      "properties": {
        "@id": "way/647205211",
        "amenity": "community_centre",
        "building": "civic",
        "ref:bygningsnr": "152417713",
        "@geometry": "center"
      },
      "geometry": {
        "type": "Point",
        "coordinates": [
          10.8708561,
          60.7940404
        ]
      },
      "id": "way/647205211"
    },
    {
      "type": "Feature",
      "properties": {
        "@id": "way/647205675",
        "amenity": "community_centre",
        "building": "civic",
        "ref:bygningsnr": "152415109",
        "@geometry": "center"
      },
      "geometry": {
        "type": "Point",
        "coordinates": [
          10.867359,
          60.7913485
        ]
      },
      "id": "way/647205675"
    },
    {
      "type": "Feature",
      "properties": {
        "@id": "way/647205828",
        "amenity": "community_centre",
        "@geometry": "center"
      },
      "geometry": {
        "type": "Point",
        "coordinates": [
          10.8673451,
          60.7914562
        ]
      },
      "id": "way/647205828"
    },
    {
      "type": "Feature",
      "properties": {
        "@id": "way/647206978",
        "amenity": "community_centre",
        "@geometry": "center"
      },
      "geometry": {
        "type": "Point",
        "coordinates": [
          10.8708565,
          60.7939115
        ]
      },
      "id": "way/647206978"
    },
    {
      "type": "Feature",
      "properties": {
        "@id": "way/649275213",
        "amenity": "community_centre",
        "building": "civic",
        "ref:bygningsnr": "152500505",
        "@geometry": "center"
      },
      "geometry": {
        "type": "Point",
        "coordinates": [
          10.9652939,
          60.7517687
        ]
      },
      "id": "way/649275213"
    },
    {
      "type": "Feature",
      "properties": {
        "@id": "way/651077465",
        "amenity": "community_centre",
        "building": "religious",
        "name": "Jølstad grendehus",
        "ref:bygningsnr": "152348517",
        "@geometry": "center"
      },
      "geometry": {
        "type": "Point",
        "coordinates": [
          10.7817786,
          60.8417423
        ]
      },
      "id": "way/651077465"
    },
    {
      "type": "Feature",
      "properties": {
        "@id": "way/654725120",
        "name": "Nes bo- og behandlingssenter",
        "amenity": "community_centre",
        "landuse": "residential",
        "@geometry": "center"
      },
      "geometry": {
        "type": "Point",
        "coordinates": [
          10.4559126,
          59.2531428
        ]
      },
      "id": "way/654725120"
    },
    {
      "type": "Feature",
      "properties": {
        "@id": "way/659187530",
        "amenity": "community_centre",
        "building": "civic",
        "name": "Sagatun",
        "ref:bygningsnr": "13512612",
        "@geometry": "center"
      },
      "geometry": {
        "type": "Point",
        "coordinates": [
          7.0766552,
          62.8445358
        ]
      },
      "id": "way/659187530"
    },
    {
      "type": "Feature",
      "properties": {
        "@id": "way/667557361",
        "amenity": "community_centre",
        "building": "sports_centre",
        "building:levels": "2",
        "name": "Bryggeslottet",
        "ref:bygningsnr": "20662212",
        "website": "https://www.modalen.kommune.no/innhald/natur-kultur-og-fritid/bryggjeslottet/",
        "@geometry": "center"
      },
      "geometry": {
        "type": "Point",
        "coordinates": [
          5.80324,
          60.8135865
        ]
      },
      "id": "way/667557361"
    },
    {
      "type": "Feature",
      "properties": {
        "@id": "way/675425992",
        "amenity": "community_centre",
        "name": "Sydskogen Grendehus",
        "building": "civic",
        "ref:bygningsnr": "8060843",
        "@geometry": "center"
      },
      "geometry": {
        "type": "Point",
        "coordinates": [
          10.4534204,
          59.7614329
        ]
      },
      "id": "way/675425992"
    },
    {
      "type": "Feature",
      "properties": {
        "@id": "way/681878952",
        "wheelchair": "yes",
        "toilets:wheelchair": "yes",
        "toilets": "yes",
        "roof:material": "wood",
        "roof:colour": "brown",
        "amenity": "community_centre",
        "building": "religious",
        "building:colour": "brown",
        "building:levels": "1",
        "building:material": "wood",
        "community_centre": "parish_hall",
        "name": "Røbekk kirkesenter",
        "ref:bygningsnr": "300572809",
        "@geometry": "center"
      },
      "geometry": {
        "type": "Point",
        "coordinates": [
          7.2928255,
          62.7526415
        ]
      },
      "id": "way/681878952"
    },
    {
      "type": "Feature",
      "properties": {
        "@id": "way/685112962",
        "name": "Vikedal Bygdahus",
        "ref:bygningsnr": "17956434",
        "building:levels": "1",
        "amenity": "community_centre",
        "building": "civic",
        "@geometry": "center"
      },
      "geometry": {
        "type": "Point",
        "coordinates": [
          5.902528,
          59.4966792
        ]
      },
      "id": "way/685112962"
    },
    {
      "type": "Feature",
      "properties": {
        "@id": "way/687917805",
        "amenity": "community_centre",
        "building": "hotel",
        "community_centre": "religious",
        "name": "Sjøglimt",
        "ref:bygningsnr": "147090242",
        "religion": "christian",
        "@geometry": "center"
      },
      "geometry": {
        "type": "Point",
        "coordinates": [
          11.6277973,
          59.5031679
        ]
      },
      "id": "way/687917805"
    },
    {
      "type": "Feature",
      "properties": {
        "@id": "way/695985672",
        "amenity": "community_centre",
        "building": "civic",
        "name": "Skogtun",
        "ref:bygningsnr": "183841750",
        "@geometry": "center"
      },
      "geometry": {
        "type": "Point",
        "coordinates": [
          9.8777098,
          62.6562196
        ]
      },
      "id": "way/695985672"
    },
    {
      "type": "Feature",
      "properties": {
        "@id": "way/700717666",
        "ref:bygningsnr": "8666717",
        "amenity": "community_centre",
        "building": "civic",
        "name": "Åsgrend Grendehus",
        "@geometry": "center"
      },
      "geometry": {
        "type": "Point",
        "coordinates": [
          8.5727706,
          59.4437195
        ]
      },
      "id": "way/700717666"
    },
    {
      "type": "Feature",
      "properties": {
        "@id": "way/707451808",
        "amenity": "community_centre",
        "building": "school",
        "name": "Skulestova",
        "ref:bygningsnr": "174694982",
        "@geometry": "center"
      },
      "geometry": {
        "type": "Point",
        "coordinates": [
          6.7793861,
          60.440754
        ]
      },
      "id": "way/707451808"
    },
    {
      "type": "Feature",
      "properties": {
        "@id": "way/719015315",
        "amenity": "community_centre",
        "building": "civic",
        "name": "Molland Forsamlingshus",
        "ref:bygningsnr": "166755859",
        "@geometry": "center"
      },
      "geometry": {
        "type": "Point",
        "coordinates": [
          8.5431615,
          58.3228005
        ]
      },
      "id": "way/719015315"
    },
    {
      "type": "Feature",
      "properties": {
        "@id": "way/741977202",
        "amenity": "community_centre",
        "building": "yes",
        "@geometry": "center"
      },
      "geometry": {
        "type": "Point",
        "coordinates": [
          14.2137199,
          78.0648121
        ]
      },
      "id": "way/741977202"
    },
    {
      "type": "Feature",
      "properties": {
        "@id": "way/745225318",
        "amenity": "community_centre",
        "name": "Hemne Fritidsklubbq",
        "building": "commercial",
        "ref:bygningsnr": "183121294",
        "@geometry": "center"
      },
      "geometry": {
        "type": "Point",
        "coordinates": [
          9.0838092,
          63.2896846
        ]
      },
      "id": "way/745225318"
    },
    {
      "type": "Feature",
      "properties": {
        "@id": "way/782796372",
        "amenity": "community_centre",
        "building": "civic",
        "ref:bygningsnr": "189730187",
        "@geometry": "center"
      },
      "geometry": {
        "type": "Point",
        "coordinates": [
          14.845161,
          68.2332855
        ]
      },
      "id": "way/782796372"
    },
    {
      "type": "Feature",
      "properties": {
        "@id": "way/785192337",
        "amenity": "community_centre",
        "name": "Nordlia Grendehus",
        "@geometry": "center"
      },
      "geometry": {
        "type": "Point",
        "coordinates": [
          10.7495954,
          60.7472337
        ]
      },
      "id": "way/785192337"
    },
    {
      "type": "Feature",
      "properties": {
        "@id": "way/801007840",
        "amenity": "community_centre",
        "building": "civic",
        "name": "Skulehuset",
        "ref:bygningsnr": "174760527",
        "@geometry": "center"
      },
      "geometry": {
        "type": "Point",
        "coordinates": [
          6.8564592,
          60.4675725
        ]
      },
      "id": "way/801007840"
    },
    {
      "type": "Feature",
      "properties": {
        "@id": "way/801403874",
        "amenity": "community_centre",
        "name": "Grannaheimen",
        "ref:bygningsnr": "174694532",
        "building": "civic",
        "layer": "1",
        "@geometry": "center"
      },
      "geometry": {
        "type": "Point",
        "coordinates": [
          6.7857183,
          60.443646
        ]
      },
      "id": "way/801403874"
    },
    {
      "type": "Feature",
      "properties": {
        "@id": "way/810300832",
        "amenity": "community_centre",
        "building": "civic",
        "ref:bygningsnr": "9694838",
        "@geometry": "center"
      },
      "geometry": {
        "type": "Point",
        "coordinates": [
          6.6417388,
          60.3742903
        ]
      },
      "id": "way/810300832"
    },
    {
      "type": "Feature",
      "properties": {
        "@id": "way/816282618",
        "amenity": "community_centre",
        "name": "Sekse Grendahus",
        "building": "civic",
        "ref:bygningsnr": "9691901",
        "@geometry": "center"
      },
      "geometry": {
        "type": "Point",
        "coordinates": [
          6.6238485,
          60.2599903
        ]
      },
      "id": "way/816282618"
    },
    {
      "type": "Feature",
      "properties": {
        "@id": "way/816682690",
        "amenity": "community_centre",
        "name": "Ranheim Menighetssenter",
        "@geometry": "center"
      },
      "geometry": {
        "type": "Point",
        "coordinates": [
          10.5376619,
          63.4295786
        ]
      },
      "id": "way/816682690"
    },
    {
      "type": "Feature",
      "properties": {
        "@id": "way/838296529",
        "amenity": "community_centre",
        "name": "Fredtun",
        "building": "religious",
        "ref:bygningsnr": "163901935",
        "@geometry": "center"
      },
      "geometry": {
        "type": "Point",
        "coordinates": [
          10.3943445,
          59.1171453
        ]
      },
      "id": "way/838296529"
    },
    {
      "type": "Feature",
      "properties": {
        "@id": "way/840167271",
        "air_conditioning": "yes",
        "amenity": "community_centre",
        "building": "kindergarten",
        "building:levels": "1",
        "building:levels:underground": "1",
        "name": "Samhald",
        "ref:bygningsnr": "9638962",
        "@geometry": "center"
      },
      "geometry": {
        "type": "Point",
        "coordinates": [
          5.520205,
          59.8114675
        ]
      },
      "id": "way/840167271"
    },
    {
      "type": "Feature",
      "properties": {
        "@id": "way/868814207",
        "amenity": "community_centre",
        "building": "school",
        "building:levels": "1",
        "ref:bygningsnr": "173836503",
        "@geometry": "center"
      },
      "geometry": {
        "type": "Point",
        "coordinates": [
          5.2106275,
          59.600492
        ]
      },
      "id": "way/868814207"
    },
    {
      "type": "Feature",
      "properties": {
        "@id": "way/888606328",
        "amenity": "community_centre",
        "building": "boathouse",
        "name": "Vikanes borgstove",
        "operator": "Alver kyrkjeleg fellesråd",
        "operator:type": "religious",
        "ref:bygningsnr": "176312343",
        "@geometry": "center"
      },
      "geometry": {
        "type": "Point",
        "coordinates": [
          5.585568,
          60.6984295
        ]
      },
      "id": "way/888606328"
    },
    {
      "type": "Feature",
      "properties": {
        "@id": "way/891904986",
        "amenity": "community_centre",
        "community_centre": "village_hall",
        "name": "Nyvoll Grendehus",
        "operator": "Nyvoll Grendehus og Bygdelag AL",
        "building": "civic",
        "ref:bygningsnr": "192619742",
        "@geometry": "center"
      },
      "geometry": {
        "type": "Point",
        "coordinates": [
          23.3991625,
          70.2250019
        ]
      },
      "id": "way/891904986"
    },
    {
      "type": "Feature",
      "properties": {
        "@id": "way/894520724",
        "amenity": "community_centre",
        "building": "civic",
        "name": "Jomsborg",
        "ref:bygningsnr": "194401108",
        "website": "https://www.facebook.com/Lokalet-Jomsborg-325797670843860/",
        "@geometry": "center"
      },
      "geometry": {
        "type": "Point",
        "coordinates": [
          10.238054,
          61.843323
        ]
      },
      "id": "way/894520724"
    },
    {
      "type": "Feature",
      "properties": {
        "@id": "way/902588802",
        "ref:bygningsnr": "163392488",
        "building": "retail",
        "operator:type": "government",
        "operator": "Holmestrand kommune",
        "name": "Det store gule huset",
        "email": "solveig.sunnarvik@holmestrand.kommune.no",
        "website": "https://holmestrand.kommune.no/innbyggerhjelpen/kultur-idrett-og-fritid/fritidsklubber/",
        "amenity": "community_centre",
        "@geometry": "center"
      },
      "geometry": {
        "type": "Point",
        "coordinates": [
          10.2111939,
          59.5892593
        ]
      },
      "id": "way/902588802"
    },
    {
      "type": "Feature",
      "properties": {
        "@id": "way/932353365",
        "amenity": "community_centre",
        "building": "religious",
        "community_centre": "events_venue",
        "name": "Bygdestua",
        "ref:bygningsnr": "192533961",
        "@geometry": "center"
      },
      "geometry": {
        "type": "Point",
        "coordinates": [
          22.9913798,
          70.134843
        ]
      },
      "id": "way/932353365"
    },
    {
      "type": "Feature",
      "properties": {
        "@id": "way/951760469",
        "amenity": "community_centre",
        "building": "civic",
        "name": "Jægervatnet grendehus",
        "ref:bygningsnr": "192003164",
        "@geometry": "center"
      },
      "geometry": {
        "type": "Point",
        "coordinates": [
          19.8510395,
          69.7388162
        ]
      },
      "id": "way/951760469"
    },
    {
      "type": "Feature",
      "properties": {
        "@id": "way/956426929",
        "alt_name": "Samfundet; Studentersamfundet i Trondhjem",
        "amenity": "community_centre",
        "building": "civic",
        "building:colour": "#A03033",
        "name": "Studentersamfundet",
        "name:en": "The Student Society - Samfundet",
        "ref:bygningsnr": "10473497",
        "roof:colour": "#707070",
        "website": "https://www.samfundet.no/",
        "wikidata": "Q3500918",
        "@geometry": "center"
      },
      "geometry": {
        "type": "Point",
        "coordinates": [
          10.395434,
          63.4224357
        ]
      },
      "id": "way/956426929"
    },
    {
      "type": "Feature",
      "properties": {
        "@id": "way/968272867",
        "amenity": "community_centre",
        "building": "civic",
        "email": "nesvang.grendehus@gmail.com",
        "name": "Nesvang grendehus",
        "phone": "+47 413 70 082",
        "ref:bygningsnr": "163303434",
        "website": "https://www.facebook.com/Nesvang-grendehus-1986018568148579/",
        "@geometry": "center"
      },
      "geometry": {
        "type": "Point",
        "coordinates": [
          10.3688066,
          59.676237
        ]
      },
      "id": "way/968272867"
    },
    {
      "type": "Feature",
      "properties": {
        "@id": "way/1001949641",
        "amenity": "community_centre",
        "building": "yes",
        "community_centre:for": "multigeneration",
        "name": "Grønnjord bygdehus",
        "operator": "Grønnjord bygdelag",
        "ref:bygningsnr": "191766903",
        "website": "https://www.facebook.com/Gr%C3%B8nnjord-Bygdelag-1519433205030094",
        "@geometry": "center"
      },
      "geometry": {
        "type": "Point",
        "coordinates": [
          18.3534725,
          69.4035649
        ]
      },
      "id": "way/1001949641"
    },
    {
      "type": "Feature",
      "properties": {
        "@id": "way/1011283166",
        "amenity": "community_centre",
        "building": "office",
        "ref:bygningsnr": "188531172",
        "@geometry": "center"
      },
      "geometry": {
        "type": "Point",
        "coordinates": [
          13.445418,
          66.686285
        ]
      },
      "id": "way/1011283166"
    },
    {
      "type": "Feature",
      "properties": {
        "@id": "way/1040482306",
        "opening_hours:covid19": "open",
        "building": "yes",
        "operator:type": "government",
        "amenity": "community_centre",
        "name": "Knutepunkt Fjell",
        "operator": "Drammen kommune",
        "website": "https://www.drammen.kommune.no/om-kommunen/organisasjon-administrasjon/knutepunktene/knutepunkt-fjell/",
        "@geometry": "center"
      },
      "geometry": {
        "type": "Point",
        "coordinates": [
          10.2225256,
          59.7192882
        ]
      },
      "id": "way/1040482306"
    },
    {
      "type": "Feature",
      "properties": {
        "@id": "way/1063021480",
        "amenity": "community_centre",
        "name": "Speiderparken",
        "operator": "Oppegård speidergruppe (NSF)",
        "operator:type": "private_non_profit",
        "website": "http://xn--oppegrdspeiderne-hob.no",
        "@geometry": "center"
      },
      "geometry": {
        "type": "Point",
        "coordinates": [
          10.8159715,
          59.7701017
        ]
      },
      "id": "way/1063021480"
    }
  ]
}