{
  "type": "FeatureCollection",
  "generator": "overpass-turbo",
  "copyright": "The data included in this document is from www.openstreetmap.org. The data is made available under ODbL.",
  "timestamp": "2025-09-29T00:20:33Z",
  "features": [
    {
      "type": "Feature",
      "properties": {
        "@id": "way/699336666",
        "amenity": "shower",
        "building": "yes",
        "@geometry": "center"
      },
      "geometry": {
        "type": "Point",
        "coordinates": [
          6.5015902,
          60.6314254
        ]
      },
      "id": "way/699336666"
    },
    {
      "type": "Feature",
      "properties": {
        "@id": "way/827762788",
        "amenity": "shower",
        "building": "toilets",
        "ref:bygningsnr": "300553139",
        "@geometry": "center"
      },
      "geometry": {
        "type": "Point",
        "coordinates": [
          7.2153295,
          62.7392555
        ]
      },
      "id": "way/827762788"
    },
    {
      "type": "Feature",
      "properties": {
        "@id": "node/1348169455",
        "amenity": "shower"
      },
      "geometry": {
        "type": "Point",
        "coordinates": [
          8.6151689,
          58.3346794
        ]
      },
      "id": "node/1348169455"
    },
    {
      "type": "Feature",
      "properties": {
        "@id": "node/1418918939",
        "amenity": "shower"
      },
      "geometry": {
        "type": "Point",
        "coordinates": [
          8.4036163,
          61.6248452
        ]
      },
      "id": "node/1418918939"
    },
    {
      "type": "Feature",
      "properties": {
        "@id": "node/1457124731",
        "amenity": "shower"
      },
      "geometry": {
        "type": "Point",
        "coordinates": [
          7.4505993,
          58.0209383
        ]
      },
      "id": "node/1457124731"
    },
    {
      "type": "Feature",
      "properties": {
        "@id": "node/1871141696",
        "amenity": "shower"
      },
      "geometry": {
        "type": "Point",
        "coordinates": [
          7.336551,
          60.8740278
        ]
      },
      "id": "node/1871141696"
    },
    {
      "type": "Feature",
      "properties": {
        "@id": "node/1910750152",
        "amenity": "shower",
        "fixme": "position"
      },
      "geometry": {
        "type": "Point",
        "coordinates": [
          10.4898821,
          59.8425031
        ]
      },
      "id": "node/1910750152"
    },
    {
      "type": "Feature",
      "properties": {
        "@id": "node/2995953465",
        "amenity": "shower",
        "female": "yes"
      },
      "geometry": {
        "type": "Point",
        "coordinates": [
          23.2683789,
          69.9284832
        ]
      },
      "id": "node/2995953465"
    },
    {
      "type": "Feature",
      "properties": {
        "@id": "node/2995953466",
        "amenity": "shower",
        "male": "yes"
      },
      "geometry": {
        "type": "Point",
        "coordinates": [
          23.2685854,
          69.9284151
        ]
      },
      "id": "node/2995953466"
    },
    {
      "type": "Feature",
      "properties": {
        "@id": "node/3122478607",
        "access": "yes",
        "amenity": "shower"
      },
      "geometry": {
        "type": "Point",
        "coordinates": [
          10.3813285,
          63.4325818
        ]
      },
      "id": "node/3122478607"
    },
    {
      "type": "Feature",
      "properties": {
        "@id": "node/3300516880",
        "amenity": "shower",
        "fee": "yes",
        "female": "yes",
        "male": "yes"
      },
      "geometry": {
        "type": "Point",
        "coordinates": [
          9.8574262,
          58.9660654
        ]
      },
      "id": "node/3300516880"
    },
    {
      "type": "Feature",
      "properties": {
        "@id": "node/3300516881",
        "amenity": "shower",
        "fee": "yes",
        "female": "yes",
        "male": "yes"
      },
      "geometry": {
        "type": "Point",
        "coordinates": [
          9.8548567,
          58.9673457
        ]
      },
      "id": "node/3300516881"
    },
    {
      "type": "Feature",
      "properties": {
        "@id": "node/3301114712",
        "amenity": "shower"
      },
      "geometry": {
        "type": "Point",
        "coordinates": [
          9.8752914,
          58.9864401
        ]
      },
      "id": "node/3301114712"
    },
    {
      "type": "Feature",
      "properties": {
        "@id": "node/3301122975",
        "amenity": "shower"
      },
      "geometry": {
        "type": "Point",
        "coordinates": [
          9.875841,
          58.9861319
        ]
      },
      "id": "node/3301122975"
    },
    {
      "type": "Feature",
      "properties": {
        "@id": "node/3356843256",
        "access": "key",
        "amenity": "shower",
        "fee": "yes",
        "hot_water": "yes",
        "opening_hours": "Mo-Su 06:00-24:00",
        "shower": "indoor",
        "supervised": "yes",
        "unisex": "yes",
        "wheelchair": "yes"
      },
      "geometry": {
        "type": "Point",
        "coordinates": [
          6.4363321,
          60.6568517
        ]
      },
      "id": "node/3356843256"
    },
    {
      "type": "Feature",
      "properties": {
        "@id": "node/3384141978",
        "access": "customers",
        "amenity": "shower"
      },
      "geometry": {
        "type": "Point",
        "coordinates": [
          14.2165599,
          68.2246448
        ]
      },
      "id": "node/3384141978"
    },
    {
      "type": "Feature",
      "properties": {
        "@id": "node/3607894872",
        "access": "customers",
        "amenity": "shower",
        "female": "yes",
        "male": "no"
      },
      "geometry": {
        "type": "Point",
        "coordinates": [
          29.330739,
          70.1196532
        ]
      },
      "id": "node/3607894872"
    },
    {
      "type": "Feature",
      "properties": {
        "@id": "node/3657093072",
        "amenity": "shower"
      },
      "geometry": {
        "type": "Point",
        "coordinates": [
          12.8436145,
          64.743481
        ]
      },
      "id": "node/3657093072"
    },
    {
      "type": "Feature",
      "properties": {
        "@id": "node/3658272480",
        "amenity": "shower",
        "fee": "yes",
        "hot_water": "yes",
        "location": "indoor",
        "opening_hours": "24/7",
        "unisex": "yes"
      },
      "geometry": {
        "type": "Point",
        "coordinates": [
          10.2901108,
          63.0445215
        ]
      },
      "id": "node/3658272480"
    },
    {
      "type": "Feature",
      "properties": {
        "@id": "node/3659217804",
        "access": "customers",
        "amenity": "shower",
        "fee": "yes",
        "female": "yes",
        "male": "yes"
      },
      "geometry": {
        "type": "Point",
        "coordinates": [
          22.2828709,
          70.0287409
        ]
      },
      "id": "node/3659217804"
    },
    {
      "type": "Feature",
      "properties": {
        "@id": "node/3659275801",
        "access": "customers",
        "amenity": "shower",
        "fee": "yes"
      },
      "geometry": {
        "type": "Point",
        "coordinates": [
          15.6897479,
          67.4316429
        ]
      },
      "id": "node/3659275801"
    },
    {
      "type": "Feature",
      "properties": {
        "@id": "node/3662420388",
        "amenity": "shower"
      },
      "geometry": {
        "type": "Point",
        "coordinates": [
          11.2724508,
          59.1293864
        ]
      },
      "id": "node/3662420388"
    },
    {
      "type": "Feature",
      "properties": {
        "@id": "node/3676732647",
        "amenity": "shower"
      },
      "geometry": {
        "type": "Point",
        "coordinates": [
          10.708807,
          63.4330218
        ]
      },
      "id": "node/3676732647"
    },
    {
      "type": "Feature",
      "properties": {
        "@id": "node/3676732739",
        "amenity": "shower"
      },
      "geometry": {
        "type": "Point",
        "coordinates": [
          10.7112882,
          63.4336199
        ]
      },
      "id": "node/3676732739"
    },
    {
      "type": "Feature",
      "properties": {
        "@id": "node/3698296576",
        "amenity": "shower"
      },
      "geometry": {
        "type": "Point",
        "coordinates": [
          8.0305042,
          58.147113
        ]
      },
      "id": "node/3698296576"
    },
    {
      "type": "Feature",
      "properties": {
        "@id": "node/4011377070",
        "access": "customers",
        "amenity": "shower"
      },
      "geometry": {
        "type": "Point",
        "coordinates": [
          11.5782654,
          64.1096984
        ]
      },
      "id": "node/4011377070"
    },
    {
      "type": "Feature",
      "properties": {
        "@id": "node/4213831992",
        "wheelchair": "no",
        "fee": "yes",
        "access": "yes",
        "amenity": "shower"
      },
      "geometry": {
        "type": "Point",
        "coordinates": [
          5.0717472,
          61.3475213
        ]
      },
      "id": "node/4213831992"
    },
    {
      "type": "Feature",
      "properties": {
        "@id": "node/4230609090",
        "access": "yes",
        "amenity": "shower",
        "fee": "yes"
      },
      "geometry": {
        "type": "Point",
        "coordinates": [
          11.7385334,
          65.0883063
        ]
      },
      "id": "node/4230609090"
    },
    {
      "type": "Feature",
      "properties": {
        "@id": "node/4237269857",
        "amenity": "shower",
        "operator": "Voss Camping"
      },
      "geometry": {
        "type": "Point",
        "coordinates": [
          6.4216561,
          60.6249976
        ]
      },
      "id": "node/4237269857"
    },
    {
      "type": "Feature",
      "properties": {
        "@id": "node/4258415770",
        "access": "customers",
        "amenity": "shower",
        "fee": "yes"
      },
      "geometry": {
        "type": "Point",
        "coordinates": [
          15.2360592,
          68.5314842
        ]
      },
      "id": "node/4258415770"
    },
    {
      "type": "Feature",
      "properties": {
        "@id": "node/4288705363",
        "amenity": "shower",
        "charge": "5",
        "fee": "yes",
        "operator": "Otta Camping og Motell"
      },
      "geometry": {
        "type": "Point",
        "coordinates": [
          9.5109138,
          61.7719388
        ]
      },
      "id": "node/4288705363"
    },
    {
      "type": "Feature",
      "properties": {
        "@id": "node/4300890755",
        "amenity": "shower",
        "name": "Circle K Sortland"
      },
      "geometry": {
        "type": "Point",
        "coordinates": [
          15.4152072,
          68.7015653
        ]
      },
      "id": "node/4300890755"
    },
    {
      "type": "Feature",
      "properties": {
        "@id": "node/4315928689",
        "amenity": "shower"
      },
      "geometry": {
        "type": "Point",
        "coordinates": [
          6.7184497,
          60.3742296
        ]
      },
      "id": "node/4315928689"
    },
    {
      "type": "Feature",
      "properties": {
        "@id": "node/4321162902",
        "amenity": "shower"
      },
      "geometry": {
        "type": "Point",
        "coordinates": [
          9.8749367,
          59.018727
        ]
      },
      "id": "node/4321162902"
    },
    {
      "type": "Feature",
      "properties": {
        "@id": "node/4332837717",
        "amenity": "shower"
      },
      "geometry": {
        "type": "Point",
        "coordinates": [
          10.6754727,
          59.8948688
        ]
      },
      "id": "node/4332837717"
    },
    {
      "type": "Feature",
      "properties": {
        "@id": "node/4343042392",
        "amenity": "shower",
        "name": "Circle K Kautokeino",
        "name:se": "Circle K Guovdageaidnu"
      },
      "geometry": {
        "type": "Point",
        "coordinates": [
          23.0479014,
          69.021292
        ]
      },
      "id": "node/4343042392"
    },
    {
      "type": "Feature",
      "properties": {
        "@id": "node/4348278026",
        "amenity": "shower"
      },
      "geometry": {
        "type": "Point",
        "coordinates": [
          5.5190331,
          60.8969445
        ]
      },
      "id": "node/4348278026"
    },
    {
      "type": "Feature",
      "properties": {
        "@id": "node/4426147361",
        "amenity": "shower",
        "location": "outdoor"
      },
      "geometry": {
        "type": "Point",
        "coordinates": [
          9.222575,
          58.7100052
        ]
      },
      "id": "node/4426147361"
    },
    {
      "type": "Feature",
      "properties": {
        "@id": "node/4438066379",
        "location": "indoor",
        "hot_water": "yes",
        "fee": "yes",
        "amenity": "shower"
      },
      "geometry": {
        "type": "Point",
        "coordinates": [
          9.2400558,
          58.7182428
        ]
      },
      "id": "node/4438066379"
    },
    {
      "type": "Feature",
      "properties": {
        "@id": "node/4439205018",
        "amenity": "shower"
      },
      "geometry": {
        "type": "Point",
        "coordinates": [
          9.2371361,
          58.7205609
        ]
      },
      "id": "node/4439205018"
    },
    {
      "type": "Feature",
      "properties": {
        "@id": "node/4585940682",
        "amenity": "shower",
        "toilets": "yes"
      },
      "geometry": {
        "type": "Point",
        "coordinates": [
          5.0498835,
          61.0248646
        ]
      },
      "id": "node/4585940682"
    },
    {
      "type": "Feature",
      "properties": {
        "@id": "node/4838763709",
        "amenity": "shower",
        "description": "Outdoor public shower, probably only turned on during summer periods."
      },
      "geometry": {
        "type": "Point",
        "coordinates": [
          10.4335989,
          63.4499477
        ]
      },
      "id": "node/4838763709"
    },
    {
      "type": "Feature",
      "properties": {
        "@id": "node/4895337892",
        "amenity": "shower"
      },
      "geometry": {
        "type": "Point",
        "coordinates": [
          7.5306237,
          62.5873016
        ]
      },
      "id": "node/4895337892"
    },
    {
      "type": "Feature",
      "properties": {
        "@id": "node/4912280838",
        "amenity": "shower"
      },
      "geometry": {
        "type": "Point",
        "coordinates": [
          10.4673757,
          63.4446972
        ]
      },
      "id": "node/4912280838"
    },
    {
      "type": "Feature",
      "properties": {
        "@id": "node/4935692562",
        "access": "customers",
        "amenity": "shower",
        "fee": "yes",
        "female": "yes",
        "male": "yes"
      },
      "geometry": {
        "type": "Point",
        "coordinates": [
          7.4624553,
          59.2712837
        ]
      },
      "id": "node/4935692562"
    },
    {
      "type": "Feature",
      "properties": {
        "@id": "node/4993082577",
        "access": "customers",
        "amenity": "shower",
        "fee": "yes",
        "female": "yes",
        "indoor": "yes",
        "supervised": "yes"
      },
      "geometry": {
        "type": "Point",
        "coordinates": [
          7.26658,
          61.6306946
        ]
      },
      "id": "node/4993082577"
    },
    {
      "type": "Feature",
      "properties": {
        "@id": "node/4993082584",
        "access": "customers",
        "amenity": "shower",
        "fee": "yes",
        "indoor": "yes",
        "male": "yes",
        "supervised": "yes"
      },
      "geometry": {
        "type": "Point",
        "coordinates": [
          7.2665952,
          61.6307089
        ]
      },
      "id": "node/4993082584"
    },
    {
      "type": "Feature",
      "properties": {
        "@id": "node/4993082596",
        "access": "customers",
        "amenity": "shower",
        "fee": "yes",
        "indoor": "yes",
        "supervised": "yes",
        "unisex": "yes"
      },
      "geometry": {
        "type": "Point",
        "coordinates": [
          7.2667418,
          61.6307765
        ]
      },
      "id": "node/4993082596"
    },
    {
      "type": "Feature",
      "properties": {
        "@id": "node/4993082601",
        "access": "customers",
        "amenity": "shower",
        "fee": "yes",
        "indoor": "yes",
        "supervised": "yes",
        "unisex": "yes"
      },
      "geometry": {
        "type": "Point",
        "coordinates": [
          7.2666433,
          61.630798
        ]
      },
      "id": "node/4993082601"
    },
    {
      "type": "Feature",
      "properties": {
        "@id": "node/4993082604",
        "access": "customers",
        "amenity": "shower",
        "fee": "yes",
        "indoor": "yes",
        "supervised": "yes",
        "unisex": "yes"
      },
      "geometry": {
        "type": "Point",
        "coordinates": [
          7.2666001,
          61.6308101
        ]
      },
      "id": "node/4993082604"
    },
    {
      "type": "Feature",
      "properties": {
        "@id": "node/5000670978",
        "access": "customers",
        "amenity": "shower",
        "female": "yes",
        "male": "yes"
      },
      "geometry": {
        "type": "Point",
        "coordinates": [
          7.8008428,
          58.6888813
        ]
      },
      "id": "node/5000670978"
    },
    {
      "type": "Feature",
      "properties": {
        "@id": "node/5116697598",
        "amenity": "shower",
        "fee": "no",
        "opening_hours": "24/7",
        "supervised": "no"
      },
      "geometry": {
        "type": "Point",
        "coordinates": [
          9.9536817,
          64.0544717
        ]
      },
      "id": "node/5116697598"
    },
    {
      "type": "Feature",
      "properties": {
        "@id": "node/5124771368",
        "amenity": "shower"
      },
      "geometry": {
        "type": "Point",
        "coordinates": [
          17.9081936,
          69.5072088
        ]
      },
      "id": "node/5124771368"
    },
    {
      "type": "Feature",
      "properties": {
        "@id": "node/5146097244",
        "amenity": "shower",
        "fee": "yes",
        "opening_hours": "24/7",
        "operator": "Øysand Camping"
      },
      "geometry": {
        "type": "Point",
        "coordinates": [
          10.2139752,
          63.327949
        ]
      },
      "id": "node/5146097244"
    },
    {
      "type": "Feature",
      "properties": {
        "@id": "node/5146097245",
        "amenity": "shower",
        "fee": "yes",
        "opening_hours": "24/7",
        "operator": "Øysand Camping"
      },
      "geometry": {
        "type": "Point",
        "coordinates": [
          10.2139436,
          63.3279513
        ]
      },
      "id": "node/5146097245"
    },
    {
      "type": "Feature",
      "properties": {
        "@id": "node/5146097246",
        "amenity": "shower",
        "fee": "yes",
        "opening_hours": "24/7",
        "operator": "Øysand Camping"
      },
      "geometry": {
        "type": "Point",
        "coordinates": [
          10.2139659,
          63.3279979
        ]
      },
      "id": "node/5146097246"
    },
    {
      "type": "Feature",
      "properties": {
        "@id": "node/5146097247",
        "amenity": "shower",
        "fee": "yes",
        "opening_hours": "24/7",
        "operator": "Øysand Camping"
      },
      "geometry": {
        "type": "Point",
        "coordinates": [
          10.2139929,
          63.3279954
        ]
      },
      "id": "node/5146097247"
    },
    {
      "type": "Feature",
      "properties": {
        "@id": "node/5405738525",
        "amenity": "shower",
        "description": "can be used for free",
        "name": "Havnevakt",
        "phone": "+47 78 40 74 02;+47 91 37 03 11"
      },
      "geometry": {
        "type": "Point",
        "coordinates": [
          23.6810457,
          70.6647674
        ]
      },
      "id": "node/5405738525"
    },
    {
      "type": "Feature",
      "properties": {
        "@id": "node/5569943306",
        "amenity": "shower",
        "fee": "yes",
        "opening_hours": "24/7",
        "operator": "GoMarina",
        "supervised": "no"
      },
      "geometry": {
        "type": "Point",
        "coordinates": [
          10.3742118,
          63.4314791
        ]
      },
      "id": "node/5569943306"
    },
    {
      "type": "Feature",
      "properties": {
        "@id": "node/5569943309",
        "supervised": "no",
        "amenity": "shower",
        "fee": "yes",
        "opening_hours": "24/7",
        "operator": "GoMarina"
      },
      "geometry": {
        "type": "Point",
        "coordinates": [
          10.4081327,
          63.4403447
        ]
      },
      "id": "node/5569943309"
    },
    {
      "type": "Feature",
      "properties": {
        "@id": "node/5630174423",
        "access": "customers",
        "amenity": "shower",
        "fee": "no",
        "unisex": "yes"
      },
      "geometry": {
        "type": "Point",
        "coordinates": [
          5.9960762,
          58.4783117
        ]
      },
      "id": "node/5630174423"
    },
    {
      "type": "Feature",
      "properties": {
        "@id": "node/5631121502",
        "access": "customers",
        "amenity": "shower",
        "fee": "yes",
        "female": "yes",
        "male": "yes"
      },
      "geometry": {
        "type": "Point",
        "coordinates": [
          5.725438,
          58.5397893
        ]
      },
      "id": "node/5631121502"
    },
    {
      "type": "Feature",
      "properties": {
        "@id": "node/5654658191",
        "amenity": "shower"
      },
      "geometry": {
        "type": "Point",
        "coordinates": [
          10.6661562,
          59.9111548
        ]
      },
      "id": "node/5654658191"
    },
    {
      "type": "Feature",
      "properties": {
        "@id": "node/5677532830",
        "amenity": "shower"
      },
      "geometry": {
        "type": "Point",
        "coordinates": [
          10.6334558,
          59.8907508
        ]
      },
      "id": "node/5677532830"
    },
    {
      "type": "Feature",
      "properties": {
        "@id": "node/5731354666",
        "access": "customers",
        "amenity": "shower"
      },
      "geometry": {
        "type": "Point",
        "coordinates": [
          9.8452163,
          58.9837653
        ]
      },
      "id": "node/5731354666"
    },
    {
      "type": "Feature",
      "properties": {
        "@id": "node/5784019616",
        "amenity": "shower"
      },
      "geometry": {
        "type": "Point",
        "coordinates": [
          7.6710051,
          62.4992537
        ]
      },
      "id": "node/5784019616"
    },
    {
      "type": "Feature",
      "properties": {
        "@id": "node/5785179014",
        "amenity": "shower"
      },
      "geometry": {
        "type": "Point",
        "coordinates": [
          6.7575668,
          61.4231869
        ]
      },
      "id": "node/5785179014"
    },
    {
      "type": "Feature",
      "properties": {
        "@id": "node/5810949065",
        "amenity": "shower",
        "temperature": "cold"
      },
      "geometry": {
        "type": "Point",
        "coordinates": [
          5.5173951,
          58.7409503
        ]
      },
      "id": "node/5810949065"
    },
    {
      "type": "Feature",
      "properties": {
        "@id": "node/5912350118",
        "access": "yes",
        "amenity": "shower",
        "fee": "no",
        "unisex": "yes"
      },
      "geometry": {
        "type": "Point",
        "coordinates": [
          6.5301416,
          58.2287737
        ]
      },
      "id": "node/5912350118"
    },
    {
      "type": "Feature",
      "properties": {
        "@id": "node/5983416077",
        "access": "customers",
        "amenity": "shower",
        "fee": "yes",
        "female": "yes",
        "male": "yes",
        "opening_hours": "24/7"
      },
      "geometry": {
        "type": "Point",
        "coordinates": [
          7.5523596,
          59.734122
        ]
      },
      "id": "node/5983416077"
    },
    {
      "type": "Feature",
      "properties": {
        "@id": "node/6080449221",
        "amenity": "shower",
        "image": "https://d1cuyjsrcm0gby.cloudfront.net/8wD1vxA_HAaygy5xh7W7qQ/thumb-2048.jpg",
        "mapillary": "https://www.mapillary.com/map/im/8wD1vxA_HAaygy5xh7W7qQ"
      },
      "geometry": {
        "type": "Point",
        "coordinates": [
          10.2844074,
          61.3667413
        ]
      },
      "id": "node/6080449221"
    },
    {
      "type": "Feature",
      "properties": {
        "@id": "node/6131319904",
        "access": "customers",
        "amenity": "shower"
      },
      "geometry": {
        "type": "Point",
        "coordinates": [
          11.0604456,
          64.6343062
        ]
      },
      "id": "node/6131319904"
    },
    {
      "type": "Feature",
      "properties": {
        "@id": "node/6166507600",
        "amenity": "shower",
        "fee": "yes",
        "female": "yes",
        "male": "yes"
      },
      "geometry": {
        "type": "Point",
        "coordinates": [
          5.4353631,
          60.3523813
        ]
      },
      "id": "node/6166507600"
    },
    {
      "type": "Feature",
      "properties": {
        "@id": "node/6166566670",
        "amenity": "shower",
        "fee": "yes",
        "female": "yes",
        "male": "yes"
      },
      "geometry": {
        "type": "Point",
        "coordinates": [
          7.1204455,
          61.212932
        ]
      },
      "id": "node/6166566670"
    },
    {
      "type": "Feature",
      "properties": {
        "@id": "node/6243852016",
        "amenity": "shower",
        "name": "På taket kafe",
        "opening_hours": "Mo-Th 09:30-22:00; Fr 09:30-24:00; Sa 00:00-01:00, 09:30-24:00; Su 00:00-01:00, 09:30-22:00"
      },
      "geometry": {
        "type": "Point",
        "coordinates": [
          20.939001,
          69.792598
        ]
      },
      "id": "node/6243852016"
    },
    {
      "type": "Feature",
      "properties": {
        "@id": "node/6282430853",
        "amenity": "shower",
        "fee": "yes",
        "female": "yes",
        "male": "yes"
      },
      "geometry": {
        "type": "Point",
        "coordinates": [
          8.3917764,
          61.7176619
        ]
      },
      "id": "node/6282430853"
    },
    {
      "type": "Feature",
      "properties": {
        "@id": "node/6282709841",
        "amenity": "shower",
        "fee": "yes",
        "female": "yes",
        "male": "no"
      },
      "geometry": {
        "type": "Point",
        "coordinates": [
          7.2039668,
          62.0997736
        ]
      },
      "id": "node/6282709841"
    },
    {
      "type": "Feature",
      "properties": {
        "@id": "node/6282709842",
        "amenity": "shower",
        "fee": "yes",
        "female": "no",
        "male": "yes"
      },
      "geometry": {
        "type": "Point",
        "coordinates": [
          7.2038944,
          62.0997579
        ]
      },
      "id": "node/6282709842"
    },
    {
      "type": "Feature",
      "properties": {
        "@id": "node/6284449999",
        "amenity": "shower",
        "female": "yes",
        "male": "yes"
      },
      "geometry": {
        "type": "Point",
        "coordinates": [
          6.1975318,
          62.469118
        ]
      },
      "id": "node/6284449999"
    },
    {
      "type": "Feature",
      "properties": {
        "@id": "node/6284472605",
        "access": "customers",
        "amenity": "shower",
        "description:de": "Zutritt nur mit Code vom Ticket für Wohnmobilstellplatz",
        "description:en": "access only with code from caravan parking ticket",
        "fee": "yes",
        "female": "yes",
        "male": "yes"
      },
      "geometry": {
        "type": "Point",
        "coordinates": [
          6.1611511,
          62.4769363
        ]
      },
      "id": "node/6284472605"
    },
    {
      "type": "Feature",
      "properties": {
        "@id": "node/6354840043",
        "access": "customers",
        "amenity": "shower",
        "female": "yes",
        "level": "-1",
        "male": "yes",
        "wheelchair": "no",
        "wheelchair:description:en": "stairs"
      },
      "geometry": {
        "type": "Point",
        "coordinates": [
          7.3478888,
          62.9526141
        ]
      },
      "id": "node/6354840043"
    },
    {
      "type": "Feature",
      "properties": {
        "@id": "node/6419589072",
        "access": "customers",
        "amenity": "shower",
        "fee": "yes",
        "supervised": "yes"
      },
      "geometry": {
        "type": "Point",
        "coordinates": [
          5.8976946,
          59.4967193
        ]
      },
      "id": "node/6419589072"
    },
    {
      "type": "Feature",
      "properties": {
        "@id": "node/6448327591",
        "access": "yes",
        "amenity": "shower",
        "fee": "yes",
        "source": "Digitalglobe Premium aerial"
      },
      "geometry": {
        "type": "Point",
        "coordinates": [
          14.2253906,
          67.1621683
        ]
      },
      "id": "node/6448327591"
    },
    {
      "type": "Feature",
      "properties": {
        "@id": "node/6451963293",
        "amenity": "shower",
        "fee": "yes",
        "female": "yes",
        "male": "yes"
      },
      "geometry": {
        "type": "Point",
        "coordinates": [
          8.5330577,
          63.142623
        ]
      },
      "id": "node/6451963293"
    },
    {
      "type": "Feature",
      "properties": {
        "@id": "node/6451963297",
        "amenity": "shower",
        "fee": "yes",
        "female": "yes",
        "male": "yes"
      },
      "geometry": {
        "type": "Point",
        "coordinates": [
          8.5310695,
          63.1423561
        ]
      },
      "id": "node/6451963297"
    },
    {
      "type": "Feature",
      "properties": {
        "@id": "node/6564471230",
        "amenity": "shower"
      },
      "geometry": {
        "type": "Point",
        "coordinates": [
          8.0083775,
          58.1460787
        ]
      },
      "id": "node/6564471230"
    },
    {
      "type": "Feature",
      "properties": {
        "@id": "node/6564471231",
        "amenity": "shower"
      },
      "geometry": {
        "type": "Point",
        "coordinates": [
          8.0056342,
          58.1465469
        ]
      },
      "id": "node/6564471231"
    },
    {
      "type": "Feature",
      "properties": {
        "@id": "node/6564471232",
        "amenity": "shower"
      },
      "geometry": {
        "type": "Point",
        "coordinates": [
          8.0086392,
          58.1457377
        ]
      },
      "id": "node/6564471232"
    },
    {
      "type": "Feature",
      "properties": {
        "@id": "node/6564471233",
        "amenity": "shower"
      },
      "geometry": {
        "type": "Point",
        "coordinates": [
          8.0066104,
          58.1456737
        ]
      },
      "id": "node/6564471233"
    },
    {
      "type": "Feature",
      "properties": {
        "@id": "node/6565088216",
        "access": "yes",
        "amenity": "shower",
        "hot_water": "no",
        "outdoor": "yes"
      },
      "geometry": {
        "type": "Point",
        "coordinates": [
          7.4307804,
          58.0190549
        ]
      },
      "id": "node/6565088216"
    },
    {
      "type": "Feature",
      "properties": {
        "@id": "node/6566613496",
        "access": "yes",
        "amenity": "shower",
        "fee": "yes",
        "payment:cash": "no"
      },
      "geometry": {
        "type": "Point",
        "coordinates": [
          7.4517306,
          58.0247942
        ]
      },
      "id": "node/6566613496"
    },
    {
      "type": "Feature",
      "properties": {
        "@id": "node/6566972975",
        "amenity": "shower",
        "fee": "no"
      },
      "geometry": {
        "type": "Point",
        "coordinates": [
          7.6684262,
          62.5638577
        ]
      },
      "id": "node/6566972975"
    },
    {
      "type": "Feature",
      "properties": {
        "@id": "node/6585221729",
        "amenity": "shower"
      },
      "geometry": {
        "type": "Point",
        "coordinates": [
          6.7433896,
          58.7600146
        ]
      },
      "id": "node/6585221729"
    },
    {
      "type": "Feature",
      "properties": {
        "@id": "node/6603282978",
        "amenity": "shower"
      },
      "geometry": {
        "type": "Point",
        "coordinates": [
          8.0299038,
          58.1482523
        ]
      },
      "id": "node/6603282978"
    },
    {
      "type": "Feature",
      "properties": {
        "@id": "node/6614451462",
        "amenity": "shower"
      },
      "geometry": {
        "type": "Point",
        "coordinates": [
          8.0305308,
          58.1471686
        ]
      },
      "id": "node/6614451462"
    },
    {
      "type": "Feature",
      "properties": {
        "@id": "node/6622950767",
        "amenity": "shower"
      },
      "geometry": {
        "type": "Point",
        "coordinates": [
          5.5535347,
          58.7991423
        ]
      },
      "id": "node/6622950767"
    },
    {
      "type": "Feature",
      "properties": {
        "@id": "node/6625070715",
        "amenity": "shower"
      },
      "geometry": {
        "type": "Point",
        "coordinates": [
          5.2579817,
          59.4279997
        ]
      },
      "id": "node/6625070715"
    },
    {
      "type": "Feature",
      "properties": {
        "@id": "node/6655798158",
        "amenity": "shower"
      },
      "geometry": {
        "type": "Point",
        "coordinates": [
          6.6604389,
          58.2876175
        ]
      },
      "id": "node/6655798158"
    },
    {
      "type": "Feature",
      "properties": {
        "@id": "node/6657547044",
        "amenity": "shower"
      },
      "geometry": {
        "type": "Point",
        "coordinates": [
          11.2344723,
          59.0927745
        ]
      },
      "id": "node/6657547044"
    },
    {
      "type": "Feature",
      "properties": {
        "@id": "node/6658560887",
        "amenity": "shower"
      },
      "geometry": {
        "type": "Point",
        "coordinates": [
          11.4479515,
          64.0155315
        ]
      },
      "id": "node/6658560887"
    },
    {
      "type": "Feature",
      "properties": {
        "@id": "node/6687643330",
        "access": "customers",
        "amenity": "shower",
        "fee": "yes",
        "opening_hours": "24/7"
      },
      "geometry": {
        "type": "Point",
        "coordinates": [
          7.127003,
          58.0430538
        ]
      },
      "id": "node/6687643330"
    },
    {
      "type": "Feature",
      "properties": {
        "@id": "node/6695921763",
        "access": "customers",
        "amenity": "shower"
      },
      "geometry": {
        "type": "Point",
        "coordinates": [
          8.5419093,
          60.6242886
        ]
      },
      "id": "node/6695921763"
    },
    {
      "type": "Feature",
      "properties": {
        "@id": "node/6695921764",
        "access": "customers",
        "amenity": "shower"
      },
      "geometry": {
        "type": "Point",
        "coordinates": [
          8.5419064,
          60.6244455
        ]
      },
      "id": "node/6695921764"
    },
    {
      "type": "Feature",
      "properties": {
        "@id": "node/6702326679",
        "access": "customers",
        "amenity": "shower"
      },
      "geometry": {
        "type": "Point",
        "coordinates": [
          7.7843155,
          58.5535627
        ]
      },
      "id": "node/6702326679"
    },
    {
      "type": "Feature",
      "properties": {
        "@id": "node/6832742187",
        "amenity": "shower"
      },
      "geometry": {
        "type": "Point",
        "coordinates": [
          15.0533594,
          67.9663733
        ]
      },
      "id": "node/6832742187"
    },
    {
      "type": "Feature",
      "properties": {
        "@id": "node/7056719160",
        "amenity": "shower",
        "source": "Norge i Bilder"
      },
      "geometry": {
        "type": "Point",
        "coordinates": [
          10.5325641,
          59.8873928
        ]
      },
      "id": "node/7056719160"
    },
    {
      "type": "Feature",
      "properties": {
        "@id": "node/7056719161",
        "amenity": "shower",
        "source": "Norge i Bilder"
      },
      "geometry": {
        "type": "Point",
        "coordinates": [
          10.5335753,
          59.8882331
        ]
      },
      "id": "node/7056719161"
    },
    {
      "type": "Feature",
      "properties": {
        "@id": "node/7056719162",
        "amenity": "shower",
        "source": "Norge i Bilder"
      },
      "geometry": {
        "type": "Point",
        "coordinates": [
          10.5316937,
          59.8885171
        ]
      },
      "id": "node/7056719162"
    },
    {
      "type": "Feature",
      "properties": {
        "@id": "node/7157484099",
        "amenity": "shower"
      },
      "geometry": {
        "type": "Point",
        "coordinates": [
          16.5548611,
          68.9990756
        ]
      },
      "id": "node/7157484099"
    },
    {
      "type": "Feature",
      "properties": {
        "@id": "node/7276261125",
        "access": "customers",
        "amenity": "shower",
        "female": "yes",
        "male": "yes"
      },
      "geometry": {
        "type": "Point",
        "coordinates": [
          10.5960077,
          60.8239624
        ]
      },
      "id": "node/7276261125"
    },
    {
      "type": "Feature",
      "properties": {
        "@id": "node/7434410940",
        "amenity": "shower",
        "fee": "no",
        "female": "yes",
        "male": "yes"
      },
      "geometry": {
        "type": "Point",
        "coordinates": [
          9.7428936,
          63.6994617
        ]
      },
      "id": "node/7434410940"
    },
    {
      "type": "Feature",
      "properties": {
        "@id": "node/7474297372",
        "amenity": "shower"
      },
      "geometry": {
        "type": "Point",
        "coordinates": [
          11.3522438,
          62.5674558
        ]
      },
      "id": "node/7474297372"
    },
    {
      "type": "Feature",
      "properties": {
        "@id": "node/7492114618",
        "amenity": "shower",
        "fee": "yes",
        "female": "yes",
        "level": "-1",
        "male": "yes"
      },
      "geometry": {
        "type": "Point",
        "coordinates": [
          10.0915083,
          61.3359167
        ]
      },
      "id": "node/7492114618"
    },
    {
      "type": "Feature",
      "properties": {
        "@id": "node/7549656385",
        "access": "yes",
        "amenity": "shower"
      },
      "geometry": {
        "type": "Point",
        "coordinates": [
          10.5928522,
          59.8884305
        ]
      },
      "id": "node/7549656385"
    },
    {
      "type": "Feature",
      "properties": {
        "@id": "node/7611948006",
        "amenity": "shower",
        "fee": "yes",
        "female": "yes",
        "male": "no"
      },
      "geometry": {
        "type": "Point",
        "coordinates": [
          10.7017132,
          60.9161029
        ]
      },
      "id": "node/7611948006"
    },
    {
      "type": "Feature",
      "properties": {
        "@id": "node/7611948008",
        "amenity": "shower",
        "fee": "yes",
        "female": "no",
        "male": "yes"
      },
      "geometry": {
        "type": "Point",
        "coordinates": [
          10.7017907,
          60.916056
        ]
      },
      "id": "node/7611948008"
    },
    {
      "type": "Feature",
      "properties": {
        "@id": "node/7619475783",
        "amenity": "shower"
      },
      "geometry": {
        "type": "Point",
        "coordinates": [
          6.4262483,
          59.0080909
        ]
      },
      "id": "node/7619475783"
    },
    {
      "type": "Feature",
      "properties": {
        "@id": "node/7671836739",
        "amenity": "shower"
      },
      "geometry": {
        "type": "Point",
        "coordinates": [
          6.1911159,
          60.3682673
        ]
      },
      "id": "node/7671836739"
    },
    {
      "type": "Feature",
      "properties": {
        "@id": "node/7672975820",
        "female": "yes",
        "fee": "yes",
        "amenity": "shower"
      },
      "geometry": {
        "type": "Point",
        "coordinates": [
          10.7691009,
          59.898324
        ]
      },
      "id": "node/7672975820"
    },
    {
      "type": "Feature",
      "properties": {
        "@id": "node/7672975825",
        "male": "yes",
        "female": "no",
        "fee": "yes",
        "amenity": "shower"
      },
      "geometry": {
        "type": "Point",
        "coordinates": [
          10.7689318,
          59.8980307
        ]
      },
      "id": "node/7672975825"
    },
    {
      "type": "Feature",
      "properties": {
        "@id": "node/7673001891",
        "amenity": "shower",
        "fee": "yes"
      },
      "geometry": {
        "type": "Point",
        "coordinates": [
          10.6768133,
          59.9194264
        ]
      },
      "id": "node/7673001891"
    },
    {
      "type": "Feature",
      "properties": {
        "@id": "node/7683715652",
        "opening_hours": "24/7",
        "amenity": "give_box"
      },
      "geometry": {
        "type": "Point",
        "coordinates": [
          10.8120976,
          59.9423654
        ]
      },
      "id": "node/7683715652"
    },
    {
      "type": "Feature",
      "properties": {
        "@id": "node/7683715653",
        "amenity": "give_box",
        "opening_hours": "24/7"
      },
      "geometry": {
        "type": "Point",
        "coordinates": [
          10.8049852,
          59.9088159
        ]
      },
      "id": "node/7683715653"
    },
    {
      "type": "Feature",
      "properties": {
        "@id": "node/7683715658",
        "amenity": "give_box",
        "opening_hours": "24/7"
      },
      "geometry": {
        "type": "Point",
        "coordinates": [
          10.7519111,
          59.9382837
        ]
      },
      "id": "node/7683715658"
    },
    {
      "type": "Feature",
      "properties": {
        "@id": "node/7705002462",
        "amenity": "shower",
        "male": "yes"
      },
      "geometry": {
        "type": "Point",
        "coordinates": [
          7.4433835,
          58.0205709
        ]
      },
      "id": "node/7705002462"
    },
    {
      "type": "Feature",
      "properties": {
        "@id": "node/7705002463",
        "amenity": "shower",
        "female": "yes"
      },
      "geometry": {
        "type": "Point",
        "coordinates": [
          7.4434606,
          58.0206227
        ]
      },
      "id": "node/7705002463"
    },
    {
      "type": "Feature",
      "properties": {
        "@id": "node/7837647602",
        "amenity": "shower"
      },
      "geometry": {
        "type": "Point",
        "coordinates": [
          6.5335222,
          61.2046055
        ]
      },
      "id": "node/7837647602"
    },
    {
      "type": "Feature",
      "properties": {
        "@id": "node/7840362568",
        "amenity": "shower"
      },
      "geometry": {
        "type": "Point",
        "coordinates": [
          6.2695428,
          61.3259847
        ]
      },
      "id": "node/7840362568"
    },
    {
      "type": "Feature",
      "properties": {
        "@id": "node/7938053803",
        "amenity": "shower"
      },
      "geometry": {
        "type": "Point",
        "coordinates": [
          10.5356043,
          59.8844529
        ]
      },
      "id": "node/7938053803"
    },
    {
      "type": "Feature",
      "properties": {
        "@id": "node/7987714526",
        "amenity": "shower",
        "fee": "yes",
        "female": "yes",
        "male": "yes"
      },
      "geometry": {
        "type": "Point",
        "coordinates": [
          9.7033426,
          59.0090081
        ]
      },
      "id": "node/7987714526"
    },
    {
      "type": "Feature",
      "properties": {
        "@id": "node/7987714528",
        "amenity": "shower",
        "fee": "yes",
        "female": "yes",
        "male": "yes"
      },
      "geometry": {
        "type": "Point",
        "coordinates": [
          9.6997919,
          59.009409
        ]
      },
      "id": "node/7987714528"
    },
    {
      "type": "Feature",
      "properties": {
        "@id": "node/7995129525",
        "amenity": "give_box",
        "name": "Byttebod"
      },
      "geometry": {
        "type": "Point",
        "coordinates": [
          10.7702933,
          59.9389355
        ]
      },
      "id": "node/7995129525"
    },
    {
      "type": "Feature",
      "properties": {
        "@id": "node/8009117695",
        "access": "yes",
        "amenity": "give_box",
        "opening_hours": "24/7"
      },
      "geometry": {
        "type": "Point",
        "coordinates": [
          10.7572381,
          59.9130706
        ]
      },
      "id": "node/8009117695"
    },
    {
      "type": "Feature",
      "properties": {
        "@id": "node/8021610621",
        "amenity": "give_box"
      },
      "geometry": {
        "type": "Point",
        "coordinates": [
          10.7940285,
          59.9127416
        ]
      },
      "id": "node/8021610621"
    },
    {
      "type": "Feature",
      "properties": {
        "@id": "node/8525530834",
        "amenity": "shower"
      },
      "geometry": {
        "type": "Point",
        "coordinates": [
          6.8058103,
          58.090621
        ]
      },
      "id": "node/8525530834"
    },
    {
      "type": "Feature",
      "properties": {
        "@id": "node/8796247688",
        "access": "yes",
        "amenity": "shower",
        "fee": "no",
        "hot_water": "no",
        "wheelchair": "yes"
      },
      "geometry": {
        "type": "Point",
        "coordinates": [
          10.7252786,
          63.433675
        ]
      },
      "id": "node/8796247688"
    },
    {
      "type": "Feature",
      "properties": {
        "@id": "node/8796247689",
        "access": "yes",
        "amenity": "shower",
        "fee": "no",
        "hot_water": "no",
        "wheelchair": "yes"
      },
      "geometry": {
        "type": "Point",
        "coordinates": [
          10.7233292,
          63.4324268
        ]
      },
      "id": "node/8796247689"
    },
    {
      "type": "Feature",
      "properties": {
        "@id": "node/8920135657",
        "amenity": "shower"
      },
      "geometry": {
        "type": "Point",
        "coordinates": [
          4.911896,
          60.5131904
        ]
      },
      "id": "node/8920135657"
    },
    {
      "type": "Feature",
      "properties": {
        "@id": "node/8935714318",
        "amenity": "shower"
      },
      "geometry": {
        "type": "Point",
        "coordinates": [
          10.7312057,
          59.6274927
        ]
      },
      "id": "node/8935714318"
    },
    {
      "type": "Feature",
      "properties": {
        "@id": "node/8936385350",
        "amenity": "shower"
      },
      "geometry": {
        "type": "Point",
        "coordinates": [
          5.0099418,
          60.3215078
        ]
      },
      "id": "node/8936385350"
    },
    {
      "type": "Feature",
      "properties": {
        "@id": "node/8946896391",
        "amenity": "shower"
      },
      "geometry": {
        "type": "Point",
        "coordinates": [
          10.5004319,
          59.8023996
        ]
      },
      "id": "node/8946896391"
    },
    {
      "type": "Feature",
      "properties": {
        "@id": "node/8987174688",
        "unisex": "yes",
        "amenity": "shower",
        "description": "50 Norwegian Kroner to pay at fast food restaurant counter",
        "fee": "yes",
        "hot_water": "yes",
        "location": "indoor",
        "name": "Røklandsenteret"
      },
      "geometry": {
        "type": "Point",
        "coordinates": [
          15.314721,
          66.9811768
        ]
      },
      "id": "node/8987174688"
    },
    {
      "type": "Feature",
      "properties": {
        "@id": "node/8989212212",
        "amenity": "shower",
        "description:payment": "40 NOK per 10 minutes pay by debit/credit card",
        "fee": "yes",
        "hot_water": "yes",
        "location": "indoor",
        "name": "Hvaler kommune",
        "unisex": "yes"
      },
      "geometry": {
        "type": "Point",
        "coordinates": [
          11.0364644,
          59.0249315
        ]
      },
      "id": "node/8989212212"
    },
    {
      "type": "Feature",
      "properties": {
        "@id": "node/8989535312",
        "amenity": "shower"
      },
      "geometry": {
        "type": "Point",
        "coordinates": [
          5.0421001,
          61.5857733
        ]
      },
      "id": "node/8989535312"
    },
    {
      "type": "Feature",
      "properties": {
        "@id": "node/8990283887",
        "amenity": "shower",
        "fee": "yes",
        "hot_water": "yes",
        "name": "Circle K Brokelandsheia",
        "unisex": "yes"
      },
      "geometry": {
        "type": "Point",
        "coordinates": [
          9.0743759,
          58.8217557
        ]
      },
      "id": "node/8990283887"
    },
    {
      "type": "Feature",
      "properties": {
        "@id": "node/9005957886",
        "amenity": "shower"
      },
      "geometry": {
        "type": "Point",
        "coordinates": [
          11.0882787,
          63.2512822
        ]
      },
      "id": "node/9005957886"
    },
    {
      "type": "Feature",
      "properties": {
        "@id": "node/9038444577",
        "access": "restricted",
        "amenity": "shower"
      },
      "geometry": {
        "type": "Point",
        "coordinates": [
          11.3853863,
          59.118244
        ]
      },
      "id": "node/9038444577"
    },
    {
      "type": "Feature",
      "properties": {
        "@id": "node/9041430262",
        "access": "restricted",
        "amenity": "shower"
      },
      "geometry": {
        "type": "Point",
        "coordinates": [
          10.6040826,
          59.6784477
        ]
      },
      "id": "node/9041430262"
    },
    {
      "type": "Feature",
      "properties": {
        "@id": "node/9050833678",
        "access": "yes",
        "amenity": "shower",
        "fee": "yes",
        "hot_water": "yes",
        "unisex": "yes"
      },
      "geometry": {
        "type": "Point",
        "coordinates": [
          8.9309026,
          58.622507
        ]
      },
      "id": "node/9050833678"
    },
    {
      "type": "Feature",
      "properties": {
        "@id": "node/9076464097",
        "access": "yes",
        "amenity": "shower"
      },
      "geometry": {
        "type": "Point",
        "coordinates": [
          6.2020698,
          59.3457431
        ]
      },
      "id": "node/9076464097"
    },
    {
      "type": "Feature",
      "properties": {
        "@id": "node/9393796514",
        "amenity": "shower"
      },
      "geometry": {
        "type": "Point",
        "coordinates": [
          8.8045745,
          58.4689817
        ]
      },
      "id": "node/9393796514"
    },
    {
      "type": "Feature",
      "properties": {
        "@id": "node/9588852037",
        "amenity": "give_box"
      },
      "geometry": {
        "type": "Point",
        "coordinates": [
          10.7518408,
          59.9323651
        ]
      },
      "id": "node/9588852037"
    },
    {
      "type": "Feature",
      "properties": {
        "@id": "node/9845843847",
        "amenity": "shower",
        "description": "Douche gratuite",
        "name": "Douche"
      },
      "geometry": {
        "type": "Point",
        "coordinates": [
          7.6030762,
          59.7370007
        ]
      },
      "id": "node/9845843847"
    },
    {
      "type": "Feature",
      "properties": {
        "@id": "node/9875316310",
        "access": "customers",
        "amenity": "shower",
        "male": "yes"
      },
      "geometry": {
        "type": "Point",
        "coordinates": [
          5.350808,
          61.0326429
        ]
      },
      "id": "node/9875316310"
    },
    {
      "type": "Feature",
      "properties": {
        "@id": "node/9875382320",
        "access": "customers",
        "amenity": "shower",
        "female": "yes"
      },
      "geometry": {
        "type": "Point",
        "coordinates": [
          5.3508893,
          61.0326007
        ]
      },
      "id": "node/9875382320"
    },
    {
      "type": "Feature",
      "properties": {
        "@id": "node/9875382411",
        "access": "customers",
        "amenity": "shower",
        "unisex": "yes"
      },
      "geometry": {
        "type": "Point",
        "coordinates": [
          5.3518133,
          61.0317954
        ]
      },
      "id": "node/9875382411"
    },
    {
      "type": "Feature",
      "properties": {
        "@id": "node/9891141930",
        "amenity": "shower",
        "description": "Hot shower. Inside the Wheelchair Toilet."
      },
      "geometry": {
        "type": "Point",
        "coordinates": [
          6.658927,
          58.2877816
        ]
      },
      "id": "node/9891141930"
    },
    {
      "type": "Feature",
      "properties": {
        "@id": "node/9894946192",
        "access": "permit",
        "amenity": "shower"
      },
      "geometry": {
        "type": "Point",
        "coordinates": [
          8.3904986,
          58.2557583
        ]
      },
      "id": "node/9894946192"
    },
    {
      "type": "Feature",
      "properties": {
        "@id": "node/9895291959",
        "access": "customers",
        "amenity": "shower",
        "female": "yes",
        "male": "yes"
      },
      "geometry": {
        "type": "Point",
        "coordinates": [
          7.8806126,
          61.356169
        ]
      },
      "id": "node/9895291959"
    },
    {
      "type": "Feature",
      "properties": {
        "@id": "node/9895292016",
        "access": "customers",
        "amenity": "shower",
        "female": "yes",
        "male": "yes"
      },
      "geometry": {
        "type": "Point",
        "coordinates": [
          7.9265879,
          61.3743447
        ]
      },
      "id": "node/9895292016"
    },
    {
      "type": "Feature",
      "properties": {
        "@id": "node/9895292080",
        "access": "customers",
        "amenity": "shower",
        "female": "yes",
        "male": "yes"
      },
      "geometry": {
        "type": "Point",
        "coordinates": [
          8.0143718,
          61.4629385
        ]
      },
      "id": "node/9895292080"
    },
    {
      "type": "Feature",
      "properties": {
        "@id": "node/9895292146",
        "access": "customers",
        "amenity": "shower",
        "female": "yes",
        "male": "yes"
      },
      "geometry": {
        "type": "Point",
        "coordinates": [
          7.7905527,
          61.6428048
        ]
      },
      "id": "node/9895292146"
    },
    {
      "type": "Feature",
      "properties": {
        "@id": "node/9895523269",
        "supervised": "no",
        "fee": "yes",
        "amenity": "shower",
        "opening_hours": "24/7"
      },
      "geometry": {
        "type": "Point",
        "coordinates": [
          14.3364011,
          68.1893515
        ]
      },
      "id": "node/9895523269"
    },
    {
      "type": "Feature",
      "properties": {
        "@id": "node/9905600885",
        "amenity": "shower"
      },
      "geometry": {
        "type": "Point",
        "coordinates": [
          6.5500361,
          60.0715365
        ]
      },
      "id": "node/9905600885"
    },
    {
      "type": "Feature",
      "properties": {
        "@id": "node/9905637260",
        "amenity": "shower"
      },
      "geometry": {
        "type": "Point",
        "coordinates": [
          6.5497108,
          60.0715551
        ]
      },
      "id": "node/9905637260"
    },
    {
      "type": "Feature",
      "properties": {
        "@id": "node/9911078127",
        "access": "customers",
        "amenity": "shower"
      },
      "geometry": {
        "type": "Point",
        "coordinates": [
          10.4994844,
          64.3005084
        ]
      },
      "id": "node/9911078127"
    },
    {
      "type": "Feature",
      "properties": {
        "@id": "node/9911142857",
        "access": "customers",
        "amenity": "shower"
      },
      "geometry": {
        "type": "Point",
        "coordinates": [
          11.4323279,
          64.6879588
        ]
      },
      "id": "node/9911142857"
    },
    {
      "type": "Feature",
      "properties": {
        "@id": "node/9935523068",
        "amenity": "shower",
        "fee": "no",
        "hot_water": "no",
        "supervised": "no"
      },
      "geometry": {
        "type": "Point",
        "coordinates": [
          10.7180747,
          59.8710473
        ]
      },
      "id": "node/9935523068"
    },
    {
      "type": "Feature",
      "properties": {
        "@id": "node/9961447191",
        "amenity": "shower"
      },
      "geometry": {
        "type": "Point",
        "coordinates": [
          10.6461992,
          59.4292812
        ]
      },
      "id": "node/9961447191"
    },
    {
      "type": "Feature",
      "properties": {
        "@id": "node/9991502672",
        "amenity": "shower",
        "female": "yes",
        "operator": "Dalsøren Camping"
      },
      "geometry": {
        "type": "Point",
        "coordinates": [
          7.4613248,
          61.4430701
        ]
      },
      "id": "node/9991502672"
    },
    {
      "type": "Feature",
      "properties": {
        "@id": "node/9991502673",
        "amenity": "shower",
        "male": "yes",
        "operator": "Dalsøren Camping"
      },
      "geometry": {
        "type": "Point",
        "coordinates": [
          7.4613664,
          61.44304
        ]
      },
      "id": "node/9991502673"
    },
    {
      "type": "Feature",
      "properties": {
        "@id": "node/9994922567",
        "access": "customers",
        "amenity": "shower",
        "female": "no",
        "male": "yes"
      },
      "geometry": {
        "type": "Point",
        "coordinates": [
          29.3308192,
          70.1196033
        ]
      },
      "id": "node/9994922567"
    },
    {
      "type": "Feature",
      "properties": {
        "@id": "node/10032055641",
        "access": "yes",
        "amenity": "shower",
        "description": "Outdoor, probably cold water only",
        "fee": "no"
      },
      "geometry": {
        "type": "Point",
        "coordinates": [
          5.6682385,
          58.9415156
        ]
      },
      "id": "node/10032055641"
    },
    {
      "type": "Feature",
      "properties": {
        "@id": "node/10055843550",
        "access": "customers",
        "amenity": "shower",
        "fee": "no",
        "hot_water": "yes"
      },
      "geometry": {
        "type": "Point",
        "coordinates": [
          9.2343289,
          60.9804339
        ]
      },
      "id": "node/10055843550"
    },
    {
      "type": "Feature",
      "properties": {
        "@id": "node/10069592236",
        "amenity": "give_box"
      },
      "geometry": {
        "type": "Point",
        "coordinates": [
          10.7511321,
          59.9377253
        ]
      },
      "id": "node/10069592236"
    },
    {
      "type": "Feature",
      "properties": {
        "@id": "node/10079813116",
        "amenity": "give_box",
        "name": "Byttebod"
      },
      "geometry": {
        "type": "Point",
        "coordinates": [
          10.7863466,
          59.9072309
        ]
      },
      "id": "node/10079813116"
    }
  ]
}