<?xml version="1.0" encoding="UTF-8"?><kml xmlns="http://www.opengis.net/kml/2.2"><Document><name>overpass-turbo.eu export</name><description>Filtered OSM data converted to KML by overpass turbo.
Copyright: The data included in this document is from www.openstreetmap.org. The data is made available under ODbL.
Timestamp: 2025-10-30T12:27:05Z</description><Placemark><ExtendedData><Data name="@id"><value>way/91221174</value></Data><Data name="amenity"><value>shower</value></Data><Data name="building"><value>yes</value></Data><Data name="fee"><value>yes</value></Data><Data name="opening_hours"><value>Mo-Su 06:00-23:00</value></Data><Data name="supervised"><value>no</value></Data><Data name="@geometry"><value>center</value></Data></ExtendedData><Point><coordinates>17.3129534,62.3670286</coordinates></Point></Placemark><Placemark><ExtendedData><Data name="@id"><value>way/120944533</value></Data><Data name="access"><value>customers</value></Data><Data name="amenity"><value>shower</value></Data><Data name="building"><value>yes</value></Data><Data name="toilets:disposal"><value>flush</value></Data><Data name="@geometry"><value>center</value></Data></ExtendedData><Point><coordinates>11.4651829,58.1843773</coordinates></Point></Placemark><Placemark><ExtendedData><Data name="@id"><value>way/168929231</value></Data><Data name="amenity"><value>shower</value></Data><Data name="building"><value>yes</value></Data><Data name="source"><value>Bing</value></Data><Data name="@geometry"><value>center</value></Data></ExtendedData><Point><coordinates>18.6565898,60.125794</coordinates></Point></Placemark><Placemark><ExtendedData><Data name="@id"><value>way/186188147</value></Data><Data name="building"><value>yes</value></Data><Data name="amenity"><value>shower</value></Data><Data name="@geometry"><value>center</value></Data></ExtendedData><Point><coordinates>18.1183638,58.8806661</coordinates></Point></Placemark><Placemark><ExtendedData><Data name="@id"><value>way/222762671</value></Data><Data name="building:use"><value>service</value></Data><Data name="building"><value>service</value></Data><Data name="amenity"><value>shower</value></Data><Data name="@geometry"><value>center</value></Data></ExtendedData><Point><coordinates>18.8122102,59.4823374</coordinates></Point></Placemark><Placemark><name>Sjövattendusch</name><ExtendedData><Data name="@id"><value>way/242666967</value></Data><Data name="amenity"><value>shower</value></Data><Data name="building"><value>yes</value></Data><Data name="name"><value>Sjövattendusch</value></Data><Data name="@geometry"><value>center</value></Data></ExtendedData><Point><coordinates>18.6929564,60.2584521</coordinates></Point></Placemark><Placemark><ExtendedData><Data name="@id"><value>way/258583733</value></Data><Data name="amenity"><value>shower</value></Data><Data name="@geometry"><value>center</value></Data></ExtendedData><Point><coordinates>17.8810202,59.3710084</coordinates></Point></Placemark><Placemark><ExtendedData><Data name="@id"><value>way/273707387</value></Data><Data name="amenity"><value>shower</value></Data><Data name="building"><value>yes</value></Data><Data name="@geometry"><value>center</value></Data></ExtendedData><Point><coordinates>17.2189144,62.1850887</coordinates></Point></Placemark><Placemark><ExtendedData><Data name="@id"><value>way/290833669</value></Data><Data name="amenity"><value>shower</value></Data><Data name="building"><value>yes</value></Data><Data name="fixme"><value>tagging</value></Data><Data name="@geometry"><value>center</value></Data></ExtendedData><Point><coordinates>18.5181577,59.0362112</coordinates></Point></Placemark><Placemark><ExtendedData><Data name="@id"><value>way/305718644</value></Data><Data name="amenity"><value>shower</value></Data><Data name="building"><value>civic</value></Data><Data name="@geometry"><value>center</value></Data></ExtendedData><Point><coordinates>12.8888007,56.6465065</coordinates></Point></Placemark><Placemark><ExtendedData><Data name="@id"><value>way/441775553</value></Data><Data name="amenity"><value>shower</value></Data><Data name="building"><value>yes</value></Data><Data name="toilets"><value>yes</value></Data><Data name="@geometry"><value>center</value></Data></ExtendedData><Point><coordinates>13.4010212,57.7694066</coordinates></Point></Placemark><Placemark><description>Omklädningsrum</description><ExtendedData><Data name="@id"><value>node/454637683</value></Data><Data name="access"><value>yes</value></Data><Data name="amenity"><value>shower</value></Data><Data name="description"><value>Omklädningsrum</value></Data><Data name="fee"><value>no</value></Data><Data name="opening_hours"><value>Mo-Fr 07:00-21:00; Sa 09:00-20:30; Su 09:00-21:00</value></Data></ExtendedData><Point><coordinates>15.6423393,58.370809</coordinates></Point></Placemark><Placemark><ExtendedData><Data name="@id"><value>node/457298512</value></Data><Data name="amenity"><value>shower</value></Data></ExtendedData><Point><coordinates>15.0051533,58.5528647</coordinates></Point></Placemark><Placemark><ExtendedData><Data name="@id"><value>way/477274639</value></Data><Data name="comment"><value>dusch</value></Data><Data name="amenity"><value>shower</value></Data><Data name="building"><value>yes</value></Data><Data name="@geometry"><value>center</value></Data></ExtendedData><Point><coordinates>18.010573,59.2689912</coordinates></Point></Placemark><Placemark><ExtendedData><Data name="@id"><value>way/496650846</value></Data><Data name="amenity"><value>shower</value></Data><Data name="access"><value>customers</value></Data><Data name="building"><value>yes</value></Data><Data name="@geometry"><value>center</value></Data></ExtendedData><Point><coordinates>18.2061823,59.3316718</coordinates></Point></Placemark><Placemark><ExtendedData><Data name="@id"><value>way/510741258</value></Data><Data name="access"><value>yes</value></Data><Data name="amenity"><value>shower</value></Data><Data name="building"><value>yes</value></Data><Data name="fee"><value>yes</value></Data><Data name="male"><value>yes</value></Data><Data name="@geometry"><value>center</value></Data></ExtendedData><Point><coordinates>14.9788922,60.8266038</coordinates></Point></Placemark><Placemark><ExtendedData><Data name="@id"><value>way/510741259</value></Data><Data name="access"><value>yes</value></Data><Data name="amenity"><value>shower</value></Data><Data name="building"><value>yes</value></Data><Data name="fee"><value>yes</value></Data><Data name="female"><value>yes</value></Data><Data name="@geometry"><value>center</value></Data></ExtendedData><Point><coordinates>14.9789977,60.8264587</coordinates></Point></Placemark><Placemark><ExtendedData><Data name="@id"><value>way/513228677</value></Data><Data name="amenity"><value>shower</value></Data><Data name="@geometry"><value>center</value></Data></ExtendedData><Point><coordinates>12.2739722,58.9648992</coordinates></Point></Placemark><Placemark><ExtendedData><Data name="@id"><value>way/615697427</value></Data><Data name="access"><value>permissive</value></Data><Data name="amenity"><value>shower</value></Data><Data name="building"><value>yes</value></Data><Data name="@geometry"><value>center</value></Data></ExtendedData><Point><coordinates>16.6548176,58.000935</coordinates></Point></Placemark><Placemark><ExtendedData><Data name="@id"><value>way/660251867</value></Data><Data name="amenity"><value>shower</value></Data><Data name="@geometry"><value>center</value></Data></ExtendedData><Point><coordinates>16.7210311,62.0819592</coordinates></Point></Placemark><Placemark><ExtendedData><Data name="@id"><value>way/660251869</value></Data><Data name="amenity"><value>shower</value></Data><Data name="@geometry"><value>center</value></Data></ExtendedData><Point><coordinates>16.7175409,62.082584</coordinates></Point></Placemark><Placemark><ExtendedData><Data name="@id"><value>way/660251870</value></Data><Data name="amenity"><value>shower</value></Data><Data name="@geometry"><value>center</value></Data></ExtendedData><Point><coordinates>16.7195768,62.0829444</coordinates></Point></Placemark><Placemark><ExtendedData><Data name="@id"><value>way/660251871</value></Data><Data name="amenity"><value>shower</value></Data><Data name="@geometry"><value>center</value></Data></ExtendedData><Point><coordinates>16.7190081,62.0834555</coordinates></Point></Placemark><Placemark><ExtendedData><Data name="@id"><value>way/660251872</value></Data><Data name="amenity"><value>shower</value></Data><Data name="@geometry"><value>center</value></Data></ExtendedData><Point><coordinates>16.7184797,62.083355</coordinates></Point></Placemark><Placemark><ExtendedData><Data name="@id"><value>way/660251874</value></Data><Data name="amenity"><value>shower</value></Data><Data name="@geometry"><value>center</value></Data></ExtendedData><Point><coordinates>16.7186661,62.0828762</coordinates></Point></Placemark><Placemark><ExtendedData><Data name="@id"><value>way/690860038</value></Data><Data name="amenity"><value>shower</value></Data><Data name="indoor"><value>room</value></Data><Data name="level"><value>-1</value></Data><Data name="ref"><value>320</value></Data><Data name="@geometry"><value>center</value></Data></ExtendedData><Point><coordinates>17.3043322,62.4078526</coordinates></Point></Placemark><Placemark><ExtendedData><Data name="@id"><value>way/690861754</value></Data><Data name="amenity"><value>shower</value></Data><Data name="indoor"><value>room</value></Data><Data name="level"><value>-1</value></Data><Data name="ref"><value>325</value></Data><Data name="@geometry"><value>center</value></Data></ExtendedData><Point><coordinates>17.3044862,62.4077742</coordinates></Point></Placemark><Placemark><ExtendedData><Data name="@id"><value>way/697471425</value></Data><Data name="amenity"><value>shower</value></Data><Data name="@geometry"><value>center</value></Data></ExtendedData><Point><coordinates>18.0082601,59.3406657</coordinates></Point></Placemark><Placemark><ExtendedData><Data name="@id"><value>node/852972401</value></Data><Data name="access"><value>permissive</value></Data><Data name="amenity"><value>shower</value></Data><Data name="fee"><value>no</value></Data><Data name="shower"><value>yes</value></Data></ExtendedData><Point><coordinates>17.0552008,57.2734626</coordinates></Point></Placemark><Placemark><ExtendedData><Data name="@id"><value>node/853981663</value></Data><Data name="amenity"><value>shower</value></Data></ExtendedData><Point><coordinates>17.049622,57.2590086</coordinates></Point></Placemark><Placemark><ExtendedData><Data name="@id"><value>node/863423353</value></Data><Data name="amenity"><value>shower</value></Data></ExtendedData><Point><coordinates>18.558404,59.4077348</coordinates></Point></Placemark><Placemark><ExtendedData><Data name="@id"><value>way/1086397653</value></Data><Data name="access"><value>yes</value></Data><Data name="amenity"><value>shower</value></Data><Data name="@geometry"><value>center</value></Data></ExtendedData><Point><coordinates>16.3363572,56.6510487</coordinates></Point></Placemark><Placemark><ExtendedData><Data name="@id"><value>way/1087157548</value></Data><Data name="amenity"><value>shower</value></Data><Data name="building"><value>roof</value></Data><Data name="cold_water"><value>no</value></Data><Data name="female"><value>yes</value></Data><Data name="hot_water"><value>no</value></Data><Data name="male"><value>yes</value></Data><Data name="material"><value>wood</value></Data><Data name="operator"><value>Hätteboda Vildmarkscamping</value></Data><Data name="@geometry"><value>center</value></Data></ExtendedData><Point><coordinates>14.8602986,56.4905818</coordinates></Point></Placemark><Placemark><ExtendedData><Data name="@id"><value>node/1373205933</value></Data><Data name="access"><value>yes</value></Data><Data name="amenity"><value>shower</value></Data></ExtendedData><Point><coordinates>15.6625255,58.3981691</coordinates></Point></Placemark><Placemark><ExtendedData><Data name="@id"><value>node/1389941076</value></Data><Data name="access"><value>permissive</value></Data><Data name="amenity"><value>shower</value></Data><Data name="female"><value>yes</value></Data><Data name="male"><value>yes</value></Data><Data name="operator"><value>Wasahamnen</value></Data></ExtendedData><Point><coordinates>18.0951462,59.3265548</coordinates></Point></Placemark><Placemark><ExtendedData><Data name="@id"><value>node/1390114432</value></Data><Data name="amenity"><value>shower</value></Data></ExtendedData><Point><coordinates>13.0589564,55.6764951</coordinates></Point></Placemark><Placemark><ExtendedData><Data name="@id"><value>node/1413543322</value></Data><Data name="amenity"><value>shower</value></Data><Data name="source"><value>survey</value></Data></ExtendedData><Point><coordinates>18.1010319,59.4592527</coordinates></Point></Placemark><Placemark><ExtendedData><Data name="@id"><value>node/1413623887</value></Data><Data name="source"><value>survey</value></Data><Data name="amenity"><value>shower</value></Data></ExtendedData><Point><coordinates>18.1079855,59.4677541</coordinates></Point></Placemark><Placemark><ExtendedData><Data name="@id"><value>node/1719405845</value></Data><Data name="amenity"><value>shower</value></Data><Data name="fee"><value>yes</value></Data></ExtendedData><Point><coordinates>12.99968,55.6090129</coordinates></Point></Placemark><Placemark><ExtendedData><Data name="@id"><value>node/1767924564</value></Data><Data name="amenity"><value>shower</value></Data><Data name="source"><value>survey</value></Data></ExtendedData><Point><coordinates>14.9717828,60.7538272</coordinates></Point></Placemark><Placemark><ExtendedData><Data name="@id"><value>node/1952254485</value></Data><Data name="amenity"><value>shower</value></Data></ExtendedData><Point><coordinates>16.6318664,58.6383294</coordinates></Point></Placemark><Placemark><ExtendedData><Data name="@id"><value>node/1958648756</value></Data><Data name="amenity"><value>shower</value></Data></ExtendedData><Point><coordinates>13.0598535,55.6734646</coordinates></Point></Placemark><Placemark><name>dusch</name><ExtendedData><Data name="@id"><value>node/2123045105</value></Data><Data name="name"><value>dusch</value></Data><Data name="amenity"><value>shower</value></Data></ExtendedData><Point><coordinates>14.4549919,56.0663199</coordinates></Point></Placemark><Placemark><ExtendedData><Data name="@id"><value>node/2481999406</value></Data><Data name="amenity"><value>shower</value></Data></ExtendedData><Point><coordinates>15.6787558,58.3917217</coordinates></Point></Placemark><Placemark><ExtendedData><Data name="@id"><value>node/2488221725</value></Data><Data name="amenity"><value>shower</value></Data><Data name="source"><value>photo</value></Data></ExtendedData><Point><coordinates>18.1300297,59.4426106</coordinates></Point></Placemark><Placemark><ExtendedData><Data name="@id"><value>node/2501244242</value></Data><Data name="amenity"><value>shower</value></Data><Data name="male"><value>yes</value></Data></ExtendedData><Point><coordinates>18.6955034,60.2548485</coordinates></Point></Placemark><Placemark><ExtendedData><Data name="@id"><value>node/2501244243</value></Data><Data name="amenity"><value>shower</value></Data><Data name="female"><value>yes</value></Data></ExtendedData><Point><coordinates>18.6956664,60.2547517</coordinates></Point></Placemark><Placemark><ExtendedData><Data name="@id"><value>node/2603097538</value></Data><Data name="addr:city"><value>Sörsjön</value></Data><Data name="addr:country"><value>SE</value></Data><Data name="addr:housenumber"><value>33</value></Data><Data name="addr:postcode"><value>78069</value></Data><Data name="addr:street"><value>Nornäsvägen</value></Data><Data name="amenity"><value>shower</value></Data><Data name="website"><value>https://www.bygdegardarna.se/nornas/</value></Data></ExtendedData><Point><coordinates>13.2418759,61.4347868</coordinates></Point></Placemark><Placemark><ExtendedData><Data name="@id"><value>node/2915503186</value></Data><Data name="access"><value>customers</value></Data><Data name="amenity"><value>shower</value></Data><Data name="drinking_water"><value>yes</value></Data></ExtendedData><Point><coordinates>12.7087742,57.1265814</coordinates></Point></Placemark><Placemark><ExtendedData><Data name="@id"><value>node/2929703267</value></Data><Data name="access"><value>permissive</value></Data><Data name="amenity"><value>shower</value></Data><Data name="hot_water"><value>yes</value></Data><Data name="unisex"><value>yes</value></Data></ExtendedData><Point><coordinates>18.6945957,60.2555773</coordinates></Point></Placemark><Placemark><ExtendedData><Data name="@id"><value>node/2942214102</value></Data><Data name="amenity"><value>shower</value></Data></ExtendedData><Point><coordinates>17.5399587,59.3300039</coordinates></Point></Placemark><Placemark><ExtendedData><Data name="@id"><value>node/2980025658</value></Data><Data name="amenity"><value>shower</value></Data></ExtendedData><Point><coordinates>11.635385,57.7185626</coordinates></Point></Placemark><Placemark><ExtendedData><Data name="@id"><value>node/2988403551</value></Data><Data name="amenity"><value>shower</value></Data></ExtendedData><Point><coordinates>15.6247857,58.5393354</coordinates></Point></Placemark><Placemark><ExtendedData><Data name="@id"><value>node/3051883779</value></Data><Data name="amenity"><value>shower</value></Data></ExtendedData><Point><coordinates>15.4662637,58.7489519</coordinates></Point></Placemark><Placemark><ExtendedData><Data name="@id"><value>node/3053275074</value></Data><Data name="access"><value>customers</value></Data><Data name="amenity"><value>shower</value></Data><Data name="hot_water"><value>yes</value></Data></ExtendedData><Point><coordinates>18.4036433,59.1359112</coordinates></Point></Placemark><Placemark><ExtendedData><Data name="@id"><value>node/3053338688</value></Data><Data name="amenity"><value>shower</value></Data></ExtendedData><Point><coordinates>18.3055917,59.1208961</coordinates></Point></Placemark><Placemark><ExtendedData><Data name="@id"><value>node/3053488211</value></Data><Data name="amenity"><value>shower</value></Data></ExtendedData><Point><coordinates>17.9510962,58.9000618</coordinates></Point></Placemark><Placemark><ExtendedData><Data name="@id"><value>node/3053786281</value></Data><Data name="amenity"><value>shower</value></Data><Data name="seamark:small_craft_facility:category"><value>showers</value></Data><Data name="seamark:type"><value>small_craft_facility</value></Data></ExtendedData><Point><coordinates>18.9294504,59.2912348</coordinates></Point></Placemark><Placemark><ExtendedData><Data name="@id"><value>node/3234197272</value></Data><Data name="amenity"><value>shower</value></Data><Data name="fee"><value>no</value></Data></ExtendedData><Point><coordinates>18.0272901,59.3276169</coordinates></Point></Placemark><Placemark><ExtendedData><Data name="@id"><value>node/3513574676</value></Data><Data name="amenity"><value>shower</value></Data><Data name="capacity"><value>1</value></Data><Data name="charge"><value>20 SEK</value></Data><Data name="fee"><value>yes</value></Data><Data name="opening_hours"><value>24/7</value></Data><Data name="operator"><value>Danfo</value></Data><Data name="payment:cash"><value>no</value></Data><Data name="payment:coins"><value>no</value></Data><Data name="payment:contactless"><value>yes</value></Data><Data name="payment:credit_cards"><value>yes</value></Data><Data name="payment:debit_cards"><value>yes</value></Data><Data name="wheelchair"><value>no</value></Data></ExtendedData><Point><coordinates>13.16251,55.371293</coordinates></Point></Placemark><Placemark><ExtendedData><Data name="@id"><value>node/3529981381</value></Data><Data name="access"><value>yes</value></Data><Data name="amenity"><value>shower</value></Data><Data name="disused"><value>yes</value></Data></ExtendedData><Point><coordinates>18.1788608,59.3553182</coordinates></Point></Placemark><Placemark><ExtendedData><Data name="@id"><value>node/3533796657</value></Data><Data name="amenity"><value>shower</value></Data></ExtendedData><Point><coordinates>13.8208066,58.7154686</coordinates></Point></Placemark><Placemark><ExtendedData><Data name="@id"><value>node/3649599142</value></Data><Data name="amenity"><value>shower</value></Data></ExtendedData><Point><coordinates>20.9743343,64.1565597</coordinates></Point></Placemark><Placemark><ExtendedData><Data name="@id"><value>node/3654824758</value></Data><Data name="male"><value>yes</value></Data><Data name="female"><value>no</value></Data><Data name="access"><value>customers</value></Data><Data name="amenity"><value>shower</value></Data></ExtendedData><Point><coordinates>17.1136119,65.1000726</coordinates></Point></Placemark><Placemark><ExtendedData><Data name="@id"><value>node/3658819691</value></Data><Data name="access"><value>yes</value></Data><Data name="amenity"><value>shower</value></Data><Data name="fee"><value>no</value></Data><Data name="supervised"><value>no</value></Data><Data name="unisex"><value>yes</value></Data></ExtendedData><Point><coordinates>16.1724257,64.1074722</coordinates></Point></Placemark><Placemark><ExtendedData><Data name="@id"><value>node/3660120461</value></Data><Data name="access"><value>customers</value></Data><Data name="amenity"><value>shower</value></Data><Data name="fee"><value>yes</value></Data><Data name="operator"><value>Getteröns Camping</value></Data></ExtendedData><Point><coordinates>12.2162091,57.1159713</coordinates></Point></Placemark><Placemark><ExtendedData><Data name="@id"><value>node/3660120553</value></Data><Data name="access"><value>customers</value></Data><Data name="amenity"><value>shower</value></Data><Data name="fee"><value>yes</value></Data><Data name="operator"><value>Getteröns Camping</value></Data></ExtendedData><Point><coordinates>12.2138239,57.1174568</coordinates></Point></Placemark><Placemark><ExtendedData><Data name="@id"><value>node/3660120565</value></Data><Data name="access"><value>customers</value></Data><Data name="amenity"><value>shower</value></Data><Data name="fee"><value>yes</value></Data><Data name="operator"><value>Getteröns Camping</value></Data></ExtendedData><Point><coordinates>12.2154065,57.1175767</coordinates></Point></Placemark><Placemark><ExtendedData><Data name="@id"><value>node/3660213814</value></Data><Data name="access"><value>customers</value></Data><Data name="amenity"><value>shower</value></Data><Data name="fee"><value>no</value></Data><Data name="operator"><value>Liseberg</value></Data></ExtendedData><Point><coordinates>12.0296387,57.7031623</coordinates></Point></Placemark><Placemark><ExtendedData><Data name="@id"><value>node/3660236453</value></Data><Data name="access"><value>customers</value></Data><Data name="amenity"><value>shower</value></Data><Data name="fee"><value>no</value></Data><Data name="operator"><value>Jönköping SweCamp Villa Björkhagen</value></Data><Data name="wheelchair"><value>no</value></Data></ExtendedData><Point><coordinates>14.2182367,57.7870046</coordinates></Point></Placemark><Placemark><ExtendedData><Data name="@id"><value>node/3660283291</value></Data><Data name="access"><value>customers</value></Data><Data name="amenity"><value>shower</value></Data><Data name="fee"><value>yes</value></Data><Data name="operator"><value>Vita Sands Camping</value></Data></ExtendedData><Point><coordinates>16.2238993,56.5687722</coordinates></Point></Placemark><Placemark><ExtendedData><Data name="@id"><value>node/3691586301</value></Data><Data name="amenity"><value>shower</value></Data></ExtendedData><Point><coordinates>14.2894582,58.9097463</coordinates></Point></Placemark><Placemark><ExtendedData><Data name="@id"><value>node/3693444214</value></Data><Data name="amenity"><value>shower</value></Data></ExtendedData><Point><coordinates>14.8604484,59.1748715</coordinates></Point></Placemark><Placemark><ExtendedData><Data name="@id"><value>node/3694084919</value></Data><Data name="amenity"><value>shower</value></Data></ExtendedData><Point><coordinates>17.2564184,59.2636945</coordinates></Point></Placemark><Placemark><ExtendedData><Data name="@id"><value>node/3694128387</value></Data><Data name="amenity"><value>shower</value></Data></ExtendedData><Point><coordinates>17.8847844,59.231258</coordinates></Point></Placemark><Placemark><ExtendedData><Data name="@id"><value>node/3700214495</value></Data><Data name="amenity"><value>shower</value></Data></ExtendedData><Point><coordinates>13.3420144,59.5461576</coordinates></Point></Placemark><Placemark><ExtendedData><Data name="@id"><value>node/3702499013</value></Data><Data name="amenity"><value>shower</value></Data><Data name="opening_hours"><value>Jun-Aug</value></Data></ExtendedData><Point><coordinates>13.667029,55.5891832</coordinates></Point></Placemark><Placemark><ExtendedData><Data name="@id"><value>node/3704435438</value></Data><Data name="amenity"><value>shower</value></Data></ExtendedData><Point><coordinates>12.516421,58.6867646</coordinates></Point></Placemark><Placemark><ExtendedData><Data name="@id"><value>node/3728347207</value></Data><Data name="access"><value>customers</value></Data><Data name="amenity"><value>shower</value></Data></ExtendedData><Point><coordinates>14.0755076,56.6598914</coordinates></Point></Placemark><Placemark><ExtendedData><Data name="@id"><value>node/3804351516</value></Data><Data name="amenity"><value>shower</value></Data><Data name="fee"><value>no</value></Data><Data name="supervised"><value>no</value></Data><Data name="wheelchair"><value>no</value></Data></ExtendedData><Point><coordinates>14.1534247,56.5803312</coordinates></Point></Placemark><Placemark><ExtendedData><Data name="@id"><value>node/3821475059</value></Data><Data name="shower"><value>outdoor</value></Data><Data name="amenity"><value>shower</value></Data><Data name="fee"><value>no</value></Data></ExtendedData><Point><coordinates>12.9411604,55.5975918</coordinates></Point></Placemark><Placemark><ExtendedData><Data name="@id"><value>node/3821484356</value></Data><Data name="amenity"><value>shower</value></Data></ExtendedData><Point><coordinates>12.7294354,56.6471016</coordinates></Point></Placemark><Placemark><ExtendedData><Data name="@id"><value>node/3876366973</value></Data><Data name="amenity"><value>shower</value></Data><Data name="fee"><value>no</value></Data><Data name="opening_hours"><value>Jun-Aug</value></Data><Data name="shower"><value>outdoor</value></Data><Data name="unisex"><value>yes</value></Data></ExtendedData><Point><coordinates>17.8511799,59.5717647</coordinates></Point></Placemark><Placemark><ExtendedData><Data name="@id"><value>node/3926618575</value></Data><Data name="amenity"><value>shower</value></Data></ExtendedData><Point><coordinates>14.7178161,56.5086313</coordinates></Point></Placemark><Placemark><ExtendedData><Data name="@id"><value>node/4109121334</value></Data><Data name="amenity"><value>shower</value></Data><Data name="fee"><value>no</value></Data><Data name="location"><value>outdoor</value></Data><Data name="supervised"><value>no</value></Data></ExtendedData><Point><coordinates>18.0085647,59.2818908</coordinates></Point></Placemark><Placemark><ExtendedData><Data name="@id"><value>node/4203230780</value></Data><Data name="amenity"><value>shower</value></Data></ExtendedData><Point><coordinates>13.5221292,58.1749092</coordinates></Point></Placemark><Placemark><ExtendedData><Data name="@id"><value>node/4216187340</value></Data><Data name="access"><value>customers</value></Data><Data name="amenity"><value>shower</value></Data><Data name="wheelchair"><value>yes</value></Data></ExtendedData><Point><coordinates>12.8084339,55.9072654</coordinates></Point></Placemark><Placemark><ExtendedData><Data name="@id"><value>node/4226872306</value></Data><Data name="amenity"><value>shower</value></Data></ExtendedData><Point><coordinates>14.9683577,56.118929</coordinates></Point></Placemark><Placemark><ExtendedData><Data name="@id"><value>node/4227125989</value></Data><Data name="amenity"><value>shower</value></Data><Data name="seasonal"><value>yes</value></Data></ExtendedData><Point><coordinates>19.9119739,64.040669</coordinates></Point></Placemark><Placemark><ExtendedData><Data name="@id"><value>node/4271563815</value></Data><Data name="access"><value>customers</value></Data><Data name="amenity"><value>shower</value></Data><Data name="hot_water"><value>fee</value></Data><Data name="location"><value>indoor</value></Data><Data name="male"><value>yes</value></Data></ExtendedData><Point><coordinates>14.3375454,55.5690226</coordinates></Point></Placemark><Placemark><ExtendedData><Data name="@id"><value>node/4271563816</value></Data><Data name="access"><value>customers</value></Data><Data name="amenity"><value>shower</value></Data><Data name="female"><value>yes</value></Data><Data name="hot_water"><value>fee</value></Data><Data name="location"><value>indoor</value></Data></ExtendedData><Point><coordinates>14.3375186,55.569244</coordinates></Point></Placemark><Placemark><ExtendedData><Data name="@id"><value>node/4307028592</value></Data><Data name="access"><value>permissive</value></Data><Data name="amenity"><value>shower</value></Data><Data name="level"><value>-1</value></Data><Data name="wheelchair"><value>no</value></Data></ExtendedData><Point><coordinates>18.1621835,68.4199737</coordinates></Point></Placemark><Placemark><ExtendedData><Data name="@id"><value>node/4310359589</value></Data><Data name="access"><value>yes</value></Data><Data name="amenity"><value>shower</value></Data><Data name="opening_hours"><value>24/7</value></Data></ExtendedData><Point><coordinates>18.1851466,68.2040432</coordinates></Point></Placemark><Placemark><ExtendedData><Data name="@id"><value>node/4325890448</value></Data><Data name="amenity"><value>shower</value></Data></ExtendedData><Point><coordinates>20.2232391,63.8258542</coordinates></Point></Placemark><Placemark><ExtendedData><Data name="@id"><value>node/4339502715</value></Data><Data name="amenity"><value>shower</value></Data></ExtendedData><Point><coordinates>17.6419701,59.8524065</coordinates></Point></Placemark><Placemark><ExtendedData><Data name="@id"><value>node/4340094565</value></Data><Data name="amenity"><value>shower</value></Data></ExtendedData><Point><coordinates>17.6209662,59.8622642</coordinates></Point></Placemark><Placemark><ExtendedData><Data name="@id"><value>node/4345423642</value></Data><Data name="amenity"><value>shower</value></Data></ExtendedData><Point><coordinates>17.6344425,59.7833428</coordinates></Point></Placemark><Placemark><ExtendedData><Data name="@id"><value>node/4345436107</value></Data><Data name="amenity"><value>shower</value></Data><Data name="fee"><value>no</value></Data><Data name="supervised"><value>no</value></Data></ExtendedData><Point><coordinates>17.6246831,59.9047985</coordinates></Point></Placemark><Placemark><ExtendedData><Data name="@id"><value>node/4348401290</value></Data><Data name="access"><value>yes</value></Data><Data name="amenity"><value>shower</value></Data><Data name="opening_hours"><value>24/7</value></Data><Data name="wheelchair"><value>no</value></Data></ExtendedData><Point><coordinates>18.7920295,68.3578433</coordinates></Point></Placemark><Placemark><ExtendedData><Data name="@id"><value>node/4348589703</value></Data><Data name="amenity"><value>shower</value></Data></ExtendedData><Point><coordinates>20.2471685,67.8604736</coordinates></Point></Placemark><Placemark><ExtendedData><Data name="@id"><value>node/4362460144</value></Data><Data name="amenity"><value>shower</value></Data></ExtendedData><Point><coordinates>17.6953985,59.81272</coordinates></Point></Placemark><Placemark><ExtendedData><Data name="@id"><value>node/4497519147</value></Data><Data name="amenity"><value>shower</value></Data><Data name="fee"><value>no</value></Data></ExtendedData><Point><coordinates>11.6352448,57.6922859</coordinates></Point></Placemark><Placemark><ExtendedData><Data name="@id"><value>node/4502314873</value></Data><Data name="opening_hours"><value>Jun-Aug</value></Data><Data name="amenity"><value>shower</value></Data></ExtendedData><Point><coordinates>18.0766918,59.2538438</coordinates></Point></Placemark><Placemark><ExtendedData><Data name="@id"><value>node/4633538718</value></Data><Data name="amenity"><value>shower</value></Data></ExtendedData><Point><coordinates>14.7773301,60.7849899</coordinates></Point></Placemark><Placemark><name>Dusch</name><ExtendedData><Data name="@id"><value>node/4639682109</value></Data><Data name="amenity"><value>shower</value></Data><Data name="fee"><value>no</value></Data><Data name="name"><value>Dusch</value></Data><Data name="supervised"><value>no</value></Data></ExtendedData><Point><coordinates>18.0961826,59.3437514</coordinates></Point></Placemark><Placemark><ExtendedData><Data name="@id"><value>node/4935674181</value></Data><Data name="access"><value>customers</value></Data><Data name="amenity"><value>shower</value></Data></ExtendedData><Point><coordinates>13.6094873,58.395548</coordinates></Point></Placemark><Placemark><ExtendedData><Data name="@id"><value>node/4973725977</value></Data><Data name="access"><value>customers</value></Data><Data name="amenity"><value>shower</value></Data></ExtendedData><Point><coordinates>15.0640706,59.0639432</coordinates></Point></Placemark><Placemark><ExtendedData><Data name="@id"><value>node/4977754848</value></Data><Data name="amenity"><value>shower</value></Data></ExtendedData><Point><coordinates>16.1301394,56.4592405</coordinates></Point></Placemark><Placemark><ExtendedData><Data name="@id"><value>node/4987668184</value></Data><Data name="amenity"><value>shower</value></Data></ExtendedData><Point><coordinates>12.1397538,59.3678095</coordinates></Point></Placemark><Placemark><ExtendedData><Data name="@id"><value>node/4993171090</value></Data><Data name="amenity"><value>shower</value></Data><Data name="man_made"><value>drinking_fountain</value></Data></ExtendedData><Point><coordinates>12.9073609,55.5755293</coordinates></Point></Placemark><Placemark><ExtendedData><Data name="@id"><value>node/5009971854</value></Data><Data name="amenity"><value>shower</value></Data></ExtendedData><Point><coordinates>16.5148303,59.9547699</coordinates></Point></Placemark><Placemark><ExtendedData><Data name="@id"><value>node/5017014736</value></Data><Data name="amenity"><value>shower</value></Data></ExtendedData><Point><coordinates>16.0650842,59.473621</coordinates></Point></Placemark><Placemark><ExtendedData><Data name="@id"><value>node/5018793327</value></Data><Data name="amenity"><value>shower</value></Data></ExtendedData><Point><coordinates>16.4375545,59.4513209</coordinates></Point></Placemark><Placemark><ExtendedData><Data name="@id"><value>node/5029647399</value></Data><Data name="unisex"><value>yes</value></Data><Data name="amenity"><value>shower</value></Data></ExtendedData><Point><coordinates>14.017913,58.9785124</coordinates></Point></Placemark><Placemark><ExtendedData><Data name="@id"><value>node/5029647643</value></Data><Data name="unisex"><value>yes</value></Data><Data name="amenity"><value>shower</value></Data></ExtendedData><Point><coordinates>14.018037,58.9782045</coordinates></Point></Placemark><Placemark><ExtendedData><Data name="@id"><value>node/5224583184</value></Data><Data name="amenity"><value>shower</value></Data></ExtendedData><Point><coordinates>19.0176717,63.1898785</coordinates></Point></Placemark><Placemark><ExtendedData><Data name="@id"><value>node/5403558430</value></Data><Data name="amenity"><value>shower</value></Data></ExtendedData><Point><coordinates>16.195437,58.5836074</coordinates></Point></Placemark><Placemark><ExtendedData><Data name="@id"><value>node/5416149886</value></Data><Data name="access"><value>customers</value></Data><Data name="amenity"><value>shower</value></Data></ExtendedData><Point><coordinates>11.1976272,58.7209082</coordinates></Point></Placemark><Placemark><ExtendedData><Data name="@id"><value>node/5422171027</value></Data><Data name="unisex"><value>yes</value></Data><Data name="amenity"><value>shower</value></Data><Data name="fee"><value>no</value></Data></ExtendedData><Point><coordinates>18.1324042,59.2696743</coordinates></Point></Placemark><Placemark><ExtendedData><Data name="@id"><value>node/5762558357</value></Data><Data name="amenity"><value>shower</value></Data><Data name="fee"><value>no</value></Data><Data name="operator"><value>Kronoskogsbadet</value></Data><Data name="supervised"><value>yes</value></Data></ExtendedData><Point><coordinates>13.9512824,56.8421213</coordinates></Point></Placemark><Placemark><ExtendedData><Data name="@id"><value>node/5765421881</value></Data><Data name="fee"><value>no</value></Data><Data name="description:en"><value>Cold shower, no wind shield.</value></Data><Data name="access"><value>yes</value></Data><Data name="amenity"><value>shower</value></Data></ExtendedData><Point><coordinates>11.7340175,57.7417301</coordinates></Point></Placemark><Placemark><ExtendedData><Data name="@id"><value>node/5777934220</value></Data><Data name="amenity"><value>shower</value></Data><Data name="fee"><value>yes</value></Data></ExtendedData><Point><coordinates>11.230746,59.0075987</coordinates></Point></Placemark><Placemark><ExtendedData><Data name="@id"><value>node/5827145033</value></Data><Data name="amenity"><value>shower</value></Data></ExtendedData><Point><coordinates>12.8373732,56.2670987</coordinates></Point></Placemark><Placemark><ExtendedData><Data name="@id"><value>node/5827145035</value></Data><Data name="amenity"><value>shower</value></Data></ExtendedData><Point><coordinates>12.8362773,56.2647707</coordinates></Point></Placemark><Placemark><ExtendedData><Data name="@id"><value>node/5827145039</value></Data><Data name="amenity"><value>shower</value></Data></ExtendedData><Point><coordinates>12.833976,56.260442</coordinates></Point></Placemark><Placemark><ExtendedData><Data name="@id"><value>node/5834272034</value></Data><Data name="amenity"><value>shower</value></Data></ExtendedData><Point><coordinates>13.2091586,55.3637204</coordinates></Point></Placemark><Placemark><ExtendedData><Data name="@id"><value>node/5837957153</value></Data><Data name="access"><value>customers</value></Data><Data name="amenity"><value>shower</value></Data><Data name="operator"><value>Langholmens Husbilcamping</value></Data></ExtendedData><Point><coordinates>18.0325206,59.3203892</coordinates></Point></Placemark><Placemark><ExtendedData><Data name="@id"><value>node/5838997376</value></Data><Data name="amenity"><value>shower</value></Data></ExtendedData><Point><coordinates>12.7834765,56.4534752</coordinates></Point></Placemark><Placemark><ExtendedData><Data name="@id"><value>node/5851927398</value></Data><Data name="amenity"><value>shower</value></Data></ExtendedData><Point><coordinates>16.7198342,56.8827406</coordinates></Point></Placemark><Placemark><ExtendedData><Data name="@id"><value>node/5857079278</value></Data><Data name="amenity"><value>shower</value></Data></ExtendedData><Point><coordinates>12.5966755,59.625201</coordinates></Point></Placemark><Placemark><ExtendedData><Data name="@id"><value>node/5857079312</value></Data><Data name="amenity"><value>shower</value></Data></ExtendedData><Point><coordinates>12.6064226,59.6230228</coordinates></Point></Placemark><Placemark><ExtendedData><Data name="@id"><value>node/5867171586</value></Data><Data name="access"><value>yes</value></Data><Data name="amenity"><value>shower</value></Data><Data name="fee"><value>no</value></Data><Data name="opening_hours"><value>24/7</value></Data><Data name="unisex"><value>yes</value></Data></ExtendedData><Point><coordinates>15.1749529,59.2831005</coordinates></Point></Placemark><Placemark><ExtendedData><Data name="@id"><value>node/5929404524</value></Data><Data name="amenity"><value>shower</value></Data></ExtendedData><Point><coordinates>14.5360044,59.3212699</coordinates></Point></Placemark><Placemark><ExtendedData><Data name="@id"><value>node/6131145644</value></Data><Data name="amenity"><value>shower</value></Data></ExtendedData><Point><coordinates>17.7255301,59.6247632</coordinates></Point></Placemark><Placemark><ExtendedData><Data name="@id"><value>node/6136077500</value></Data><Data name="amenity"><value>shower</value></Data></ExtendedData><Point><coordinates>16.2806204,56.6488331</coordinates></Point></Placemark><Placemark><ExtendedData><Data name="@id"><value>node/6166308005</value></Data><Data name="supervised"><value>no</value></Data><Data name="operator"><value>Mönsterås kommun</value></Data><Data name="opening_hours"><value>24/7</value></Data><Data name="access"><value>yes</value></Data><Data name="amenity"><value>shower</value></Data><Data name="fee"><value>no</value></Data></ExtendedData><Point><coordinates>16.4467227,56.9626883</coordinates></Point></Placemark><Placemark><ExtendedData><Data name="@id"><value>node/6181743794</value></Data><Data name="amenity"><value>shower</value></Data></ExtendedData><Point><coordinates>16.716814,62.0829745</coordinates></Point></Placemark><Placemark><ExtendedData><Data name="@id"><value>node/6576670585</value></Data><Data name="amenity"><value>shower</value></Data></ExtendedData><Point><coordinates>17.0273795,59.3780346</coordinates></Point></Placemark><Placemark><ExtendedData><Data name="@id"><value>node/6605120685</value></Data><Data name="amenity"><value>shower</value></Data></ExtendedData><Point><coordinates>13.4878374,59.3684132</coordinates></Point></Placemark><Placemark><ExtendedData><Data name="@id"><value>node/6627386088</value></Data><Data name="amenity"><value>shower</value></Data></ExtendedData><Point><coordinates>12.814456,56.2369347</coordinates></Point></Placemark><Placemark><ExtendedData><Data name="@id"><value>node/6641718512</value></Data><Data name="access"><value>permissive</value></Data><Data name="amenity"><value>shower</value></Data><Data name="fee"><value>no</value></Data><Data name="supervised"><value>no</value></Data></ExtendedData><Point><coordinates>12.6434005,56.7268197</coordinates></Point></Placemark><Placemark><ExtendedData><Data name="@id"><value>node/6652865512</value></Data><Data name="amenity"><value>shower</value></Data></ExtendedData><Point><coordinates>11.5850384,57.8866292</coordinates></Point></Placemark><Placemark><ExtendedData><Data name="@id"><value>node/6653560208</value></Data><Data name="amenity"><value>shower</value></Data><Data name="fee"><value>no</value></Data><Data name="hot_water"><value>no</value></Data><Data name="location"><value>outdoor</value></Data><Data name="opening_hours"><value>24/7</value></Data><Data name="supervised"><value>no</value></Data><Data name="unisex"><value>yes</value></Data></ExtendedData><Point><coordinates>11.7034448,58.4310704</coordinates></Point></Placemark><Placemark><ExtendedData><Data name="@id"><value>node/6653560212</value></Data><Data name="access"><value>key</value></Data><Data name="amenity"><value>shower</value></Data><Data name="fee"><value>yes</value></Data><Data name="hot_water"><value>yes</value></Data><Data name="location"><value>indoor</value></Data><Data name="supervised"><value>yes</value></Data><Data name="unisex"><value>yes</value></Data></ExtendedData><Point><coordinates>11.7035625,58.4311552</coordinates></Point></Placemark><Placemark><ExtendedData><Data name="@id"><value>node/6668178283</value></Data><Data name="access"><value>yes</value></Data><Data name="amenity"><value>shower</value></Data><Data name="fee"><value>no</value></Data><Data name="opening_hours"><value>24/7</value></Data></ExtendedData><Point><coordinates>14.5948672,56.3516622</coordinates></Point></Placemark><Placemark><ExtendedData><Data name="@id"><value>node/6696654699</value></Data><Data name="access"><value>customers</value></Data><Data name="amenity"><value>shower</value></Data></ExtendedData><Point><coordinates>17.9123362,59.8335773</coordinates></Point></Placemark><Placemark><ExtendedData><Data name="@id"><value>node/6696654700</value></Data><Data name="access"><value>customers</value></Data><Data name="amenity"><value>shower</value></Data><Data name="operator"><value>Fjällnora Friluftsgård</value></Data><Data name="unisex"><value>yes</value></Data></ExtendedData><Point><coordinates>17.9122867,59.8358153</coordinates></Point></Placemark><Placemark><ExtendedData><Data name="@id"><value>node/6703430269</value></Data><Data name="amenity"><value>shower</value></Data></ExtendedData><Point><coordinates>12.7575446,55.9670162</coordinates></Point></Placemark><Placemark><ExtendedData><Data name="@id"><value>node/6708246952</value></Data><Data name="amenity"><value>shower</value></Data></ExtendedData><Point><coordinates>14.9754998,58.7846423</coordinates></Point></Placemark><Placemark><ExtendedData><Data name="@id"><value>node/6717377109</value></Data><Data name="access"><value>customers</value></Data><Data name="amenity"><value>shower</value></Data><Data name="female"><value>yes</value></Data><Data name="male"><value>yes</value></Data><Data name="operator"><value>Nikkaluaokta Sarri AB</value></Data></ExtendedData><Point><coordinates>19.0136164,67.8509933</coordinates></Point></Placemark><Placemark><ExtendedData><Data name="@id"><value>node/6721090541</value></Data><Data name="amenity"><value>shower</value></Data></ExtendedData><Point><coordinates>15.429005,59.9415178</coordinates></Point></Placemark><Placemark><ExtendedData><Data name="@id"><value>node/6724974547</value></Data><Data name="amenity"><value>shower</value></Data><Data name="wheelchair"><value>shower</value></Data></ExtendedData><Point><coordinates>16.8625747,59.5677444</coordinates></Point></Placemark><Placemark><ExtendedData><Data name="@id"><value>node/6724974550</value></Data><Data name="amenity"><value>shower</value></Data></ExtendedData><Point><coordinates>16.8581772,59.5683907</coordinates></Point></Placemark><Placemark><ExtendedData><Data name="@id"><value>node/6765703362</value></Data><Data name="amenity"><value>shower</value></Data></ExtendedData><Point><coordinates>12.7193775,59.0454267</coordinates></Point></Placemark><Placemark><ExtendedData><Data name="@id"><value>node/6805787891</value></Data><Data name="hot_water"><value>yes</value></Data><Data name="amenity"><value>shower</value></Data><Data name="fee"><value>no</value></Data></ExtendedData><Point><coordinates>13.2008543,58.6905013</coordinates></Point></Placemark><Placemark><ExtendedData><Data name="@id"><value>node/6823947999</value></Data><Data name="amenity"><value>shower</value></Data><Data name="opening_hours"><value>11:00-17:00</value></Data></ExtendedData><Point><coordinates>17.4172726,62.7354072</coordinates></Point></Placemark><Placemark><ExtendedData><Data name="@id"><value>node/6957520585</value></Data><Data name="amenity"><value>shower</value></Data></ExtendedData><Point><coordinates>13.0760964,63.3990251</coordinates></Point></Placemark><Placemark><ExtendedData><Data name="@id"><value>node/7008591888</value></Data><Data name="name:en"><value>close in winter</value></Data><Data name="amenity"><value>shower</value></Data></ExtendedData><Point><coordinates>17.5005174,62.1631325</coordinates></Point></Placemark><Placemark><ExtendedData><Data name="@id"><value>node/7101756303</value></Data><Data name="amenity"><value>shower</value></Data></ExtendedData><Point><coordinates>18.3580137,63.170064</coordinates></Point></Placemark><Placemark><ExtendedData><Data name="@id"><value>node/7124827795</value></Data><Data name="amenity"><value>shower</value></Data></ExtendedData><Point><coordinates>17.3115486,59.0809694</coordinates></Point></Placemark><Placemark><ExtendedData><Data name="@id"><value>node/7141411809</value></Data><Data name="amenity"><value>shower</value></Data></ExtendedData><Point><coordinates>18.9181768,59.2921202</coordinates></Point></Placemark><Placemark><ExtendedData><Data name="@id"><value>node/7154071129</value></Data><Data name="access"><value>yes</value></Data><Data name="amenity"><value>shower</value></Data><Data name="check_date"><value>2020-01-23</value></Data></ExtendedData><Point><coordinates>18.0423485,59.3398807</coordinates></Point></Placemark><Placemark><ExtendedData><Data name="@id"><value>node/7161217306</value></Data><Data name="access"><value>yes</value></Data><Data name="amenity"><value>shower</value></Data><Data name="unisex"><value>yes</value></Data></ExtendedData><Point><coordinates>18.3768962,59.3244999</coordinates></Point></Placemark><Placemark><ExtendedData><Data name="@id"><value>node/7316119661</value></Data><Data name="access"><value>customers</value></Data><Data name="amenity"><value>shower</value></Data></ExtendedData><Point><coordinates>14.4411033,62.8091741</coordinates></Point></Placemark><Placemark><ExtendedData><Data name="@id"><value>node/7319663192</value></Data><Data name="amenity"><value>shower</value></Data></ExtendedData><Point><coordinates>12.3711329,59.5077564</coordinates></Point></Placemark><Placemark><ExtendedData><Data name="@id"><value>node/7319673663</value></Data><Data name="amenity"><value>shower</value></Data></ExtendedData><Point><coordinates>13.1676615,56.3957351</coordinates></Point></Placemark><Placemark><ExtendedData><Data name="@id"><value>node/7319711274</value></Data><Data name="hot_water"><value>yes</value></Data><Data name="amenity"><value>shower</value></Data><Data name="fee"><value>no</value></Data></ExtendedData><Point><coordinates>13.6720909,62.4082532</coordinates></Point></Placemark><Placemark><ExtendedData><Data name="@id"><value>node/7319711278</value></Data><Data name="amenity"><value>shower</value></Data></ExtendedData><Point><coordinates>14.5976717,58.6799398</coordinates></Point></Placemark><Placemark><ExtendedData><Data name="@id"><value>node/7319712599</value></Data><Data name="amenity"><value>shower</value></Data><Data name="hot_water"><value>yes</value></Data></ExtendedData><Point><coordinates>14.045098,57.1907472</coordinates></Point></Placemark><Placemark><ExtendedData><Data name="@id"><value>node/7319726629</value></Data><Data name="amenity"><value>shower</value></Data></ExtendedData><Point><coordinates>18.5388114,62.9706423</coordinates></Point></Placemark><Placemark><ExtendedData><Data name="@id"><value>node/7319737020</value></Data><Data name="access"><value>customers</value></Data><Data name="amenity"><value>shower</value></Data></ExtendedData><Point><coordinates>13.5654203,55.9021566</coordinates></Point></Placemark><Placemark><description>outside</description><ExtendedData><Data name="@id"><value>node/7466403146</value></Data><Data name="amenity"><value>shower</value></Data><Data name="description"><value>outside</value></Data></ExtendedData><Point><coordinates>12.5443382,56.2148447</coordinates></Point></Placemark><Placemark><ExtendedData><Data name="@id"><value>node/7556858748</value></Data><Data name="amenity"><value>shower</value></Data></ExtendedData><Point><coordinates>18.0599918,59.285353</coordinates></Point></Placemark><Placemark><ExtendedData><Data name="@id"><value>node/7569482687</value></Data><Data name="survey:date"><value>2020-05-29</value></Data><Data name="amenity"><value>shower</value></Data><Data name="access"><value>yes</value></Data></ExtendedData><Point><coordinates>18.0595096,59.2962845</coordinates></Point></Placemark><Placemark><ExtendedData><Data name="@id"><value>node/7619218291</value></Data><Data name="amenity"><value>shower</value></Data></ExtendedData><Point><coordinates>14.1752572,58.0219407</coordinates></Point></Placemark><Placemark><ExtendedData><Data name="@id"><value>node/7620075332</value></Data><Data name="access"><value>yes</value></Data><Data name="amenity"><value>shower</value></Data><Data name="fee"><value>no</value></Data><Data name="supervised"><value>no</value></Data><Data name="wheelchair"><value>yes</value></Data></ExtendedData><Point><coordinates>13.0583669,55.6592776</coordinates></Point></Placemark><Placemark><ExtendedData><Data name="@id"><value>node/7635152301</value></Data><Data name="amenity"><value>shower</value></Data><Data name="check_date"><value>2020-06-19</value></Data><Data name="access"><value>yes</value></Data></ExtendedData><Point><coordinates>18.0727718,59.3400373</coordinates></Point></Placemark><Placemark><ExtendedData><Data name="@id"><value>node/7650672056</value></Data><Data name="access"><value>yes</value></Data><Data name="amenity"><value>shower</value></Data><Data name="fee"><value>no</value></Data></ExtendedData><Point><coordinates>18.0078875,59.3604844</coordinates></Point></Placemark><Placemark><ExtendedData><Data name="@id"><value>node/7663068457</value></Data><Data name="amenity"><value>shower</value></Data></ExtendedData><Point><coordinates>11.6174049,58.4079528</coordinates></Point></Placemark><Placemark><ExtendedData><Data name="@id"><value>node/7681234845</value></Data><Data name="amenity"><value>shower</value></Data></ExtendedData><Point><coordinates>18.0970753,59.2477829</coordinates></Point></Placemark><Placemark><ExtendedData><Data name="@id"><value>node/7689229573</value></Data><Data name="unisex"><value>yes</value></Data><Data name="fee"><value>yes</value></Data><Data name="access"><value>customers</value></Data><Data name="amenity"><value>shower</value></Data></ExtendedData><Point><coordinates>18.3377005,63.0652275</coordinates></Point></Placemark><Placemark><ExtendedData><Data name="@id"><value>node/7711731685</value></Data><Data name="amenity"><value>shower</value></Data></ExtendedData><Point><coordinates>12.6812907,56.058723</coordinates></Point></Placemark><Placemark><ExtendedData><Data name="@id"><value>node/7760724033</value></Data><Data name="access"><value>customers</value></Data><Data name="amenity"><value>shower</value></Data><Data name="capacity"><value>2</value></Data><Data name="fee"><value>no</value></Data><Data name="female"><value>yes</value></Data><Data name="male"><value>no</value></Data><Data name="opening_hours"><value>24/7</value></Data><Data name="operator"><value>Bureå Camping</value></Data><Data name="unisex"><value>no</value></Data><Data name="wheelchair"><value>no</value></Data></ExtendedData><Point><coordinates>21.1824768,64.6172516</coordinates></Point></Placemark><Placemark><ExtendedData><Data name="@id"><value>node/7760724042</value></Data><Data name="access"><value>customers</value></Data><Data name="amenity"><value>shower</value></Data><Data name="fee"><value>no</value></Data><Data name="female"><value>yes</value></Data><Data name="male"><value>no</value></Data><Data name="opening_hours"><value>24/7</value></Data><Data name="operator"><value>Bureå Camping</value></Data><Data name="unisex"><value>no</value></Data><Data name="wheelchair"><value>no</value></Data></ExtendedData><Point><coordinates>21.1824989,64.6172335</coordinates></Point></Placemark><Placemark><ExtendedData><Data name="@id"><value>node/7764712500</value></Data><Data name="amenity"><value>shower</value></Data><Data name="capacity"><value>2</value></Data><Data name="female"><value>yes</value></Data><Data name="male"><value>no</value></Data><Data name="operator"><value>Bureå Camping</value></Data><Data name="unisex"><value>no</value></Data></ExtendedData><Point><coordinates>17.5258494,65.5345237</coordinates></Point></Placemark><Placemark><description>Actually capacity of 2 but one shower is forced to really hot water.</description><ExtendedData><Data name="@id"><value>node/7764712503</value></Data><Data name="amenity"><value>shower</value></Data><Data name="capacity"><value>1</value></Data><Data name="description"><value>Actually capacity of 2 but one shower is forced to really hot water.</value></Data><Data name="female"><value>no</value></Data><Data name="male"><value>yes</value></Data><Data name="operator"><value>Bureå Camping</value></Data><Data name="unisex"><value>no</value></Data></ExtendedData><Point><coordinates>17.525665,65.5344614</coordinates></Point></Placemark><Placemark><ExtendedData><Data name="@id"><value>node/7772738322</value></Data><Data name="amenity"><value>shower</value></Data><Data name="capacity"><value>3</value></Data><Data name="female"><value>yes</value></Data></ExtendedData><Point><coordinates>19.199418,65.5836778</coordinates></Point></Placemark><Placemark><ExtendedData><Data name="@id"><value>node/7772757961</value></Data><Data name="amenity"><value>shower</value></Data><Data name="capacity"><value>3</value></Data><Data name="male"><value>yes</value></Data></ExtendedData><Point><coordinates>19.1993715,65.5836312</coordinates></Point></Placemark><Placemark><ExtendedData><Data name="@id"><value>node/7783784957</value></Data><Data name="amenity"><value>shower</value></Data><Data name="fee"><value>no</value></Data></ExtendedData><Point><coordinates>17.1152576,65.1006404</coordinates></Point></Placemark><Placemark><ExtendedData><Data name="@id"><value>node/7790788830</value></Data><Data name="access"><value>customers</value></Data><Data name="amenity"><value>shower</value></Data><Data name="female"><value>yes</value></Data><Data name="male"><value>no</value></Data></ExtendedData><Point><coordinates>17.1136831,65.1000042</coordinates></Point></Placemark><Placemark><ExtendedData><Data name="@id"><value>node/7934217787</value></Data><Data name="access"><value>customers</value></Data><Data name="amenity"><value>shower</value></Data><Data name="hot_water"><value>yes</value></Data></ExtendedData><Point><coordinates>18.4035815,59.1358435</coordinates></Point></Placemark><Placemark><ExtendedData><Data name="@id"><value>node/7966212689</value></Data><Data name="amenity"><value>shower</value></Data></ExtendedData><Point><coordinates>16.6031285,58.2032747</coordinates></Point></Placemark><Placemark><ExtendedData><Data name="@id"><value>node/8524303978</value></Data><Data name="amenity"><value>shower</value></Data></ExtendedData><Point><coordinates>17.8571986,58.7685785</coordinates></Point></Placemark><Placemark><ExtendedData><Data name="@id"><value>node/8565948293</value></Data><Data name="amenity"><value>shower</value></Data></ExtendedData><Point><coordinates>17.8962926,59.3364732</coordinates></Point></Placemark><Placemark><ExtendedData><Data name="@id"><value>node/8565954919</value></Data><Data name="amenity"><value>shower</value></Data></ExtendedData><Point><coordinates>17.8991672,59.3367609</coordinates></Point></Placemark><Placemark><ExtendedData><Data name="@id"><value>node/8713601507</value></Data><Data name="amenity"><value>shower</value></Data></ExtendedData><Point><coordinates>12.9652735,55.6054093</coordinates></Point></Placemark><Placemark><name>Återbruket</name><ExtendedData><Data name="@id"><value>node/8730336552</value></Data><Data name="amenity"><value>give_box</value></Data><Data name="fixme"><value>Kolla om de fortfarande låter folk ta hem vissa möbler som står utanför osv.</value></Data><Data name="name"><value>Återbruket</value></Data><Data name="operator"><value>Falu Energi &amp; Vatten AB</value></Data><Data name="website"><value>https://fev.se/atervinning/sopsortering/aterbruket-falun.html</value></Data></ExtendedData><Point><coordinates>15.5770639,60.6130207</coordinates></Point></Placemark><Placemark><ExtendedData><Data name="@id"><value>node/8905308475</value></Data><Data name="amenity"><value>shower</value></Data></ExtendedData><Point><coordinates>15.0713593,58.3965972</coordinates></Point></Placemark><Placemark><ExtendedData><Data name="@id"><value>node/8919865624</value></Data><Data name="access"><value>yes</value></Data><Data name="amenity"><value>shower</value></Data><Data name="fee"><value>no</value></Data><Data name="hot_water"><value>no</value></Data></ExtendedData><Point><coordinates>15.2531894,59.2776885</coordinates></Point></Placemark><Placemark><ExtendedData><Data name="@id"><value>node/8923250730</value></Data><Data name="access"><value>customers</value></Data><Data name="amenity"><value>shower</value></Data><Data name="hot_water"><value>yes</value></Data></ExtendedData><Point><coordinates>17.9600191,59.3074878</coordinates></Point></Placemark><Placemark><ExtendedData><Data name="@id"><value>node/8923250744</value></Data><Data name="access"><value>yes</value></Data><Data name="amenity"><value>shower</value></Data><Data name="fee"><value>no</value></Data><Data name="hot_water"><value>yes</value></Data></ExtendedData><Point><coordinates>17.9615999,59.3073784</coordinates></Point></Placemark><Placemark><ExtendedData><Data name="@id"><value>node/8929351765</value></Data><Data name="amenity"><value>shower</value></Data></ExtendedData><Point><coordinates>16.6231262,59.4484837</coordinates></Point></Placemark><Placemark><ExtendedData><Data name="@id"><value>node/8938586721</value></Data><Data name="access"><value>customers</value></Data><Data name="amenity"><value>shower</value></Data><Data name="fee"><value>no</value></Data><Data name="hot_water"><value>yes</value></Data></ExtendedData><Point><coordinates>14.1814393,57.0367533</coordinates></Point></Placemark><Placemark><ExtendedData><Data name="@id"><value>node/8939173753</value></Data><Data name="access"><value>customers</value></Data><Data name="amenity"><value>shower</value></Data><Data name="hot_water"><value>fee</value></Data><Data name="unisex"><value>no</value></Data></ExtendedData><Point><coordinates>12.1921241,59.0359579</coordinates></Point></Placemark><Placemark><ExtendedData><Data name="@id"><value>node/8939357553</value></Data><Data name="amenity"><value>shower</value></Data></ExtendedData><Point><coordinates>16.4971189,57.0124694</coordinates></Point></Placemark><Placemark><ExtendedData><Data name="@id"><value>node/8960990457</value></Data><Data name="amenity"><value>shower</value></Data></ExtendedData><Point><coordinates>17.900421,62.6423607</coordinates></Point></Placemark><Placemark><ExtendedData><Data name="@id"><value>node/8990657887</value></Data><Data name="amenity"><value>shower</value></Data></ExtendedData><Point><coordinates>14.7191564,56.0106683</coordinates></Point></Placemark><Placemark><ExtendedData><Data name="@id"><value>node/8991431042</value></Data><Data name="amenity"><value>shower</value></Data></ExtendedData><Point><coordinates>14.4606552,59.2509855</coordinates></Point></Placemark><Placemark><ExtendedData><Data name="@id"><value>node/9017688517</value></Data><Data name="operator"><value>Kåseberga hamn</value></Data><Data name="access"><value>customers</value></Data><Data name="amenity"><value>shower</value></Data><Data name="fee"><value>yes</value></Data></ExtendedData><Point><coordinates>14.062835,55.3836879</coordinates></Point></Placemark><Placemark><ExtendedData><Data name="@id"><value>node/9026012166</value></Data><Data name="access"><value>customers</value></Data><Data name="amenity"><value>shower</value></Data><Data name="fee"><value>no</value></Data><Data name="unisex"><value>yes</value></Data><Data name="wheelchair"><value>yes</value></Data></ExtendedData><Point><coordinates>12.4442656,58.4937748</coordinates></Point></Placemark><Placemark><ExtendedData><Data name="@id"><value>node/9038495822</value></Data><Data name="access"><value>restricted</value></Data><Data name="amenity"><value>shower</value></Data></ExtendedData><Point><coordinates>11.2813518,58.5975539</coordinates></Point></Placemark><Placemark><ExtendedData><Data name="@id"><value>node/9053519420</value></Data><Data name="amenity"><value>shower</value></Data></ExtendedData><Point><coordinates>11.2169187,58.3548521</coordinates></Point></Placemark><Placemark><ExtendedData><Data name="@id"><value>node/9090345004</value></Data><Data name="amenity"><value>shower</value></Data></ExtendedData><Point><coordinates>13.0573309,55.6891641</coordinates></Point></Placemark><Placemark><ExtendedData><Data name="@id"><value>node/9260634062</value></Data><Data name="amenity"><value>shower</value></Data></ExtendedData><Point><coordinates>17.467318,67.7228524</coordinates></Point></Placemark><Placemark><ExtendedData><Data name="@id"><value>node/9396300197</value></Data><Data name="amenity"><value>shower</value></Data></ExtendedData><Point><coordinates>19.0496926,59.7208375</coordinates></Point></Placemark><Placemark><ExtendedData><Data name="@id"><value>node/9396300198</value></Data><Data name="amenity"><value>shower</value></Data></ExtendedData><Point><coordinates>19.0503906,59.7208336</coordinates></Point></Placemark><Placemark><ExtendedData><Data name="@id"><value>node/9396300199</value></Data><Data name="amenity"><value>shower</value></Data></ExtendedData><Point><coordinates>19.0511807,59.7206345</coordinates></Point></Placemark><Placemark><description>Utomhus dush, sommartid</description><ExtendedData><Data name="@id"><value>node/9407688284</value></Data><Data name="amenity"><value>shower</value></Data><Data name="description"><value>Utomhus dush, sommartid</value></Data><Data name="fee"><value>no</value></Data><Data name="hot_water"><value>no</value></Data></ExtendedData><Point><coordinates>17.928743,59.4801909</coordinates></Point></Placemark><Placemark><ExtendedData><Data name="@id"><value>node/9425573303</value></Data><Data name="amenity"><value>shower</value></Data></ExtendedData><Point><coordinates>16.4047452,58.6602603</coordinates></Point></Placemark><Placemark><ExtendedData><Data name="@id"><value>node/9583661251</value></Data><Data name="access"><value>yes</value></Data><Data name="amenity"><value>shower</value></Data><Data name="fee"><value>no</value></Data><Data name="hot_water"><value>yes</value></Data><Data name="location"><value>outdoor</value></Data></ExtendedData><Point><coordinates>12.9552566,55.5989061</coordinates></Point></Placemark><Placemark><ExtendedData><Data name="@id"><value>node/9583661253</value></Data><Data name="access"><value>yes</value></Data><Data name="amenity"><value>shower</value></Data><Data name="fee"><value>no</value></Data><Data name="hot_water"><value>yes</value></Data><Data name="location"><value>outdoor</value></Data></ExtendedData><Point><coordinates>12.9735262,55.60419</coordinates></Point></Placemark><Placemark><ExtendedData><Data name="@id"><value>node/9651707421</value></Data><Data name="access"><value>yes</value></Data><Data name="amenity"><value>shower</value></Data><Data name="fee"><value>no</value></Data><Data name="hot_water"><value>no</value></Data><Data name="supervised"><value>no</value></Data><Data name="wheelchair"><value>yes</value></Data></ExtendedData><Point><coordinates>18.0063287,59.301314</coordinates></Point></Placemark><Placemark><ExtendedData><Data name="@id"><value>node/9670627858</value></Data><Data name="amenity"><value>shower</value></Data><Data name="toilets"><value>yes</value></Data></ExtendedData><Point><coordinates>13.2109947,58.6436168</coordinates></Point></Placemark><Placemark><ExtendedData><Data name="@id"><value>node/9761519253</value></Data><Data name="access"><value>yes</value></Data><Data name="amenity"><value>shower</value></Data><Data name="check_date"><value>2022-05-22</value></Data><Data name="fee"><value>no</value></Data></ExtendedData><Point><coordinates>20.955572,64.7481283</coordinates></Point></Placemark><Placemark><ExtendedData><Data name="@id"><value>node/9780307524</value></Data><Data name="access"><value>private</value></Data><Data name="amenity"><value>shower</value></Data></ExtendedData><Point><coordinates>18.3039992,59.4054165</coordinates></Point></Placemark><Placemark><ExtendedData><Data name="@id"><value>node/9811489172</value></Data><Data name="amenity"><value>shower</value></Data></ExtendedData><Point><coordinates>17.4381874,58.8685185</coordinates></Point></Placemark><Placemark><ExtendedData><Data name="@id"><value>node/9825242054</value></Data><Data name="access"><value>customers</value></Data><Data name="amenity"><value>shower</value></Data><Data name="fee"><value>yes</value></Data><Data name="hot_water"><value>yes</value></Data><Data name="opening_hours"><value>24/7</value></Data><Data name="supervised"><value>yes</value></Data><Data name="wheelchair"><value>yes</value></Data></ExtendedData><Point><coordinates>16.104441,58.0302279</coordinates></Point></Placemark><Placemark><ExtendedData><Data name="@id"><value>node/9850580032</value></Data><Data name="access"><value>yes</value></Data><Data name="amenity"><value>shower</value></Data><Data name="fee"><value>no</value></Data><Data name="hot_water"><value>no</value></Data><Data name="wheelchair"><value>no</value></Data></ExtendedData><Point><coordinates>17.9661876,59.3151102</coordinates></Point></Placemark><Placemark><ExtendedData><Data name="@id"><value>node/9874759941</value></Data><Data name="unisex"><value>yes</value></Data><Data name="fee"><value>no</value></Data><Data name="amenity"><value>shower</value></Data><Data name="access"><value>yes</value></Data></ExtendedData><Point><coordinates>12.0521703,58.2984472</coordinates></Point></Placemark><Placemark><ExtendedData><Data name="@id"><value>node/9874892770</value></Data><Data name="access"><value>customers</value></Data><Data name="amenity"><value>shower</value></Data><Data name="fee"><value>no</value></Data><Data name="female"><value>yes</value></Data><Data name="male"><value>yes</value></Data></ExtendedData><Point><coordinates>19.1927392,58.3903522</coordinates></Point></Placemark><Placemark><ExtendedData><Data name="@id"><value>node/9883550518</value></Data><Data name="access"><value>yes</value></Data><Data name="amenity"><value>shower</value></Data><Data name="charge"><value>0</value></Data><Data name="fee"><value>no</value></Data><Data name="hot_water"><value>no</value></Data><Data name="opening_hours"><value>Mo-Sa 00:00-23:59</value></Data><Data name="supervised"><value>no</value></Data><Data name="survey:date"><value>2022-07-12</value></Data><Data name="wheelchair"><value>limited</value></Data></ExtendedData><Point><coordinates>15.8360051,58.3710617</coordinates></Point></Placemark><Placemark><ExtendedData><Data name="@id"><value>node/9883613719</value></Data><Data name="access"><value>yes</value></Data><Data name="amenity"><value>shower</value></Data><Data name="charge"><value>0</value></Data><Data name="fee"><value>no</value></Data><Data name="hot_water"><value>no</value></Data><Data name="opening_hours"><value>Mo-Sa 00:00-23:59</value></Data><Data name="supervised"><value>no</value></Data><Data name="survey:date"><value>2022-07-12</value></Data><Data name="wheelchair"><value>limited</value></Data></ExtendedData><Point><coordinates>15.8360051,58.3710617</coordinates></Point></Placemark><Placemark><ExtendedData><Data name="@id"><value>node/9897541191</value></Data><Data name="amenity"><value>shower</value></Data><Data name="fee"><value>no</value></Data><Data name="location"><value>outdoor</value></Data><Data name="unisex"><value>yes</value></Data></ExtendedData><Point><coordinates>12.7435228,56.6441595</coordinates></Point></Placemark><Placemark><ExtendedData><Data name="@id"><value>node/9906506586</value></Data><Data name="amenity"><value>shower</value></Data></ExtendedData><Point><coordinates>12.8296318,56.2539232</coordinates></Point></Placemark><Placemark><ExtendedData><Data name="@id"><value>node/9918586650</value></Data><Data name="amenity"><value>shower</value></Data></ExtendedData><Point><coordinates>18.107047,59.289722</coordinates></Point></Placemark><Placemark><ExtendedData><Data name="@id"><value>node/9931429983</value></Data><Data name="access"><value>yes</value></Data><Data name="amenity"><value>shower</value></Data></ExtendedData><Point><coordinates>12.7608363,56.3079574</coordinates></Point></Placemark><Placemark><ExtendedData><Data name="@id"><value>node/9931650542</value></Data><Data name="access"><value>yes</value></Data><Data name="amenity"><value>shower</value></Data></ExtendedData><Point><coordinates>12.7609195,56.3079267</coordinates></Point></Placemark><Placemark><ExtendedData><Data name="@id"><value>node/9931657170</value></Data><Data name="access"><value>yes</value></Data><Data name="amenity"><value>shower</value></Data></ExtendedData><Point><coordinates>12.7609195,56.3079267</coordinates></Point></Placemark><Placemark><ExtendedData><Data name="@id"><value>node/9934215186</value></Data><Data name="operator"><value>Stensö Camping</value></Data><Data name="fee"><value>no</value></Data><Data name="amenity"><value>shower</value></Data><Data name="access"><value>customers</value></Data></ExtendedData><Point><coordinates>16.3237989,56.647886</coordinates></Point></Placemark><Placemark><ExtendedData><Data name="@id"><value>node/9935904805</value></Data><Data name="access"><value>customers</value></Data><Data name="amenity"><value>shower</value></Data></ExtendedData><Point><coordinates>16.4758524,57.1556496</coordinates></Point></Placemark><Placemark><ExtendedData><Data name="@id"><value>node/9936632259</value></Data><Data name="access"><value>customers</value></Data><Data name="amenity"><value>shower</value></Data></ExtendedData><Point><coordinates>12.189631,57.189316</coordinates></Point></Placemark><Placemark><ExtendedData><Data name="@id"><value>node/9936632260</value></Data><Data name="access"><value>customers</value></Data><Data name="amenity"><value>shower</value></Data></ExtendedData><Point><coordinates>12.1918603,57.1904616</coordinates></Point></Placemark><Placemark><ExtendedData><Data name="@id"><value>node/9939200358</value></Data><Data name="access"><value>customers</value></Data><Data name="amenity"><value>shower</value></Data><Data name="fee"><value>no</value></Data><Data name="unisex"><value>yes</value></Data><Data name="wheelchair"><value>yes</value></Data></ExtendedData><Point><coordinates>13.5043135,55.4759782</coordinates></Point></Placemark><Placemark><ExtendedData><Data name="@id"><value>node/9948921934</value></Data><Data name="access"><value>yes</value></Data><Data name="amenity"><value>shower</value></Data><Data name="fee"><value>no</value></Data><Data name="hot_water"><value>yes</value></Data></ExtendedData><Point><coordinates>16.8939228,58.2546075</coordinates></Point></Placemark><Placemark><ExtendedData><Data name="@id"><value>node/9950139310</value></Data><Data name="access"><value>customers</value></Data><Data name="amenity"><value>shower</value></Data><Data name="fee"><value>yes</value></Data></ExtendedData><Point><coordinates>12.2525078,58.9537482</coordinates></Point></Placemark><Placemark><ExtendedData><Data name="@id"><value>node/9950139312</value></Data><Data name="access"><value>customers</value></Data><Data name="amenity"><value>shower</value></Data><Data name="fee"><value>yes</value></Data></ExtendedData><Point><coordinates>12.2526339,58.9522072</coordinates></Point></Placemark><Placemark><ExtendedData><Data name="@id"><value>node/9950139314</value></Data><Data name="access"><value>customers</value></Data><Data name="amenity"><value>shower</value></Data><Data name="fee"><value>yes</value></Data></ExtendedData><Point><coordinates>12.2562441,58.9524361</coordinates></Point></Placemark><Placemark><ExtendedData><Data name="@id"><value>node/9953082211</value></Data><Data name="access"><value>customers</value></Data><Data name="amenity"><value>shower</value></Data></ExtendedData><Point><coordinates>16.3770523,56.7571762</coordinates></Point></Placemark><Placemark><ExtendedData><Data name="@id"><value>node/9962256761</value></Data><Data name="access"><value>yes</value></Data><Data name="amenity"><value>shower</value></Data><Data name="fee"><value>no</value></Data><Data name="hot_water"><value>no</value></Data><Data name="opening_hours"><value>24/7</value></Data><Data name="supervised"><value>no</value></Data><Data name="unisex"><value>yes</value></Data></ExtendedData><Point><coordinates>12.9058511,55.5712373</coordinates></Point></Placemark><Placemark><ExtendedData><Data name="@id"><value>node/9962594443</value></Data><Data name="access"><value>customers</value></Data><Data name="amenity"><value>shower</value></Data><Data name="female"><value>yes</value></Data><Data name="male"><value>yes</value></Data></ExtendedData><Point><coordinates>14.1325667,57.5102858</coordinates></Point></Placemark><Placemark><ExtendedData><Data name="@id"><value>node/9969416719</value></Data><Data name="amenity"><value>shower</value></Data></ExtendedData><Point><coordinates>11.794029,57.5986438</coordinates></Point></Placemark><Placemark><ExtendedData><Data name="@id"><value>node/9974550478</value></Data><Data name="access"><value>customers</value></Data><Data name="amenity"><value>shower</value></Data></ExtendedData><Point><coordinates>15.0210452,64.2821478</coordinates></Point></Placemark><Placemark><ExtendedData><Data name="@id"><value>node/9975013225</value></Data><Data name="amenity"><value>shower</value></Data><Data name="cold_water"><value>yes</value></Data><Data name="fee"><value>yes</value></Data><Data name="hot_water"><value>yes</value></Data><Data name="location"><value>indoor</value></Data><Data name="operator"><value>Strömsnäs Naturcamping</value></Data><Data name="unisex"><value>yes</value></Data></ExtendedData><Point><coordinates>14.4049772,58.5900573</coordinates></Point></Placemark><Placemark><ExtendedData><Data name="@id"><value>node/9979806444</value></Data><Data name="amenity"><value>shower</value></Data></ExtendedData><Point><coordinates>13.2456176,56.6079958</coordinates></Point></Placemark><Placemark><ExtendedData><Data name="@id"><value>node/9979845803</value></Data><Data name="amenity"><value>shower</value></Data></ExtendedData><Point><coordinates>12.9354914,56.4915208</coordinates></Point></Placemark><Placemark><ExtendedData><Data name="@id"><value>node/9985850053</value></Data><Data name="amenity"><value>shower</value></Data></ExtendedData><Point><coordinates>12.7586752,56.3275314</coordinates></Point></Placemark><Placemark><ExtendedData><Data name="@id"><value>node/10012956262</value></Data><Data name="access"><value>customers</value></Data><Data name="amenity"><value>shower</value></Data><Data name="fee"><value>yes</value></Data><Data name="unisex"><value>yes</value></Data></ExtendedData><Point><coordinates>13.6030941,55.3937161</coordinates></Point></Placemark><Placemark><ExtendedData><Data name="@id"><value>node/10012956263</value></Data><Data name="access"><value>yes</value></Data><Data name="amenity"><value>shower</value></Data><Data name="fee"><value>no</value></Data><Data name="hot_water"><value>no</value></Data><Data name="opening_hours"><value>24/7</value></Data><Data name="operator"><value>Abbekås Hamn</value></Data><Data name="unisex"><value>yes</value></Data><Data name="wheelchair"><value>no</value></Data></ExtendedData><Point><coordinates>13.6032324,55.3932831</coordinates></Point></Placemark><Placemark><ExtendedData><Data name="@id"><value>node/10029070600</value></Data><Data name="access"><value>customers</value></Data><Data name="amenity"><value>shower</value></Data><Data name="operator"><value>Langholmens Husbilcamping</value></Data></ExtendedData><Point><coordinates>18.0327937,59.3203807</coordinates></Point></Placemark><Placemark><ExtendedData><Data name="@id"><value>node/10037871032</value></Data><Data name="access"><value>customers</value></Data><Data name="amenity"><value>shower</value></Data></ExtendedData><Point><coordinates>14.5027568,58.540728</coordinates></Point></Placemark><Placemark><ExtendedData><Data name="@id"><value>node/10048295721</value></Data><Data name="amenity"><value>shower</value></Data></ExtendedData><Point><coordinates>12.9674505,55.6027789</coordinates></Point></Placemark><Placemark><ExtendedData><Data name="@id"><value>node/10083787167</value></Data><Data name="access"><value>customers</value></Data><Data name="amenity"><value>shower</value></Data></ExtendedData><Point><coordinates>13.8221748,58.4050172</coordinates></Point></Placemark><Placemark><ExtendedData><Data name="@id"><value>node/10291145778</value></Data><Data name="amenity"><value>shower</value></Data></ExtendedData><Point><coordinates>15.4278181,59.9401038</coordinates></Point></Placemark></Document></kml>